{"type":"FeatureCollection", "features": [
{"type":"Feature","geometry":{"type":"MultiPolygon","coordinates":[[[[-46.66611611986842,-23.54766203700849],[-46.66595656335956,-23.54765931430686],[-46.6659419298432,-23.547658164396797],[-46.66592746081436,-23.5476558433124],[-46.665920322691996,-23.547654248287504],[-46.66591326617872,-23.547652367033756],[-46.66590630602199,-23.547650203908262],[-46.665899455010496,-23.547647763289145],[-46.66589272592157,-23.54764504865164],[-46.665886132557425,-23.54764206707206],[-46.66587968573664,-23.54763882204661],[-46.665873399261415,-23.547635320651647],[-46.66586728399584,-23.547631569994927],[-46.66586135275136,-23.547627576260417],[-46.665855616414824,-23.5476233483617],[-46.66585008487094,-23.54761889341708],[-46.66582827309266,-23.547599361754816],[-46.66581210685389,-23.547585557975708],[-46.66579555573499,-23.54757214751899],[-46.665778629654724,-23.547559140211504],[-46.66576134241519,-23.547546543129453],[-46.66574370492588,-23.547534366992124],[-46.66572572900737,-23.5475226170909],[-46.66570742655987,-23.54751130503749],[-46.66568881038328,-23.547500436112788],[-46.665669892332275,-23.54749001831691],[-46.665650687188226,-23.547480058715585],[-46.66563120679438,-23.547470564406062],[-46.66561146396198,-23.54746154157214],[-46.66559147248161,-23.547452996387207],[-46.66557124613247,-23.547444934121696],[-46.66555079870512,-23.54743736094898],[-46.66553014397874,-23.547430282139537],[-46.665509295721115,-23.547423702060946],[-46.66548826869077,-23.547417625973207],[-46.665467077612085,-23.547412056427643],[-46.66544573527346,-23.54740699780233],[-46.66542425741275,-23.547402455346816],[-46.66540265774083,-23.547398428914217],[-46.66538095200691,-23.547394924656995],[-46.665359154901246,-23.547391942417796],[-46.665337279189416,-23.54738948476898],[-46.66531534253387,-23.547387554230422],[-46.66529335865685,-23.54738615155821],[-46.665271343239276,-23.54738527748744],[-46.66524931001477,-23.547384933677094],[-46.66522727366217,-23.547385119066988],[-46.665205250830404,-23.54738583347885],[-46.66518325622107,-23.547387077658307],[-46.66516130352227,-23.547388849652794],[-46.66513940840357,-23.547391149294555],[-46.6651175855211,-23.54739397371764],[-46.66509585053306,-23.547397321851417],[-46.66507421712759,-23.547401191743358],[-46.66504555773261,-23.547407156912573],[-46.66501714005234,-23.547414037860413],[-46.66498899823893,-23.547421824288172],[-46.66496116745805,-23.54743050859536],[-46.664933681839166,-23.547440078677536],[-46.66490657259642,-23.54745052426751],[-46.66487987383663,-23.54746183145506],[-46.664853617730635,-23.54747398815675],[-46.66482783542447,-23.547486978688053],[-46.66480255904357,-23.54750078735397],[-46.66477781874334,-23.547515397577573],[-46.66475364368847,-23.547530791889557],[-46.66473006499105,-23.547546951896734],[-46.66470710884367,-23.547563857452563],[-46.66468480437706,-23.547581488379052],[-46.66466317776114,-23.547599822723857],[-46.66465799426225,-23.547604412273902],[-46.66465139094809,-23.547608727151964],[-46.66464521733721,-23.54761239628574],[-46.664638883991195,-23.547615826022625],[-46.664632400601405,-23.54761900813168],[-46.66462577887478,-23.54762193887551],[-46.66461903048416,-23.54762461180799],[-46.66461216517776,-23.547627023212694],[-46.664605198568644,-23.54762916840737],[-46.6645981404164,-23.54763104457848],[-46.66459100437536,-23.54763264706477],[-46.66458380119585,-23.547633973945096],[-46.66457654455496,-23.547635022364016],[-46.664569247161765,-23.547635790379456],[-46.66456192076871,-23.54763627786557],[-46.664397369777724,-23.547634489268628],[-46.66436999570874,-23.54924069928814],[-46.664366354269966,-23.549463735516742],[-46.66436606528004,-23.549491812607968],[-46.664366189401896,-23.54949396859501],[-46.664366416698236,-23.549497939451616],[-46.66436611794753,-23.549501050844974],[-46.66436541658219,-23.54950462618479],[-46.66436432095044,-23.54950862835786],[-46.664362841359264,-23.54951302023004],[-46.66436099095144,-23.549517756509655],[-46.664358789725426,-23.54952279183161],[-46.66435342239756,-23.549533558194714],[-46.664346950508794,-23.54954489534904],[-46.66433962705562,-23.549556359009802],[-46.66433174020148,-23.549567497291687],[-46.66432675358502,-23.549573882639955],[-46.66431856086983,-23.549583134173254],[-46.66430424280919,-23.549598262198327],[-46.66428935953768,-23.54961292128262],[-46.664273930415526,-23.549627093158367],[-46.66425758019637,-23.549641081644126],[-46.664241514986976,-23.549653901278855],[-46.66422457134141,-23.549666502751943],[-46.66420716520806,-23.54967854749415],[-46.6641893208783,-23.54969001989402],[-46.664171062848155,-23.54970092059226],[-46.66415856550691,-23.54970771139994],[-46.66414575806411,-23.54971398990059],[-46.66413266482251,-23.54971974138576],[-46.664119310153126,-23.549724956564326],[-46.66410572135375,-23.54972962521091],[-46.6640919227954,-23.549733738034416],[-46.66407794277804,-23.549737286604767],[-46.664063807665585,-23.549740264318654],[-46.66404954579211,-23.549742665454694],[-46.664035182576285,-23.549744486128773],[-46.66402074821652,-23.549745868694924],[-46.664006366550645,-23.549747702206076],[-46.66399208681872,-23.549750085467615],[-46.6639779461917,-23.54975301446974],[-46.66396397785477,-23.549756479827206],[-46.66395021894477,-23.54976047482154],[-46.66393670164481,-23.549764988272194],[-46.663923460096775,-23.549770008977696],[-46.663910527451826,-23.5497755248441],[-46.66389793684977,-23.549781522874635],[-46.663885717467416,-23.549787986502825],[-46.66387390046313,-23.549794900947035],[-46.66386251598176,-23.54980224872744],[-46.66385159219809,-23.549810011482272],[-46.663840517789176,-23.549818414283457],[-46.663829511786304,-23.54982734913404],[-46.663818999698556,-23.549836769942427],[-46.66380900574911,-23.549846655680046],[-46.66379955508372,-23.549856980793404],[-46.66379067090076,-23.54986772065281],[-46.663782374417124,-23.549878848843786],[-46.663774685870365,-23.549890338962285],[-46.663767624484564,-23.54990216190607],[-46.66376120655702,-23.549914289507203],[-46.663755448373706,-23.549926692694875],[-46.66375036325973,-23.54993934062389],[-46.6637459645402,-23.54995220244903],[-46.663742262602085,-23.549965247356532],[-46.663741476467834,-23.549971116370074],[-46.66373929385449,-23.549984480042863],[-46.663737871582825,-23.54999794033112],[-46.66373721406124,-23.550011458357826],[-46.66373732277138,-23.55002499618024],[-46.66373819721338,-23.550038514070827],[-46.66373983492857,-23.550051972322954],[-46.663742231522285,-23.55006533305674],[-46.66374371277187,-23.55007196434225],[-46.66374723305738,-23.550085106261793],[-46.66375149141803,-23.55009805426228],[-46.66375647464462,-23.550110770558085],[-46.66376216858262,-23.550123220082785],[-46.66376855710737,-23.550135366888],[-46.66377562114462,-23.550147174153896],[-46.663783340686216,-23.550158608682672],[-46.663791693776545,-23.55016963820041],[-46.66379609945127,-23.550174991124432],[-46.66380535704579,-23.55018535266179],[-46.66381020006018,-23.550190354146203],[-46.66381510034882,-23.55019811555102],[-46.663819075783145,-23.55020376114116],[-46.66382330089693,-23.55020924332209],[-46.66382776673931,-23.550214551353303],[-46.66383246437078,-23.550219675397198],[-46.66383738683333,-23.55022460740103],[-46.66384252517608,-23.550229336624305],[-46.66384786853483,-23.550233855959085],[-46.66385340896081,-23.550238156460185],[-46.66385913558982,-23.55024223101968],[-46.66386503754628,-23.550246071626717],[-46.66387110494536,-23.55024967116289],[-46.66387732693421,-23.55025302342317],[-46.6638836916806,-23.550256122212993],[-46.66389018835441,-23.550258963133132],[-46.663896804132605,-23.55026153909661],[-46.66390352720571,-23.55026384571467],[-46.66391034578691,-23.550265880404382],[-46.66391724805533,-23.55026763787407],[-46.66392422026539,-23.550269115561765],[-46.66393125063033,-23.550270310884503],[-46.6639383263953,-23.55027122217274],[-46.663960282059,-23.550274936145826],[-46.663989076522284,-23.550280112070666],[-46.664017766603294,-23.550285788477282],[-46.66404634149499,-23.550291962772288],[-46.66407479135834,-23.55029863144898],[-46.66410310442964,-23.550305793730246],[-46.66413127088122,-23.550313447012268],[-46.66415927988326,-23.550321586895905],[-46.664187122598825,-23.550330211669767],[-46.6642147862507,-23.550339317858587],[-46.66424226295858,-23.550348901934697],[-46.664269541903984,-23.5503589604019],[-46.66429661225707,-23.550369488861094],[-46.66432346516948,-23.550380484698],[-46.66435008981134,-23.55039194351355],[-46.66436990194357,-23.550400839323963],[-46.664389577221044,-23.550409990345184],[-46.66440911073553,-23.55041939572679],[-46.66442849854683,-23.550429053704942],[-46.664447735723975,-23.55043896162344],[-46.66446681930614,-23.550449117707956],[-46.66447964839214,-23.550456297559666],[-46.664504105381745,-23.550470711656146],[-46.66452805070222,-23.55048579675139],[-46.6645514497909,-23.550501530640066],[-46.664574270066566,-23.55051789290172],[-46.66459647790036,-23.550534857709007],[-46.66461804264701,-23.55055240281472],[-46.66463893262495,-23.55057050146769],[-46.66465911815684,-23.550589130507344],[-46.66467857144446,-23.550608260431883],[-46.66469726374425,-23.550627864458697],[-46.664710705458745,-23.550643007786537],[-46.664723820008234,-23.550658539302074],[-46.66473666802519,-23.550674373472404],[-46.66474923951102,-23.550690494150246],[-46.66476152057226,-23.550706887036117],[-46.66477350023089,-23.550723535993228],[-46.66478516652947,-23.550740424895313],[-46.664796508478545,-23.550757536702722],[-46.66480751413203,-23.550774856192078],[-46.66481817445923,-23.550792366302765],[-46.664831832607234,-23.55081597943504],[-46.66484483394931,-23.55083986147364],[-46.66485105556847,-23.550851889009422],[-46.66485660187409,-23.550864038458656],[-46.66486174690097,-23.550876369195834],[-46.66486648558144,-23.550888867729967],[-46.66487081284786,-23.55090152057004],[-46.6648747226304,-23.550914312429754],[-46.66487821182019,-23.55092722979713],[-46.66488127630616,-23.55094025736486],[-46.66488391198866,-23.55095338072856],[-46.66488611672679,-23.550966585462874],[-46.66488788738888,-23.550979856249988],[-46.66488922183404,-23.55099317866454],[-46.66488966530547,-23.55099984542801],[-46.664889486625285,-23.551006422229545],[-46.664889551893374,-23.551013002740333],[-46.664889861998184,-23.551019579726685],[-46.66489041488996,-23.551026145986388],[-46.664891212425154,-23.551032693372388],[-46.66489225158601,-23.55103921559586],[-46.66489353227018,-23.551045704530704],[-46.66489505242792,-23.551052152974687],[-46.664896810988886,-23.55105855371512],[-46.66489880491254,-23.55106489865736],[-46.66490103315129,-23.551071182394484],[-46.66490349167384,-23.551077395939455],[-46.66490617940983,-23.551083532079566],[-46.66492187614887,-23.551112910828962],[-46.66493563478678,-23.551136409995397],[-46.66493928931405,-23.55114239039705],[-46.66494755175636,-23.551151732167348],[-46.66495715820036,-23.551161858719283],[-46.66496715916389,-23.551171655959138],[-46.6649775417556,-23.551181111382583],[-46.66498829210472,-23.551190212495783],[-46.66499939636319,-23.55119894861072],[-46.66501083966948,-23.551207306341137],[-46.66502260720748,-23.551215275912384],[-46.665034684149745,-23.55122284664694],[-46.665047053710005,-23.551230007888222],[-46.66505969914748,-23.55123675259127],[-46.66507260562329,-23.551243069175666],[-46.66508575541724,-23.55124895060693],[-46.66509913079775,-23.551254388947697],[-46.66511271501263,-23.551259376250133],[-46.665126489396386,-23.551263908198955],[-46.665140437185435,-23.551267975943446],[-46.66515453875763,-23.551271576984615],[-46.66516877541333,-23.55127470429852],[-46.66518312948916,-23.551277355365237],[-46.6651975823196,-23.551279525869504],[-46.66521211429385,-23.551281214215287],[-46.66522670674641,-23.551282416087354],[-46.66524134007783,-23.551283130792573],[-46.66525599567948,-23.551283358530224],[-46.665263325577996,-23.551283289063036],[-46.66527779527296,-23.551281045418236],[-46.66529215831101,-23.55127826652058],[-46.665306392245554,-23.551274958931604],[-46.66532047262573,-23.551271125622304],[-46.665334377027726,-23.55126677496004],[-46.66534808201421,-23.551261912613988],[-46.66536156712021,-23.551256546930578],[-46.66537480894252,-23.551250686287688],[-46.66538778705034,-23.55124434174042],[-46.6654004790199,-23.55123752165622],[-46.66541286443177,-23.55123023799309],[-46.66542492384594,-23.55122250269856],[-46.665436636843005,-23.55121432773068],[-46.665447984017106,-23.5512057277457],[-46.665458947898436,-23.55119671557306],[-46.66546374962381,-23.55119252560467],[-46.66547966770178,-23.551169037336916],[-46.665494450543314,-23.55114562985637],[-46.665505021226615,-23.55112780300113],[-46.665515140523425,-23.551109757031067],[-46.66552480170331,-23.55109150195157],[-46.66553244949248,-23.551076241177846],[-46.665568184879156,-23.550947718105558],[-46.665599414521765,-23.5508325727633],[-46.66566512201198,-23.55056779525884],[-46.66566727997246,-23.55055443363852],[-46.6656722659411,-23.550527792619473],[-46.66567813612325,-23.550501283903],[-46.665684886987755,-23.550474938229552],[-46.66569250911575,-23.550448785499576],[-46.66570099501302,-23.550422852883823],[-46.66570665069117,-23.55040699306741],[-46.665712711640985,-23.550387460843265],[-46.665721331217036,-23.55036156562449],[-46.66572819725092,-23.550342260464046],[-46.66573540452987,-23.550323062719393],[-46.66574295116324,-23.55030397782885],[-46.66575647502146,-23.55027130889758],[-46.66576635517424,-23.550245798405065],[-46.66577655699382,-23.550220396440732],[-46.665787077575985,-23.550195105744688],[-46.665797916966106,-23.55016992992847],[-46.66580907323939,-23.550144871721702],[-46.66582054548457,-23.550119936552196],[-46.66583233077472,-23.55009512535428],[-46.66584442819859,-23.550070443555754],[-46.665856836810775,-23.55004589387575],[-46.665869553707125,-23.550021479054365],[-46.66588257795364,-23.54999720271362],[-46.66589590763693,-23.54997306848602],[-46.665914562304955,-23.549940413206915],[-46.66600540580187,-23.549772511359564],[-46.66601741188712,-23.549754497522876],[-46.66602670883936,-23.54973486831102],[-46.66604098725205,-23.549704721536045],[-46.666049315608966,-23.549680752854098],[-46.666062619607395,-23.549642464054724],[-46.66606828084715,-23.54961912535802],[-46.66607331813306,-23.549598350698037],[-46.66607794300655,-23.549579282648697],[-46.66608099892257,-23.549566681679003],[-46.66608184826598,-23.549520612250436],[-46.66609790691846,-23.548649752118514],[-46.666100934004135,-23.54848559402247],[-46.66611611986842,-23.54766203700849]]]]},"properties":{"Equipamento":"Estádio do Pacaembú","Modalidade da Concessão":"Concessão","Concessionária":"CONCESSIONARIA ALLEGRA PACAEMBU SPE S/A","Investimento":22003400,"Prazo da Concessão":35,"Poder Concedente":"Secreatria Municipal de Esportes e Lazer","Área":66044.7}}
]}
