{"type":"FeatureCollection", "features": [
{"type":"Feature","geometry":{"type":"MultiPolygon","coordinates":[[[[-46.701558334522836,-23.520547456355946],[-46.701593757290624,-23.520530321861848],[-46.70171665726321,-23.520447960966685],[-46.701686661520895,-23.520421665414467],[-46.70163597012385,-23.520376445943047],[-46.701588993586604,-23.520335294545042],[-46.701545038530355,-23.52029683719634],[-46.70150783911407,-23.52026740834194],[-46.70147057828413,-23.520237771553415],[-46.701370505064844,-23.520160050585826],[-46.70136779816132,-23.52016278017861],[-46.70138081680131,-23.520173753950946],[-46.70140150114624,-23.520194468697067],[-46.70141984329165,-23.52021428797053],[-46.70143920029683,-23.520237635953684],[-46.70145816687781,-23.52026413068228],[-46.70147563085749,-23.520290290561945],[-46.70148981043836,-23.5203153927952],[-46.70150146727487,-23.52033926741798],[-46.70151186307182,-23.520361792277217],[-46.70151961437005,-23.520381998213985],[-46.701527081410866,-23.52040142163751],[-46.70153666259455,-23.520435992543916],[-46.70154118767186,-23.520455095952567],[-46.701558334522836,-23.520547456355946]]],[[[-46.700864482634024,-23.519312484782706],[-46.70089998172464,-23.519296429623786],[-46.70071310170049,-23.51888063710758],[-46.70070268376959,-23.518855759171668],[-46.700606704938984,-23.518897279883557],[-46.70061765993387,-23.518921048478187],[-46.70068084711648,-23.518893269573983],[-46.700864482634024,-23.519312484782706]]],[[[-46.701409261103066,-23.52058237004382],[-46.701458701986276,-23.520585391078086],[-46.70144714857496,-23.520521268095973],[-46.7014239612369,-23.520391478856386],[-46.70140395730836,-23.520323370239424],[-46.70137948386027,-23.52027955543289],[-46.70132859920249,-23.52022721230038],[-46.70131909254608,-23.52023172471369],[-46.70132649142665,-23.520249276950807],[-46.70133869979988,-23.520268979966378],[-46.70135591698031,-23.52030626224366],[-46.70136151972612,-23.52037012068212],[-46.70134588899595,-23.520456251018405],[-46.701310850248866,-23.520520553684687],[-46.701268327582035,-23.520560692281055],[-46.7013186645752,-23.5205706513374],[-46.70135146407437,-23.520575852666223],[-46.701409261103066,-23.52058237004382]]],[[[-46.699823263174096,-23.51878739806863],[-46.69995916913901,-23.5189857505116],[-46.69996699272256,-23.51899712339186],[-46.69998049991236,-23.519014892543403],[-46.69998705639969,-23.519023679488466],[-46.69999309664697,-23.519030395143098],[-46.69999946730445,-23.519030813193762],[-46.700020371054826,-23.51902213270119],[-46.70011594565393,-23.518979080730276],[-46.70022527866319,-23.518937070400288],[-46.700250556090204,-23.51892658123174],[-46.7002556173728,-23.51891807375399],[-46.70025553572092,-23.518911717440307],[-46.70025303508869,-23.518906109958696],[-46.70024352256491,-23.518891941755786],[-46.70022466533282,-23.518862641806898],[-46.70015585019574,-23.51875654903731],[-46.70010316561313,-23.518680332302793],[-46.700097282652685,-23.518671375463477],[-46.70001239410295,-23.518542115301138],[-46.69994028848653,-23.518435985208296],[-46.69992819366327,-23.518415562023087],[-46.69979105183639,-23.51848488760821],[-46.699662871114086,-23.518544904506232],[-46.699823263174096,-23.51878739806863]]],[[[-46.69957469351474,-23.520664436182745],[-46.699571467263596,-23.520654256536872],[-46.69940280993108,-23.52072666573869],[-46.699420616779406,-23.52077840897193],[-46.69943451475393,-23.52077291139768],[-46.6994413040219,-23.52078777218918],[-46.699426282095665,-23.520793138456764],[-46.699465913882484,-23.520897693551643],[-46.69949861344732,-23.520935528513203],[-46.69957255176775,-23.52095947454803],[-46.699697997113525,-23.52096270196034],[-46.70051911874551,-23.520677064693434],[-46.7005577111628,-23.520662483830467],[-46.700601149753055,-23.520634846639414],[-46.70064126218608,-23.520604428381706],[-46.700666118075674,-23.52058168986922],[-46.70067508762844,-23.520572489506765],[-46.70069595729862,-23.520544376473183],[-46.70071851406203,-23.52051342760622],[-46.70073781522075,-23.52048518722409],[-46.7007564690936,-23.520443155891808],[-46.70077265732574,-23.520386052238397],[-46.70077579353999,-23.520367957733022],[-46.70077719336281,-23.52034307168555],[-46.700775303400505,-23.520299334189204],[-46.70077299666753,-23.52027833727867],[-46.70076168961424,-23.52023107076579],[-46.70075503127108,-23.520210860969847],[-46.70074596217661,-23.52018975553955],[-46.70072904542957,-23.52016486464366],[-46.70071347124706,-23.520151020971753],[-46.700700842347096,-23.520148577247678],[-46.700496622520056,-23.52023728630948],[-46.700519788587215,-23.520281654650752],[-46.700378074518596,-23.52034454714139],[-46.70015646048631,-23.520440681631985],[-46.70009183434509,-23.52046171070869],[-46.70002366591481,-23.520492940946117],[-46.6999564951295,-23.52056143659768],[-46.699876717553344,-23.5205871307755],[-46.699806958272696,-23.520595152825038],[-46.699746538448125,-23.52062383942472],[-46.69965787290897,-23.52063292031248],[-46.69957469351474,-23.520664436182745]]],[[[-46.70075203490974,-23.520646779327524],[-46.70075620192029,-23.52065403013103],[-46.700758870885956,-23.520655128829574],[-46.70076475959527,-23.52065545368286],[-46.70088041531862,-23.520614457371806],[-46.70094185587922,-23.52059160799578],[-46.70097163106249,-23.52057979630199],[-46.700975907753595,-23.520577293373755],[-46.70097774594423,-23.520574022443416],[-46.70097871227234,-23.5205699663906],[-46.700979020382086,-23.52056346133896],[-46.70097806589842,-23.520556247675753],[-46.700964200618614,-23.520501496082552],[-46.70095050779664,-23.52044797069861],[-46.700909697947665,-23.52027171441125],[-46.70088946087799,-23.5201844517689],[-46.700871369994324,-23.52010569010139],[-46.70086351613899,-23.520061492222464],[-46.700862506121645,-23.52003166774805],[-46.70086290349831,-23.52001381989187],[-46.70086508672068,-23.51999472442519],[-46.70086967501433,-23.519973796653957],[-46.700878172815955,-23.519946179995085],[-46.701038927324255,-23.51974537240681],[-46.70108357431515,-23.51971730650574],[-46.7010986455643,-23.51971045951089],[-46.70111502506168,-23.519704826313173],[-46.70113302056275,-23.519699970103108],[-46.70115170091089,-23.519696587345663],[-46.70116547052023,-23.51969513652036],[-46.70117949090609,-23.519694911049093],[-46.70119564248581,-23.51969592650069],[-46.70121283651228,-23.519698808821776],[-46.70122956333647,-23.519701912970028],[-46.7012479532246,-23.519706407638168],[-46.70126352411296,-23.51971100535585],[-46.70127588898676,-23.519716071558612],[-46.70128547216916,-23.5197210959229],[-46.70129467298003,-23.51972684687522],[-46.70131310338686,-23.51974058793258],[-46.70137090541334,-23.519782108730386],[-46.70137493948085,-23.5197820646363],[-46.70137727085283,-23.519780594334634],[-46.701378843684445,-23.519778012589633],[-46.701378937504465,-23.519776169420272],[-46.701378235475524,-23.51977335969727],[-46.70137679394088,-23.51977091926207],[-46.70127357683918,-23.51968246867258],[-46.70120895860095,-23.519625671131266],[-46.70116619872931,-23.519590269930497],[-46.70115306094403,-23.51958297269604],[-46.7010886485477,-23.519548278579013],[-46.70107738868913,-23.519543850452592],[-46.70106744821898,-23.519541502893986],[-46.70105631264505,-23.519540649334587],[-46.70104645125889,-23.51954140727105],[-46.70103630578941,-23.519544443901232],[-46.70102809289638,-23.519548506905082],[-46.70102142510077,-23.519553925601556],[-46.701014942280494,-23.519561545625237],[-46.70098217635957,-23.519611894425257],[-46.700946377112565,-23.51966548296149],[-46.700815737490394,-23.519891597906266],[-46.70081415956474,-23.519909025216904],[-46.70081309561563,-23.51992377399622],[-46.7008134258542,-23.51993727944526],[-46.70081555178729,-23.519956400066906],[-46.70082053071135,-23.51998415842784],[-46.70082734189526,-23.520014280718637],[-46.70083845059676,-23.520067906598488],[-46.7008487407193,-23.52011879626557],[-46.7008587030314,-23.520162465418764],[-46.700867864397416,-23.520204770745014],[-46.700873911212966,-23.52023027796397],[-46.70087853135173,-23.520254500435396],[-46.7008812616778,-23.520271880667632],[-46.700883160988504,-23.520291653931803],[-46.700883958656945,-23.520317146268642],[-46.70088412874368,-23.520342573222326],[-46.700882550468535,-23.52036606877567],[-46.70088023287269,-23.52038690039595],[-46.70087704433229,-23.520407018220958],[-46.7008704611743,-23.52043121863321],[-46.70085618835339,-23.520472768658543],[-46.70083992102593,-23.52051152308049],[-46.700827466679435,-23.52053607661091],[-46.70081598701583,-23.520557224165632],[-46.700805631274285,-23.52057438618655],[-46.70079363984233,-23.520592288489492],[-46.700784479856104,-23.520604958504634],[-46.70075584754728,-23.520638646681967],[-46.70075331457302,-23.52064271985207],[-46.70075203490974,-23.520646779327524]]],[[[-46.70074943782569,-23.519833041416206],[-46.700810967612206,-23.519730210465386],[-46.70084127341414,-23.519679917475745],[-46.70088659181652,-23.519603050949996],[-46.70091354741575,-23.519557403529216],[-46.70091291882951,-23.51954499127573],[-46.70090637793241,-23.519541539198165],[-46.70088550760867,-23.519543372809096],[-46.70085541533283,-23.519555563595038],[-46.700827136169494,-23.519573506615874],[-46.700767227717044,-23.519621129573537],[-46.70071370236437,-23.51967890395928],[-46.70065351490472,-23.519746660770306],[-46.70074943782569,-23.519833041416206]]],[[[-46.701189068882414,-23.51950448670387],[-46.7011882681033,-23.51950008875815],[-46.70118531367918,-23.519495750470377],[-46.70113194869652,-23.519406285355476],[-46.70112927864762,-23.51940273860892],[-46.701125928219646,-23.519401113683053],[-46.70112204757636,-23.51940090325011],[-46.70111912454614,-23.519402054929603],[-46.701115391571086,-23.51940419071341],[-46.70108012701635,-23.51945518088612],[-46.70107822257911,-23.519459391673507],[-46.701077519279174,-23.51946257796111],[-46.70107799605354,-23.519466148677562],[-46.701079644083116,-23.51946941763025],[-46.70108194818075,-23.519471920883184],[-46.70108569490798,-23.519473902683718],[-46.70110383891549,-23.519480603406667],[-46.70112099217968,-23.519486411943152],[-46.70113580154228,-23.519492715659858],[-46.70114963547909,-23.51949931899919],[-46.70116538093238,-23.519508357638358],[-46.70117456037011,-23.519512447290772],[-46.701180086437255,-23.519512675859737],[-46.701183829626444,-23.51951133461305],[-46.701187481022544,-23.519508946875817],[-46.701189068882414,-23.51950448670387]]],[[[-46.70091586705356,-23.519447347087276],[-46.70094255083026,-23.519442121444563],[-46.70097233224337,-23.519440034227944],[-46.70098161471738,-23.519433320938408],[-46.7010191505135,-23.519373131365793],[-46.70105387731904,-23.519316873493768],[-46.70098520854019,-23.519281446540795],[-46.700941289385575,-23.51927774552745],[-46.70066987292907,-23.51940051378593],[-46.70045242903847,-23.519556602793426],[-46.70041539347568,-23.51960163423602],[-46.700099324021515,-23.519741360283245],[-46.69990948041969,-23.519825282705543],[-46.69923506029517,-23.520109944551916],[-46.69928901122213,-23.520213084597412],[-46.69933646526375,-23.520172729234485],[-46.69932173177222,-23.520145792492613],[-46.699396054723415,-23.52010050680482],[-46.69941419467725,-23.520087442635564],[-46.69942360748981,-23.520079964062276],[-46.69943948716644,-23.520070858992543],[-46.699460273656435,-23.520063174063676],[-46.69948538325343,-23.520060031942226],[-46.69954599439146,-23.5200462584162],[-46.699576405632264,-23.520033798002114],[-46.699599050658804,-23.52001855351276],[-46.69961202688754,-23.520004807943927],[-46.69962984091408,-23.51999412403805],[-46.69964257212902,-23.519988904674765],[-46.69966806204837,-23.519980759296082],[-46.699701911356875,-23.519973013869755],[-46.699719440364596,-23.519967741206596],[-46.69973394458772,-23.519962256855763],[-46.69975336061914,-23.519951718887793],[-46.69979708338018,-23.51992387022319],[-46.69982908439319,-23.519896805142235],[-46.69984367103631,-23.51988386190402],[-46.699853890089685,-23.519876866643305],[-46.69987013460202,-23.51986849440558],[-46.69988783029541,-23.51986240087195],[-46.69992820708417,-23.51985081493939],[-46.699959383823725,-23.519842607408098],[-46.69999410739874,-23.519833704643883],[-46.70043129854346,-23.519638572472964],[-46.70051383734682,-23.519593316627255],[-46.70055703490719,-23.519569810665153],[-46.7005703140631,-23.519564104840587],[-46.70057848557145,-23.519563221817553],[-46.700587969940656,-23.519563911945745],[-46.70059924805848,-23.519570143223714],[-46.700758379513225,-23.519485598377187],[-46.70078211998968,-23.51950730474308],[-46.70086376021856,-23.519466592561407],[-46.70091586705356,-23.519447347087276]]]]},"properties":{"Equipamento":"Baixo do Viaduto Lapa","Modalidade da Concessão":"Concessão","Concessionária":"VIVA A LAPA CONCESSIONARIA SPE LTDA","Investimento":5193000,"Prazo da Concessão":10,"Poder Concedente":"Subprefeitura da Lapa","Área":11305.86}}
]}
