{"type":"FeatureCollection", "features": [
{"type":"Feature","geometry":{"type":"Polygon","coordinates":[[[-46.66813006493679,-23.671565055151607],[-46.66817762818123,-23.67155610432835],[-46.66821063148969,-23.671555748891603],[-46.66824934941534,-23.671572208181846],[-46.66830305673137,-23.671613819989403],[-46.668422457562656,-23.67170819749764],[-46.6685544982561,-23.671806828258998],[-46.66868211292756,-23.67188889127016],[-46.668777203887736,-23.671942137480144],[-46.66758283575132,-23.672925344239275],[-46.66736395740574,-23.672772881414126],[-46.666830634113,-23.67347307958825],[-46.666912453148726,-23.67353957620234],[-46.666824099644664,-23.673657931416344],[-46.666622944462155,-23.67336661896111],[-46.66656139099734,-23.673275810337326],[-46.666487862048406,-23.673167333177613],[-46.6663488650468,-23.67297630762967],[-46.66620919686062,-23.672791698695157],[-46.66626518635159,-23.672756061537893],[-46.66641175247195,-23.67266264899089],[-46.666551336982195,-23.672575361575706],[-46.66671531709025,-23.672471285613756],[-46.666875350983624,-23.67236491226607],[-46.667013828465045,-23.67227573283471],[-46.66712080111213,-23.67220991813687],[-46.66719234314634,-23.672165902234394],[-46.66737436888002,-23.672046913281424],[-46.66759133671366,-23.671907772109048],[-46.66773664829864,-23.671816087601613],[-46.66813006493679,-23.671565055151607]]]},"properties":{"cd_identificador_concessao":65,"cd_identificador_equipamento":null,"nm_equipamento":"CEU Cidade Ademar","nm_parceria":null,"tx_modalidade_concessao":"Parceria público-privada (PPP)","qt_prazo_concessao":25,"nm_concessionaria":"SPE INTEGRA S/A","tx_cnpj_concessionaria":"47.732.462/0001-67","tx_poder_concedente":"Secetaria Municipal de Educação","an_assinatura":2022,"qt_area_metro":19541.29,"tx_numero_contrato":"CONTRATO Nº. 416/SME/2022","qt_investimento_real":76009,"tx_link_contrato":"https://www.prefeitura.sp.gov.br/cidade/secretarias/governo/desestatizacao_projetos/novos_ceus/index.php?p=342078","dt_atualizacao":"2024-05-28Z","cd_usuario_atualizacao":null},"id":"concessao_parceria.65"},
{"type":"Feature","geometry":{"type":"Polygon","coordinates":[[[-46.50604937745789,-23.553843874714406],[-46.50606592902215,-23.553843728850282],[-46.50609102785883,-23.55384025637945],[-46.50611583037855,-23.553835538735985],[-46.50628992693956,-23.553749915855942],[-46.50646355470658,-23.553664523097837],[-46.50658737016235,-23.553605106376192],[-46.50660618284055,-23.55360034193665],[-46.50662693194748,-23.553595815203344],[-46.50667266695246,-23.55359819323922],[-46.5067219270305,-23.55360594105693],[-46.506837366548645,-23.55364203600177],[-46.50739147273663,-23.55382248671603],[-46.507436403267576,-23.55383711790721],[-46.507436126491044,-23.553843082637176],[-46.507376433293935,-23.55392238887958],[-46.50730611687093,-23.55402991506482],[-46.50725009271487,-23.554135984203423],[-46.50720823951842,-23.55423004334379],[-46.50716783987812,-23.55432606790742],[-46.507123102908096,-23.55441817636073],[-46.50707700351967,-23.554516234768975],[-46.50703368897186,-23.554607670174185],[-46.506994049259056,-23.55470764457163],[-46.50696223362178,-23.5548035849893],[-46.506947353422866,-23.554878916739412],[-46.506941326022805,-23.55496207626374],[-46.50694112899786,-23.555054578399883],[-46.50688571449325,-23.555032915362542],[-46.50678758407662,-23.554985888217153],[-46.50669866471232,-23.554917963284012],[-46.50663937879043,-23.554852644584333],[-46.506557021039036,-23.554770118410705],[-46.5064580143755,-23.554680745693073],[-46.5063779449283,-23.554613320003025],[-46.50626466474576,-23.55451982385789],[-46.50613836511186,-23.554415693690316],[-46.506086157519164,-23.55437420134641],[-46.50604264202484,-23.55434758500385],[-46.50599549314103,-23.554333598013283],[-46.50599697661359,-23.55422438025355],[-46.505994174010496,-23.554224383015082],[-46.50599414224233,-23.554085699302778],[-46.50600848205515,-23.554085566737477],[-46.5060128548206,-23.554085036728996],[-46.506013533405046,-23.554080112956026],[-46.50601421198945,-23.55407518918303],[-46.50601597346943,-23.554062568014213],[-46.50601960064179,-23.55403658505513],[-46.506029806321926,-23.553988298545057],[-46.50603071090663,-23.55394733478555],[-46.50604937745789,-23.553843874714406]]]},"properties":{"cd_identificador_concessao":66,"cd_identificador_equipamento":null,"nm_equipamento":"CEU Cidade Líder","nm_parceria":null,"tx_modalidade_concessao":"Parceria público-privada (PPP)","qt_prazo_concessao":25,"nm_concessionaria":"SPE INTEGRA S/A","tx_cnpj_concessionaria":"47.732.462/0001-67","tx_poder_concedente":"Secetaria Municipal de Educação","an_assinatura":2022,"qt_area_metro":13590.25,"tx_numero_contrato":"CONTRATO Nº. 416/SME/2022","qt_investimento_real":96994,"tx_link_contrato":"https://www.prefeitura.sp.gov.br/cidade/secretarias/governo/desestatizacao_projetos/novos_ceus/index.php?p=342078","dt_atualizacao":"2024-05-28Z","cd_usuario_atualizacao":null},"id":"concessao_parceria.66"},
{"type":"Feature","geometry":{"type":"Polygon","coordinates":[[[-46.48215490797125,-23.488144791880924],[-46.48220087526029,-23.48850799735815],[-46.48224197023971,-23.48879270007002],[-46.48227130850546,-23.489012817879022],[-46.48227816682622,-23.489041235808624],[-46.48228607137805,-23.489065147345602],[-46.48229596141991,-23.489089743494407],[-46.48230447678919,-23.48911223951027],[-46.482320796199325,-23.489140901574572],[-46.48233773269825,-23.489168708870373],[-46.48235387637566,-23.48919216182585],[-46.4823726239573,-23.48921643890352],[-46.48134390758951,-23.489379396330076],[-46.48128562243167,-23.48934017060411],[-46.481190141173265,-23.48927596249553],[-46.48107143476993,-23.489193843919594],[-46.480998042621515,-23.489140663668397],[-46.48093931893712,-23.48909722367868],[-46.4809038807775,-23.48906534757461],[-46.480869906308236,-23.48903565203873],[-46.48084078972234,-23.489004329935966],[-46.48082269429953,-23.488971792299928],[-46.48080502494725,-23.488933570230976],[-46.4807929308329,-23.48890096652801],[-46.4807853299194,-23.488868274970656],[-46.48077674625881,-23.48883525861159],[-46.480773288651854,-23.48881322919281],[-46.4807747606902,-23.488786357566006],[-46.480788043322626,-23.488683442626442],[-46.48080977791823,-23.488496577299756],[-46.48084756558143,-23.4884889935453],[-46.48089775982501,-23.48847712866977],[-46.48095575444055,-23.488457089004594],[-46.48100256776149,-23.488437950300806],[-46.481032625737754,-23.4884247144323],[-46.48106795215301,-23.488405413962045],[-46.48114157882735,-23.48832013155414],[-46.481155575717096,-23.488319727586482],[-46.481203857350884,-23.488226079696396],[-46.4811949001213,-23.48821396421163],[-46.48120496996014,-23.488181068581664],[-46.48121025767622,-23.488145184054883],[-46.48121153264193,-23.488110322029875],[-46.481209220334264,-23.488061108019117],[-46.48119836881765,-23.487985487803222],[-46.48118453819676,-23.487908758020282],[-46.481251856512216,-23.487924984070208],[-46.48128807474104,-23.48780658087403],[-46.481326806585315,-23.487817095718842],[-46.48134966480702,-23.48775092368908],[-46.48161212757669,-23.487809643771147],[-46.48192068724057,-23.487882020314736],[-46.481949339491436,-23.48814226865384],[-46.48215490797125,-23.488144791880924]]]},"properties":{"cd_identificador_concessao":67,"cd_identificador_equipamento":null,"nm_equipamento":"CEU Ermelino Matarazzo","nm_parceria":null,"tx_modalidade_concessao":"Parceria público-privada (PPP)","qt_prazo_concessao":25,"nm_concessionaria":"SPE INTEGRA S/A","tx_cnpj_concessionaria":"47.732.462/0001-67","tx_poder_concedente":"Secetaria Municipal de Educação","an_assinatura":2022,"qt_area_metro":19578.52,"tx_numero_contrato":"CONTRATO Nº. 416/SME/2022","qt_investimento_real":99564,"tx_link_contrato":"https://www.prefeitura.sp.gov.br/cidade/secretarias/governo/desestatizacao_projetos/novos_ceus/index.php?p=342078","dt_atualizacao":"2024-05-28Z","cd_usuario_atualizacao":null},"id":"concessao_parceria.67"},
{"type":"Feature","geometry":{"type":"Polygon","coordinates":[[[-46.515605440613044,-23.588606532904635],[-46.51545312851293,-23.588391831780765],[-46.514829614652605,-23.588588817629326],[-46.51489250078399,-23.588466638742627],[-46.515116727630634,-23.5877710688218],[-46.51521526946592,-23.587809947885553],[-46.51527846476069,-23.587835381076896],[-46.51536738609565,-23.5878569880348],[-46.515448818360134,-23.587877901311625],[-46.515506723761256,-23.587877081664633],[-46.515524451127014,-23.587876397561757],[-46.51557015978947,-23.58787518576567],[-46.515584509119414,-23.587869937135125],[-46.515633371873456,-23.587853881638374],[-46.51566347642931,-23.587845160512067],[-46.51569742161371,-23.587833081347355],[-46.51571723018309,-23.587820628996443],[-46.5157504888061,-23.587797064169635],[-46.515873691278,-23.587715158897325],[-46.516138766319486,-23.587536480262994],[-46.51616703799955,-23.587537098325914],[-46.516184510111245,-23.58756246632808],[-46.516278019537104,-23.588152015146324],[-46.51612293484512,-23.588256706424907],[-46.515605440613044,-23.588606532904635]]]},"properties":{"cd_identificador_concessao":94,"cd_identificador_equipamento":null,"nm_equipamento":"CEU Imperador","nm_parceria":null,"tx_modalidade_concessao":"Parceria público-privada (PPP)","qt_prazo_concessao":25,"nm_concessionaria":"SPE INTEGRA S/A","tx_cnpj_concessionaria":"47.732.462/0001-67","tx_poder_concedente":"Secetaria Municipal de Educação","an_assinatura":2022,"qt_area_metro":9497.76,"tx_numero_contrato":"CONTRATO Nº. 416/SME/2022","qt_investimento_real":87297,"tx_link_contrato":"https://www.prefeitura.sp.gov.br/cidade/secretarias/governo/desestatizacao_projetos/novos_ceus/index.php?p=342078","dt_atualizacao":"2024-05-28Z","cd_usuario_atualizacao":null},"id":"concessao_parceria.94"},
{"type":"Feature","geometry":{"type":"Polygon","coordinates":[[[-46.69248257897603,-23.758058396341198],[-46.68982689221771,-23.760058126669836],[-46.689132792269525,-23.76080387458999],[-46.689066400100565,-23.76064920129851],[-46.68975446439703,-23.759953169212128],[-46.68982273076382,-23.759480650943278],[-46.69040519629834,-23.75898584028399],[-46.69108098504006,-23.758491027743634],[-46.69236186594156,-23.75805287218172],[-46.69248257897603,-23.758058396341198]]]},"properties":{"cd_identificador_concessao":null,"cd_identificador_equipamento":null,"nm_equipamento":"CEU Grajaú","nm_parceria":null,"tx_modalidade_concessao":null,"qt_prazo_concessao":null,"nm_concessionaria":null,"tx_cnpj_concessionaria":null,"tx_poder_concedente":null,"an_assinatura":null,"qt_area_metro":null,"tx_numero_contrato":null,"qt_investimento_real":null,"tx_link_contrato":null,"dt_atualizacao":null,"cd_usuario_atualizacao":null},"id":null}
]}