{"type":"FeatureCollection", "features": [
{"type":"Feature","geometry":{"type":"Polygon","coordinates":[[[-46.69064976746201,-23.75919495692307],[-46.69052748188018,-23.759056527636204],[-46.690759180877336,-23.7588798091837],[-46.690720564377806,-23.758844465464414],[-46.69080745150175,-23.758788504555906],[-46.69084606800127,-23.758826793601163],[-46.69112281958121,-23.75859411384467],[-46.691078578158724,-23.758493678636995],[-46.69128144582573,-23.758421840079272],[-46.69158574732624,-23.758731298199283],[-46.6907656169606,-23.75935105785719],[-46.69064976746201,-23.75919495692307]]]},"properties":{"Bloco":"Educacional / Cultural","nm_equipamento":"CEU Grajaú","Bibliotecas":1,"Cineteatros":1,"Cozinhas Experimentais":1,"Salas de Circo":null,"Salas de Audiovisual":null,"Estúdios de Gravação":1,"Salas de Acesso Digital":null,"Salas de Música":1,"Salas de Artes Cênicas":1,"Salas de Uso Múltiplo":1,"EMEF":1,"Salas de Contraturno":null,"UniCEU":1,"Piscinas Semiolímpicas":null,"Salas de Ginástica":null,"Salas Esportivas Multiuso":null,"Salas de Dança":null,"Salas de Artes Marciais":null,"Quadras Cobertas":null,"Piscinas Descobertas":null,"Playgrounds":null,"Pistas de Skate":null,"Salas de Artes":1,"Salas de COWORKING":null,"Laboratórios de Educação Digital":1,"Pistas de Corrida":null}},
{"type":"Feature","geometry":{"type":"Polygon","coordinates":[[[-46.69069160200316,-23.759392292034942],[-46.69027969267488,-23.759701547951696],[-46.689961106553795,-23.75951010389939],[-46.69043737671462,-23.75906830885784],[-46.69069160200316,-23.759392292034942]]]},"properties":{"Bloco":"Esportivo","nm_equipamento":"CEU Grajaú","Bibliotecas":null,"Cineteatros":null,"Cozinhas Experimentais":null,"Salas de Circo":null,"Salas de Audiovisual":null,"Estúdios de Gravação":null,"Salas de Acesso Digital":null,"Salas de Música":null,"Salas de Artes Cênicas":null,"Salas de Uso Múltiplo":null,"EMEF":null,"Salas de Contraturno":null,"UniCEU":null,"Piscinas Semiolímpicas":1,"Salas de Ginástica":null,"Salas Esportivas Multiuso":null,"Salas de Dança":2,"Salas de Artes Marciais":1,"Quadras Cobertas":1,"Piscinas Descobertas":null,"Playgrounds":1,"Pistas de Skate":null,"Salas de Artes":null,"Salas de COWORKING":null,"Laboratórios de Educação Digital":null,"Pistas de Corrida":null}},
{"type":"Feature","geometry":{"type":"Polygon","coordinates":[[[-46.667677838715356,-23.67232114190974],[-46.66756240316148,-23.672117248510048],[-46.667760292682395,-23.672003974261667],[-46.66771906569887,-23.671936009665515],[-46.66789221902967,-23.671856717592004],[-46.66792107791814,-23.671913354792284],[-46.66799528648848,-23.671868045034017],[-46.66795818220331,-23.671818959444845],[-46.66805712696376,-23.67179252873535],[-46.66806537236046,-23.671818959444845],[-46.668238525691265,-23.671732115665],[-46.66832510235666,-23.671849165963454],[-46.66804063617035,-23.672053059781355],[-46.66806537236046,-23.672083266245842],[-46.66795818220331,-23.67217388559743],[-46.66792932331484,-23.672143679153884],[-46.667677838715356,-23.67232114190974]]]},"properties":{"Bloco":"Educacional / Cultural","nm_equipamento":"CEU Cidade Ademar","Bibliotecas":1,"Cineteatros":1,"Cozinhas Experimentais":1,"Salas de Circo":1,"Salas de Audiovisual":1,"Estúdios de Gravação":2,"Salas de Acesso Digital":1,"Salas de Música":1,"Salas de Artes Cênicas":1,"Salas de Uso Múltiplo":null,"EMEF":1,"Salas de Contraturno":1,"UniCEU":1,"Piscinas Semiolímpicas":null,"Salas de Ginástica":null,"Salas Esportivas Multiuso":null,"Salas de Dança":null,"Salas de Artes Marciais":null,"Quadras Cobertas":null,"Piscinas Descobertas":null,"Playgrounds":null,"Pistas de Skate":null,"Salas de Artes":1,"Salas de COWORKING":null,"Laboratórios de Educação Digital":null,"Pistas de Corrida":null}},
{"type":"Feature","geometry":{"type":"Polygon","coordinates":[[[-46.66708004745427,-23.672619429828803],[-46.66726969157847,-23.672778013002254],[-46.666774967776206,-23.673333052593996],[-46.666581200953644,-23.673182021646017],[-46.66708004745427,-23.672619429828803]]]},"properties":{"Bloco":"Esportivo","nm_equipamento":"CEU Cidade Ademar","Bibliotecas":null,"Cineteatros":null,"Cozinhas Experimentais":null,"Salas de Circo":null,"Salas de Audiovisual":null,"Estúdios de Gravação":null,"Salas de Acesso Digital":null,"Salas de Música":null,"Salas de Artes Cênicas":null,"Salas de Uso Múltiplo":null,"EMEF":null,"Salas de Contraturno":null,"UniCEU":null,"Piscinas Semiolímpicas":1,"Salas de Ginástica":2,"Salas Esportivas Multiuso":8,"Salas de Dança":2,"Salas de Artes Marciais":2,"Quadras Cobertas":1,"Piscinas Descobertas":3,"Playgrounds":1,"Pistas de Skate":null,"Salas de Artes":null,"Salas de COWORKING":null,"Laboratórios de Educação Digital":null,"Pistas de Corrida":1}},
{"type":"Feature","geometry":{"type":"Polygon","coordinates":[[[-46.51505128923237,-23.588364505485114],[-46.515162078203154,-23.587932994247563],[-46.51536519131628,-23.587971068825603],[-46.515362883212724,-23.587968953571554],[-46.515335185970024,-23.588163556801028],[-46.515321337348674,-23.588243936311592],[-46.51530979683088,-23.58830316328786],[-46.51529004118769,-23.58841522489585],[-46.51505128923237,-23.588364505485114]]]},"properties":{"Bloco":"Esportivo","nm_equipamento":"CEU Imperador","Bibliotecas":null,"Cineteatros":null,"Cozinhas Experimentais":null,"Salas de Circo":null,"Salas de Audiovisual":null,"Estúdios de Gravação":null,"Salas de Acesso Digital":null,"Salas de Música":null,"Salas de Artes Cênicas":null,"Salas de Uso Múltiplo":null,"EMEF":null,"Salas de Contraturno":null,"UniCEU":null,"Piscinas Semiolímpicas":1,"Salas de Ginástica":2,"Salas Esportivas Multiuso":7,"Salas de Dança":2,"Salas de Artes Marciais":1,"Quadras Cobertas":1,"Piscinas Descobertas":3,"Playgrounds":1,"Pistas de Skate":1,"Salas de Artes":null,"Salas de COWORKING":null,"Laboratórios de Educação Digital":null,"Pistas de Corrida":1}},
{"type":"Feature","geometry":{"type":"Polygon","coordinates":[[[-46.51622680030846,-23.58803953507843],[-46.51612255448485,-23.58790855865361],[-46.51622680030846,-23.58803953507843],[-46.5159325580644,-23.58823676991857],[-46.51595273467543,-23.58827066962686],[-46.51587034684708,-23.588326141857895],[-46.51585353300457,-23.588303028431145],[-46.51557106045027,-23.588489476624222],[-46.515461770473905,-23.58833384633258],[-46.51565849243137,-23.588205951994336],[-46.51563327166759,-23.588178215856352],[-46.515769463791976,-23.588088843816262],[-46.51579468455576,-23.58812428446013],[-46.51588211653685,-23.58806727124574],[-46.51586193992582,-23.58804107597677],[-46.51592078837464,-23.588005635310424],[-46.51594600913842,-23.588031830586484],[-46.516117510332094,-23.58790855865361],[-46.51622680030846,-23.58803953507843]]]},"properties":{"Bloco":"Educacional / Cultural","nm_equipamento":"CEU Imperador","Bibliotecas":1,"Cineteatros":1,"Cozinhas Experimentais":3,"Salas de Circo":2,"Salas de Audiovisual":1,"Estúdios de Gravação":2,"Salas de Acesso Digital":2,"Salas de Música":2,"Salas de Artes Cênicas":2,"Salas de Uso Múltiplo":4,"EMEF":1,"Salas de Contraturno":1,"UniCEU":1,"Piscinas Semiolímpicas":null,"Salas de Ginástica":null,"Salas Esportivas Multiuso":null,"Salas de Dança":null,"Salas de Artes Marciais":null,"Quadras Cobertas":null,"Piscinas Descobertas":null,"Playgrounds":null,"Pistas de Skate":null,"Salas de Artes":2,"Salas de COWORKING":null,"Laboratórios de Educação Digital":null,"Pistas de Corrida":null}},
{"type":"Feature","geometry":{"type":"Polygon","coordinates":[[[-46.507263404714266,-23.553901521710827],[-46.507200608217374,-23.55409436290562],[-46.50682696906085,-23.553999381456972],[-46.50669163846247,-23.55395513294089],[-46.50671423423243,-23.553865375777054],[-46.506736830002396,-23.55379633176316],[-46.50674812788737,-23.55376871414745],[-46.50675754279152,-23.553749727033274],[-46.507263404714266,-23.553901521710827]]]},"properties":{"Bloco":"Esportivo","nm_equipamento":"CEU Cidade Líder","Bibliotecas":null,"Cineteatros":null,"Cozinhas Experimentais":null,"Salas de Circo":null,"Salas de Audiovisual":null,"Estúdios de Gravação":null,"Salas de Acesso Digital":null,"Salas de Música":null,"Salas de Artes Cênicas":null,"Salas de Uso Múltiplo":null,"EMEF":null,"Salas de Contraturno":null,"UniCEU":null,"Piscinas Semiolímpicas":1,"Salas de Ginástica":2,"Salas Esportivas Multiuso":8,"Salas de Dança":2,"Salas de Artes Marciais":2,"Quadras Cobertas":2,"Piscinas Descobertas":1,"Playgrounds":1,"Pistas de Skate":1,"Salas de Artes":null,"Salas de COWORKING":null,"Laboratórios de Educação Digital":null,"Pistas de Corrida":null}},
{"type":"Feature","geometry":{"type":"Polygon","coordinates":[[[-46.50688976555775,-23.55455199983239],[-46.506761032739114,-23.55468151942801],[-46.506491007802474,-23.554445505847035],[-46.506472168853406,-23.554474288013747],[-46.50640623253167,-23.554422480109135],[-46.506412512181356,-23.554399454367186],[-46.50613934741986,-23.55420661362004],[-46.5062680802385,-23.554051189528373],[-46.50647530867825,-23.554197978953106],[-46.506487867977626,-23.554177831394718],[-46.506619740621105,-23.554264178051803],[-46.50657578307328,-23.55429583847852],[-46.50666055834409,-23.55435915930908],[-46.506685676942844,-23.554324620678017],[-46.506751613264576,-23.554387941494696],[-46.50672649466583,-23.554416723674017],[-46.50688976555775,-23.55455199983239]]]},"properties":{"Bloco":"Educacional / Cultural","nm_equipamento":"CEU Cidade Líder","Bibliotecas":1,"Cineteatros":1,"Cozinhas Experimentais":1,"Salas de Circo":2,"Salas de Audiovisual":2,"Estúdios de Gravação":2,"Salas de Acesso Digital":2,"Salas de Música":2,"Salas de Artes Cênicas":2,"Salas de Uso Múltiplo":null,"EMEF":1,"Salas de Contraturno":1,"UniCEU":1,"Piscinas Semiolímpicas":null,"Salas de Ginástica":null,"Salas Esportivas Multiuso":null,"Salas de Dança":null,"Salas de Artes Marciais":null,"Quadras Cobertas":null,"Piscinas Descobertas":null,"Playgrounds":null,"Pistas de Skate":null,"Salas de Artes":2,"Salas de COWORKING":1,"Laboratórios de Educação Digital":null,"Pistas de Corrida":null}},
{"type":"Feature","geometry":{"type":"Polygon","coordinates":[[[-46.48125725668387,-23.4882426619343],[-46.48170227097622,-23.48818383075076],[-46.48174051683376,-23.488395555699064],[-46.48174332836337,-23.48840329140453],[-46.48151840599455,-23.48844970562776],[-46.48129910668495,-23.48847033416617],[-46.48130191821456,-23.48847033416617],[-46.48130191821456,-23.488467755599054],[-46.48125725668387,-23.4882426619343]]]},"properties":{"Bloco":"Esportivo","nm_equipamento":"CEU Ermelino Matarazzo","Bibliotecas":null,"Cineteatros":null,"Cozinhas Experimentais":null,"Salas de Circo":null,"Salas de Audiovisual":null,"Estúdios de Gravação":null,"Salas de Acesso Digital":null,"Salas de Música":null,"Salas de Artes Cênicas":null,"Salas de Uso Múltiplo":null,"EMEF":null,"Salas de Contraturno":null,"UniCEU":null,"Piscinas Semiolímpicas":1,"Salas de Ginástica":2,"Salas Esportivas Multiuso":8,"Salas de Dança":2,"Salas de Artes Marciais":2,"Quadras Cobertas":1,"Piscinas Descobertas":3,"Playgrounds":1,"Pistas de Skate":1,"Salas de Artes":null,"Salas de COWORKING":null,"Laboratórios de Educação Digital":null,"Pistas de Corrida":null}},
{"type":"Feature","geometry":{"type":"Polygon","coordinates":[[[-46.481225775093854,-23.488465328081837],[-46.48125567931819,-23.488705836032064],[-46.48129938549223,-23.48870161659811],[-46.48131338461263,-23.48882361846218],[-46.481271781592845,-23.48882819955764],[-46.481325412025946,-23.489106741918235],[-46.481149009964106,-23.48915454192226],[-46.48111693686195,-23.48895231101758],[-46.4810728363465,-23.488970695658097],[-46.48105679979542,-23.488882449360236],[-46.481094656571734,-23.488872503564764],[-46.48107684548427,-23.488801556868644],[-46.48103274496881,-23.48880523380116],[-46.48100067186665,-23.48866183335717],[-46.48104477238211,-23.488650802547323],[-46.481016708417734,-23.4884963711126],[-46.481225775093854,-23.488465328081837]]]},"properties":{"Bloco":"Educacional / Cultural","nm_equipamento":"CEU Ermelino Matarazzo","Bibliotecas":1,"Cineteatros":1,"Cozinhas Experimentais":1,"Salas de Circo":2,"Salas de Audiovisual":1,"Estúdios de Gravação":2,"Salas de Acesso Digital":2,"Salas de Música":4,"Salas de Artes Cênicas":2,"Salas de Uso Múltiplo":6,"EMEF":1,"Salas de Contraturno":1,"UniCEU":1,"Piscinas Semiolímpicas":null,"Salas de Ginástica":null,"Salas Esportivas Multiuso":null,"Salas de Dança":null,"Salas de Artes Marciais":null,"Quadras Cobertas":null,"Piscinas Descobertas":null,"Playgrounds":null,"Pistas de Skate":null,"Salas de Artes":2,"Salas de COWORKING":null,"Laboratórios de Educação Digital":null,"Pistas de Corrida":null}}
]}