{"type":"FeatureCollection", "features": [
{"type":"Feature","geometry":{"type":"Polygon","coordinates":[[[-46.56559032490501,-23.588326674003664],[-46.56553509339837,-23.588332188448884],[-46.56575957733483,-23.587489664565105],[-46.56568063250025,-23.587336909993095],[-46.56590634684514,-23.586598162425705],[-46.5660162220154,-23.586497530861106],[-46.566157419366895,-23.58643639329755],[-46.56627442532832,-23.586416730836053],[-46.56640860222405,-23.586413956378063],[-46.56663734039273,-23.58645003706198],[-46.56684431522588,-23.586472118481105],[-46.56715797340813,-23.58651445051643],[-46.567331098864685,-23.586543982476908],[-46.56758909359923,-23.586575501432197],[-46.56782857889807,-23.586607206785033],[-46.568036624052795,-23.586589466828187],[-46.568178106711684,-23.586552494598923],[-46.56828235156522,-23.586497415593183],[-46.568371070507204,-23.586433962218994],[-46.56830026003969,-23.58668208549974],[-46.568266565117604,-23.58675991334262],[-46.568260393773016,-23.58686481292348],[-46.56826867789228,-23.58693765833839],[-46.56830609012822,-23.587052452311845],[-46.56832569307407,-23.587103936577947],[-46.56834253920294,-23.58715850368004],[-46.568337790645856,-23.587213289731785],[-46.5683081752157,-23.587317377592356],[-46.56788420772801,-23.588702186972625],[-46.567822477195435,-23.588674660386598],[-46.56757725491994,-23.5886078945566],[-46.56746456053919,-23.588853436702554],[-46.567423301634854,-23.588746399692425],[-46.56739867269931,-23.58870551451477],[-46.56738416504321,-23.58868438516619],[-46.567339030906545,-23.588639607079724],[-46.567298518213015,-23.588606088475277],[-46.56725349894384,-23.588575098709672],[-46.56720637755528,-23.588547787476426],[-46.5671367566524,-23.588514490294646],[-46.56705172559654,-23.588483145621357],[-46.56696941342856,-23.588457064414342],[-46.5668508149515,-23.58842660010878],[-46.56672483558835,-23.588400851819138],[-46.56660492264598,-23.58837520478437],[-46.566523163852075,-23.588361056922217],[-46.56644132188077,-23.588350630404403],[-46.56631147672844,-23.588335983073907],[-46.56618798010646,-23.588326301582658],[-46.56604626240834,-23.588318510471616],[-46.56588378871053,-23.588317060173686],[-46.5657279482444,-23.588323020059345],[-46.565656763786265,-23.58832471293227],[-46.56559032490501,-23.588326674003664]]]},"properties":{"Equipamento":"Crematório da Vila Alpina","Modalidade da Concessão":"Concessão","Concessionária":"CONCESSIONÁRIA PREVER ADMINISTRAÇÃO GERENCIAL E SERVIÇOS FUN","Prazo da Concessão":25,"Poder Concedente":"São Paulo Regula","Área":54907.83}},
{"type":"Feature","geometry":{"type":"Polygon","coordinates":[[[-46.45439137373179,-23.556873426443833],[-46.45593840271786,-23.559118213436722],[-46.455967546169205,-23.559150287050638],[-46.4559831689009,-23.559179998392143],[-46.45600790665552,-23.559220407148832],[-46.45601721360081,-23.559248519579203],[-46.45603113746384,-23.55928737064772],[-46.45603509278996,-23.559319680142508],[-46.45604093796374,-23.55936026492595],[-46.45604400320261,-23.559393411784104],[-46.45604259678752,-23.559429089411577],[-46.45603843685985,-23.559459815950433],[-46.45602624391827,-23.55949642272399],[-46.45601494205393,-23.55953219302653],[-46.4559955431862,-23.559568038256486],[-46.45573978751571,-23.56003655198454],[-46.45572552815594,-23.560089766773153],[-46.45571574504913,-23.560140866173512],[-46.455707577632644,-23.56017536175842],[-46.45570145183368,-23.560231818302743],[-46.45569965510429,-23.560272890069918],[-46.45569963399958,-23.560311871737788],[-46.455699801204595,-23.56036785393883],[-46.45570303720255,-23.560457398386333],[-46.455712144913186,-23.560630655789964],[-46.455708192336296,-23.560639401206082],[-46.45569993851947,-23.560645698911177],[-46.45568872514358,-23.560648707313643],[-46.452209293688746,-23.5600175261914],[-46.45210546181011,-23.55941138051704],[-46.452103456476614,-23.55922893251275],[-46.4521128666281,-23.559102777135728],[-46.45222427680594,-23.558106463767132],[-46.45439137373179,-23.556873426443833]]]},"properties":{"Equipamento":"Cemitério de Itaquera","Modalidade da Concessão":"Concessão","Concessionária":"CONCESSIONÁRIA PREVER ADMINISTRAÇÃO GERENCIAL E SERVIÇOS FUN","Investimento":17581000,"Prazo da Concessão":25,"Poder Concedente":"São Paulo Regula","Área":111430.69}},
{"type":"Feature","geometry":{"type":"Polygon","coordinates":[[[-46.54211700790795,-23.521767487088923],[-46.54198462124816,-23.522682145630355],[-46.541991367793464,-23.52268288251679],[-46.54197023052448,-23.522843186428116],[-46.5415449875204,-23.5227922487545],[-46.54128437576563,-23.52276068493672],[-46.541272084245186,-23.52275558696242],[-46.54102035113262,-23.522651328715977],[-46.5407037872355,-23.522443858920262],[-46.54059858615388,-23.522378326592957],[-46.540717175498685,-23.521594992997823],[-46.54203702326269,-23.521758968957144],[-46.54211700790795,-23.521767487088923]]]},"properties":{"Equipamento":"Cemitério da Penha","Modalidade da Concessão":"Concessão","Concessionária":"CONCESSIONÁRIA PREVER ADMINISTRAÇÃO GERENCIAL E SERVIÇOS FUN","Investimento":1821000,"Prazo da Concessão":25,"Poder Concedente":"São Paulo Regula","Área":16300.78}},
{"type":"Feature","geometry":{"type":"Polygon","coordinates":[[[-46.69807096842278,-23.499149727653304],[-46.69798764576209,-23.49898633243136],[-46.69789160039799,-23.498999181828218],[-46.69776932433537,-23.499024191729188],[-46.6976519046669,-23.49904843522363],[-46.69743677376061,-23.49907160335379],[-46.69738620062347,-23.49907586858294],[-46.69735582326433,-23.499110114157563],[-46.697246703276974,-23.49919678265135],[-46.6971979287736,-23.49923552069489],[-46.697141391441384,-23.4992804296307],[-46.69709176489926,-23.49931984515855],[-46.697044164184675,-23.499357658322936],[-46.696961533940495,-23.49942328672362],[-46.696877968057436,-23.49948925939262],[-46.69683873291741,-23.499447644242853],[-46.69680772060963,-23.499414749320973],[-46.696738207757264,-23.499341016834357],[-46.69672276265573,-23.499324632811934],[-46.69664708582651,-23.49924436638267],[-46.69662344187586,-23.49921929434753],[-46.69657282858956,-23.499165610544992],[-46.69653505385064,-23.49912585586704],[-46.69646556874605,-23.499052736990134],[-46.696429183609126,-23.499014447190383],[-46.696887100820845,-23.498649688852215],[-46.69744388584,-23.498202968807043],[-46.69750242402278,-23.498156078433993],[-46.69763636935283,-23.498046924158942],[-46.69785047498663,-23.49787504041198],[-46.69790487880123,-23.49789062943013],[-46.697973946258465,-23.49822070606364],[-46.69798963811977,-23.49829377855837],[-46.69805466370917,-23.498596464682937],[-46.698136534709185,-23.49897203997616],[-46.698144535803735,-23.499007305780662],[-46.698141068872445,-23.499046200310787],[-46.69807096842278,-23.499149727653304]]]},"properties":{"Equipamento":"Cemitério da Freguesia do Ó","Modalidade da Concessão":"Concessão","Concessionária":"CONCESSIONÁRIA PREVER ADMINISTRAÇÃO GERENCIAL E SERVIÇOS FUN","Investimento":2641000,"Prazo da Concessão":25,"Poder Concedente":"São Paulo Regula","Área":14387.63}},
{"type":"Feature","geometry":{"type":"Polygon","coordinates":[[[-46.56738416504321,-23.58868438516619],[-46.567423301634854,-23.588746399692425],[-46.56746456053919,-23.588853436702554],[-46.56748468231976,-23.588919065651588],[-46.56751886618413,-23.589034041377438],[-46.567513356906716,-23.589205347830294],[-46.567513268213254,-23.589298405762364],[-46.56750877018568,-23.58943920525392],[-46.56751002017485,-23.589544402859097],[-46.567509457818005,-23.589626871038256],[-46.56750177327995,-23.589759171614777],[-46.567488803687816,-23.58983607763435],[-46.56747144233562,-23.589932932905604],[-46.56736801708969,-23.590187049782916],[-46.567316923369404,-23.590301306702],[-46.56714159138527,-23.590605910514387],[-46.567061476654345,-23.590744630212782],[-46.56696488441962,-23.59092474647735],[-46.56683134011466,-23.59111092287864],[-46.56672539041544,-23.591282602346407],[-46.56656106193561,-23.591474776475092],[-46.566460742781715,-23.591600903548212],[-46.5663846294719,-23.59168697655752],[-46.5661831031707,-23.59186459635036],[-46.56605585599648,-23.59199668213173],[-46.56592890707054,-23.592088954943584],[-46.5657940597721,-23.59216566744486],[-46.56564717407196,-23.592235393328494],[-46.56550459775328,-23.59228820312983],[-46.5654144868121,-23.592327608328286],[-46.56480991952067,-23.592549710771202],[-46.56444958743486,-23.592658338336744],[-46.56407563335017,-23.592770913140882],[-46.56340159858013,-23.592979043533838],[-46.56299407053595,-23.593101481846436],[-46.56275799988798,-23.593172999424183],[-46.562548636886035,-23.593210650076234],[-46.56230054123177,-23.593234473456736],[-46.56210165595158,-23.593245004365848],[-46.5619657108036,-23.5932293105274],[-46.5618153953607,-23.593172529783786],[-46.5614475762232,-23.59298713417166],[-46.5613091469092,-23.592891846680953],[-46.561223046132135,-23.59278607960856],[-46.5611335405794,-23.59265333386172],[-46.56106710569185,-23.59251466875406],[-46.56103799362188,-23.592401220802323],[-46.561012322479606,-23.592252549216557],[-46.56100535103652,-23.5921196844309],[-46.56101817130783,-23.591964582740342],[-46.56105785091558,-23.591797838086332],[-46.56110266249654,-23.591673694560008],[-46.56116403090874,-23.591547251588633],[-46.56126341177824,-23.59140656378138],[-46.56133617239574,-23.59131395086205],[-46.56139909044641,-23.591239483362273],[-46.56150962775697,-23.59112605099289],[-46.56160481769643,-23.591024810490072],[-46.56170090936887,-23.5909161558803],[-46.56185816984392,-23.590736050157716],[-46.56201660597624,-23.590555138687634],[-46.562190435450326,-23.590354313565808],[-46.5623713022981,-23.590145515811756],[-46.562647266529645,-23.589824540910797],[-46.56270426839485,-23.58976277691893],[-46.562733832319616,-23.58973730250139],[-46.562764159185285,-23.589716678794034],[-46.56279311128047,-23.58969911218257],[-46.562806804840925,-23.58969375478112],[-46.56283181248912,-23.58968896081461],[-46.562999276736114,-23.589601206200154],[-46.563064237927435,-23.589534837720898],[-46.56322149574079,-23.58937299127357],[-46.56338733069794,-23.58921883357519],[-46.56355299049514,-23.589092175249572],[-46.5636388893504,-23.58903150981919],[-46.563753783470176,-23.58895116490363],[-46.56386854143106,-23.58887918349127],[-46.56394486615195,-23.588833325836855],[-46.5640242904793,-23.588789405575493],[-46.56414132660476,-23.588728526565287],[-46.5642212444568,-23.5886874006823],[-46.56429951557268,-23.58865283843312],[-46.56439485807556,-23.588613543813032],[-46.56448267863127,-23.58857782872509],[-46.564647818419324,-23.588518189617147],[-46.56474493059823,-23.5884885034374],[-46.56483255892436,-23.588462949367376],[-46.56492958542959,-23.58843843839439],[-46.56503486967414,-23.58841126144149],[-46.56514754037582,-23.58838809175427],[-46.56526448251506,-23.588368175058925],[-46.56536851404666,-23.58835104335352],[-46.56545956042942,-23.588339496858204],[-46.56559032490501,-23.588326674003664],[-46.565656763786265,-23.58832471293227],[-46.5657279482444,-23.588323020059345],[-46.56588378871053,-23.588317060173686],[-46.56604626240834,-23.588318510471616],[-46.56618798010646,-23.588326301582658],[-46.56631147672844,-23.588335983073907],[-46.56644132188077,-23.588350630404403],[-46.566523163852075,-23.588361056922217],[-46.56660492264598,-23.58837520478437],[-46.56672483558835,-23.588400851819138],[-46.5668508149515,-23.58842660010878],[-46.56696941342856,-23.588457064414342],[-46.56705172559654,-23.588483145621357],[-46.5671367566524,-23.588514490294646],[-46.56720637755528,-23.588547787476426],[-46.56725349894384,-23.588575098709672],[-46.567298518213015,-23.588606088475277],[-46.567339030906545,-23.588639607079724],[-46.56738416504321,-23.58868438516619]]]},"properties":{"Equipamento":"Cemitério São Pedro","Modalidade da Concessão":"Concessão","Concessionária":"CONCESSIONÁRIA PREVER ADMINISTRAÇÃO GERENCIAL E SERVIÇOS FUN","Investimento":41655000,"Prazo da Concessão":25,"Poder Concedente":"São Paulo Regula","Área":235074.91}},
{"type":"Feature","geometry":{"type":"Polygon","coordinates":[[[-46.74832936018502,-23.66128969908103],[-46.74846130427403,-23.662018901872457],[-46.74840762297929,-23.662294647879413],[-46.74818024790363,-23.66226967260337],[-46.747889448899194,-23.66225236365092],[-46.74756433158509,-23.66223445156317],[-46.74695704061215,-23.66219172635255],[-46.74677712525507,-23.662359450193318],[-46.74656330769317,-23.662558080419135],[-46.74623551634809,-23.66286273818686],[-46.746141716106465,-23.662952740892976],[-46.74592783119954,-23.662910182751375],[-46.74561608959549,-23.66288405679213],[-46.74545061470575,-23.662875767932345],[-46.74540174028872,-23.663143027888516],[-46.74539559303611,-23.66332733983399],[-46.74538022111266,-23.663718396857256],[-46.74539172331608,-23.663877789017135],[-46.74542152468386,-23.664028627849383],[-46.745467076348866,-23.66414411174903],[-46.745770969449396,-23.66440060658405],[-46.74589403943461,-23.664499362254066],[-46.74593629819221,-23.664536720973175],[-46.7459708329458,-23.664583015949226],[-46.74598664535324,-23.664614713010113],[-46.74600931858371,-23.664661051353306],[-46.74601016935024,-23.66468081706896],[-46.746011435631026,-23.664717102670526],[-46.74600963195692,-23.664727077470296],[-46.74599810218567,-23.664790844156144],[-46.745984775542674,-23.664828198102587],[-46.74596940095049,-23.66485898336008],[-46.745936411005594,-23.66490685108964],[-46.74578938308944,-23.665004585235025],[-46.74548394332553,-23.66519928021852],[-46.74537206706201,-23.66527169383619],[-46.74535964401015,-23.665281136315162],[-46.745352794886614,-23.665289520911774],[-46.74534656865034,-23.6653005171387],[-46.74534185798274,-23.665307523170217],[-46.74532054828529,-23.665341713559926],[-46.74528771624651,-23.66540149965284],[-46.745257670418596,-23.66545701033645],[-46.74523949946077,-23.665483943306924],[-46.74522077727898,-23.66550627908252],[-46.7451925495032,-23.665528900726915],[-46.74503879021031,-23.665621833936793],[-46.744921304842194,-23.66569277717108],[-46.74482914689809,-23.665736706796256],[-46.74479957642085,-23.665754196497883],[-46.74477916592149,-23.66576751961152],[-46.744705525350305,-23.665810608528993],[-46.74437434672494,-23.665971908292185],[-46.744247073266045,-23.666021831469056],[-46.744166282614216,-23.666050733525243],[-46.744119611682706,-23.666013333703514],[-46.744041398832,-23.665948296503483],[-46.74396310960124,-23.66588488548795],[-46.74387690094053,-23.665815694188357],[-46.74380156685495,-23.665753333396847],[-46.7437257482443,-23.665689028479072],[-46.74360178254169,-23.66559160041222],[-46.74348432725383,-23.665568722357214],[-46.74329693465003,-23.665594760189446],[-46.743260929015136,-23.665600131751972],[-46.743196157564334,-23.665587586733235],[-46.742954599537605,-23.66553585380861],[-46.7428306156227,-23.66553074716361],[-46.74281607792746,-23.66555077633053],[-46.7427928815268,-23.665538847010595],[-46.74276219038168,-23.6655383795817],[-46.742688096708655,-23.665547339909033],[-46.7423333055345,-23.665584199053765],[-46.74220496113478,-23.665597742399548],[-46.74218329981675,-23.66559807629262],[-46.74216141253948,-23.66559615526601],[-46.742141345766015,-23.66559105332346],[-46.742121047052294,-23.66558324503718],[-46.7420028753858,-23.66552109413475],[-46.74189121385138,-23.66546194008185],[-46.74183365879116,-23.665431705172466],[-46.74180248925481,-23.6654099325269],[-46.74176727688002,-23.665378994898465],[-46.741733587382306,-23.66534460880382],[-46.74172140996792,-23.665328221115207],[-46.74170868263571,-23.66530732469161],[-46.74166881014904,-23.6652206350628],[-46.741593546954824,-23.665045217915942],[-46.74152130930199,-23.66487608849569],[-46.741476862312176,-23.66477707935047],[-46.7414233089265,-23.664656681541963],[-46.741418283472534,-23.664639942538013],[-46.74141677596533,-23.66462235130621],[-46.7414172695875,-23.664615212188803],[-46.7414211113654,-23.664601804851724],[-46.74142800610774,-23.66458944677845],[-46.741439183811764,-23.66457478310439],[-46.741461369556355,-23.66455484868865],[-46.74150089746036,-23.664519368614343],[-46.74154508580858,-23.664480404805875],[-46.741602034689016,-23.664427933386577],[-46.74163000585516,-23.66440071004563],[-46.7416627188658,-23.66436142281191],[-46.74170261823782,-23.664309594515995],[-46.7417386373953,-23.664253475513043],[-46.741780250556246,-23.66417562201251],[-46.741800257882346,-23.66412446882003],[-46.74181184886387,-23.664089212455664],[-46.741820255451756,-23.664057784421637],[-46.741825672405334,-23.66402268776699],[-46.741843263209816,-23.663811372491413],[-46.741848684593336,-23.663747019124937],[-46.74186313711887,-23.663602197800063],[-46.74187913811761,-23.663500251677434],[-46.74189808001058,-23.663427890343968],[-46.74192407205825,-23.663354907953387],[-46.74197235215945,-23.663247542196952],[-46.74199142595225,-23.663214730043027],[-46.74201765359045,-23.663174252391954],[-46.742048582637864,-23.663126136815194],[-46.74212648698687,-23.66302755805828],[-46.74223128885411,-23.662924342489344],[-46.74237084472843,-23.662787956828442],[-46.74248078971966,-23.66268080043967],[-46.742619900480385,-23.662547851820104],[-46.74272504568883,-23.662448334317183],[-46.74284879374725,-23.662332353795723],[-46.74291172614038,-23.662272861673376],[-46.742930076754895,-23.66225947169112],[-46.74300164747511,-23.661939339210438],[-46.74317825458741,-23.661613829761937],[-46.74334680343151,-23.661467790212885],[-46.74358590809274,-23.66139416769981],[-46.74368343366836,-23.661378170986005],[-46.74375000411543,-23.661378685983596],[-46.743918192714396,-23.661365110281526],[-46.74411649395225,-23.661324214310095],[-46.74414736811191,-23.661293035325382],[-46.74428138939454,-23.661153550856415],[-46.74445550658064,-23.66097722465867],[-46.74456248889901,-23.660876059059945],[-46.74466431719864,-23.660755809095836],[-46.74479861874078,-23.660593204708807],[-46.74492402227705,-23.660439730249117],[-46.745036992337994,-23.660302288221253],[-46.745165281883395,-23.660144717663112],[-46.74524318721779,-23.660053902235013],[-46.74524842375841,-23.660049599235776],[-46.745260677690005,-23.6600421470558],[-46.74527472129814,-23.66003666127869],[-46.74528928255234,-23.660033246529878],[-46.74531252076232,-23.660033616870276],[-46.74535096373695,-23.660042124284615],[-46.745513307665526,-23.660086799160347],[-46.74563645903971,-23.660118190069266],[-46.745736397124624,-23.660143702131197],[-46.74611425031493,-23.660250150215965],[-46.746256465398496,-23.660292342170408],[-46.74639810326152,-23.660335353179363],[-46.746438365829135,-23.66034799262256],[-46.74654287207128,-23.66038528172545],[-46.746689550075494,-23.66043871023897],[-46.74682293359862,-23.660487592978644],[-46.74687130198356,-23.660505288823074],[-46.74691364014009,-23.660526573365203],[-46.74693835538993,-23.660542187200953],[-46.746982144761965,-23.66056932474466],[-46.74707459759395,-23.660629053025243],[-46.74725139295077,-23.660743092674014],[-46.74741324529058,-23.66084655514279],[-46.747596136257776,-23.660961880095236],[-46.747744740863425,-23.66105691418429],[-46.7478687234097,-23.661135971301174],[-46.74800177385245,-23.66121862823598],[-46.74802338600547,-23.66122940079179],[-46.74803787131742,-23.66123501645473],[-46.74818684548016,-23.6612619602052],[-46.74832936018502,-23.66128969908103]]]},"properties":{"Equipamento":"Cemitério São Luis","Modalidade da Concessão":"Concessão","Concessionária":"CONCESSIONÁRIA PREVER ADMINISTRAÇÃO GERENCIAL E SERVIÇOS FUN","Investimento":39984000,"Prazo da Concessão":25,"Poder Concedente":"São Paulo Regula","Área":235772.55}}
]}
