{"type":"FeatureCollection", "features": [
{"type":"Feature","geometry":{"type":"Polygon","coordinates":[[[-46.65718392559504,-23.561063707066797],[-46.657522956818106,-23.56139401069206],[-46.65791764521822,-23.561775054820444],[-46.65792244501157,-23.56178010569652],[-46.65792646322916,-23.561785714848234],[-46.6579296270773,-23.56179178010764],[-46.65793187932052,-23.561798190110643],[-46.657933178338304,-23.5618048288115],[-46.65793350107479,-23.56181157635434],[-46.657932842047984,-23.56181830818075],[-46.65793121149288,-23.561824903176745],[-46.65792864121557,-23.56183124180431],[-46.657920880481285,-23.56184269180599],[-46.65738186350622,-23.562312145699607],[-46.65743779032395,-23.562375916724488],[-46.65797714387831,-23.56190455457623],[-46.65798296393959,-23.56190043522604],[-46.65798943935962,-23.56189725254245],[-46.65799639392995,-23.561895094191847],[-46.65800363833497,-23.561894018180727],[-46.65801097700827,-23.56189405278261],[-46.65801820913474,-23.561895198333374],[-46.65802513937943,-23.561897423504757],[-46.65803157888972,-23.56190066709969],[-46.65803735220826,-23.56190484249367],[-46.65827161357618,-23.56212629277096],[-46.658637133035114,-23.56247944738569],[-46.6588124516606,-23.562648519269967],[-46.65881377173879,-23.562649342282693],[-46.6588190186535,-23.562653953100035],[-46.6588227311938,-23.562659709970415],[-46.65882463960408,-23.562666194062047],[-46.65882460371932,-23.562672930978955],[-46.65882262716544,-23.562679429439214],[-46.65881885386106,-23.562685214724105],[-46.658574392383706,-23.56290489869049],[-46.658338369331894,-23.563112944447003],[-46.658085672772245,-23.56333498485527],[-46.65767183165244,-23.56369789812998],[-46.65766545613851,-23.563701243185356],[-46.65765851965469,-23.563703445580405],[-46.657651262237756,-23.563704429610485],[-46.65764393131353,-23.563704161934176],[-46.657636780717425,-23.563702651583714],[-46.65763005503384,-23.56369995103502],[-46.657623986601024,-23.56369615172461],[-46.656838227112424,-23.562936958635046],[-46.65683478921344,-23.562930989285483],[-46.65683269287886,-23.562924510780473],[-46.65683202066329,-23.562917778698157],[-46.65683279936997,-23.56291105553203],[-46.65683499704441,-23.562904605304915],[-46.65683852967223,-23.562898680855177],[-46.657377433846236,-23.562428170641603],[-46.65732515017341,-23.562361820553534],[-46.65677580868516,-23.56284181429056],[-46.65676208516731,-23.562848913827125],[-46.65675601576437,-23.56284924942419],[-46.65674429535147,-23.562844227124216],[-46.65673500213137,-23.5628374632131],[-46.65667906728561,-23.562782883871293],[-46.6562425513713,-23.562361038592606],[-46.65599415135124,-23.562119913521308],[-46.65602282258241,-23.562094364106898],[-46.65716659818235,-23.561076963923355],[-46.65718392559504,-23.561063707066797]]]},"properties":{"Equipamento":"Parque Trianon","Modalidade da Concessão":"Concessão","Concessionária":"CONSORCIO BORBOLETAS SPE LTDA","Investimento":806120,"Prazo da Concessão":25,"Poder Concedente":"Secretaria Municipal do Verde e Meio Ambiente","Área":39772.27}},
{"type":"Feature","geometry":{"type":"Polygon","coordinates":[[[-46.657549020414116,-23.563809827884313],[-46.65729909310586,-23.564018562273144],[-46.65723821995364,-23.564070141697016],[-46.65723045085374,-23.564075552354762],[-46.65722151315925,-23.564081517284162],[-46.65707860193822,-23.564199983048574],[-46.65707366882486,-23.564205002256102],[-46.65698895594347,-23.56427724401815],[-46.65692584670218,-23.5643302016983],[-46.6569182610129,-23.56433461706321],[-46.65691134171336,-23.564337490188258],[-46.656901365590414,-23.56433877046064],[-46.656892429532455,-23.564337059675935],[-46.65688640477465,-23.564333150606235],[-46.65670367391079,-23.564151241469002],[-46.65657461525738,-23.564022763454012],[-46.65631260059539,-23.563752120862087],[-46.6562469024858,-23.56368464281217],[-46.65616639250341,-23.56359989333579],[-46.65613510324553,-23.563573316680564],[-46.65611295834807,-23.563549441955704],[-46.65610698744495,-23.563542010495464],[-46.65610426697136,-23.563535989237476],[-46.65610321162989,-23.563529950238273],[-46.65610360401218,-23.563522180073637],[-46.65610438705802,-23.56351431544452],[-46.656105979733915,-23.5635085191384],[-46.65610972388939,-23.563502429002835],[-46.65615033766241,-23.563467952370335],[-46.65620460877702,-23.563428905403228],[-46.65630847016949,-23.563344630446604],[-46.65639251988821,-23.563274202167737],[-46.656637809282145,-23.563070575567956],[-46.65670367075689,-23.563015740200907],[-46.6567177923767,-23.563003983157074],[-46.65673477481302,-23.562991159855013],[-46.65674141379313,-23.56298937335369],[-46.65674787159896,-23.562988762710745],[-46.65675681322587,-23.562990924959564],[-46.65676302135532,-23.562993838760043],[-46.65676963826726,-23.562998102735076],[-46.65678290946676,-23.563009610255932],[-46.65755473605987,-23.56375585387539],[-46.65755852442223,-23.563761097051902],[-46.6575612781878,-23.56376695538222],[-46.6575629168443,-23.563773258151002],[-46.657563392009955,-23.563779818948905],[-46.657562689539816,-23.56378644738936],[-46.65756083146208,-23.563792947281947],[-46.65755787123928,-23.56379912932511],[-46.65755389474785,-23.563804811095817],[-46.657549020414116,-23.563809827884313]]]},"properties":{"Equipamento":"Praça Alexandre de Gusmão","Modalidade da Concessão":"Concessão","Concessionária":"CONSORCIO BORBOLETAS SPE LTDA","Investimento":123695,"Prazo da Concessão":25,"Poder Concedente":"Secretaria Municipal do Verde e Meio Ambiente","Área":11361.75}},
{"type":"Feature","geometry":{"type":"Polygon","coordinates":[[[-46.65932970275248,-23.560554629723637],[-46.65902953688542,-23.56082117510857],[-46.65899213816596,-23.560853812080264],[-46.65896729428911,-23.560856755576218],[-46.65880887127082,-23.560702668772482],[-46.658712097647026,-23.56061115170093],[-46.65824295920316,-23.560167490823062],[-46.65859979292753,-23.55985578095862],[-46.658936216492975,-23.56017789005125],[-46.65932970275248,-23.560554629723637]]]},"properties":{"Equipamento":"Parque Mário Covas","Modalidade da Concessão":"Concessão","Concessionária":"CONSORCIO BORBOLETAS SPE LTDA","Investimento":70185,"Prazo da Concessão":25,"Poder Concedente":"Secretaria Municipal do Verde e Meio Ambiente","Área":5369.34}}
]}
