{"type":"FeatureCollection", "features": [
{"type":"Feature","geometry":{"type":"MultiPolygon","coordinates":[[[[-46.67167311430214,-23.525489203150716],[-46.671359422601924,-23.525516366044585],[-46.6713866405075,-23.525556239190642],[-46.671462072197244,-23.52555527103154],[-46.67155942239304,-23.525545779492465],[-46.671626913183665,-23.525539193970168],[-46.67169587226212,-23.52553247525436],[-46.671710280024094,-23.525531065291872],[-46.67167311430214,-23.525489203150716]]],[[[-46.671812957362455,-23.52563470908909],[-46.6714790888404,-23.525648205044323],[-46.671457249233974,-23.52564816870067],[-46.67149576059455,-23.525666312150616],[-46.67157646115314,-23.52568208804076],[-46.67167294836321,-23.5257009460924],[-46.671695328188676,-23.52570343281828],[-46.67170693781492,-23.525707588427785],[-46.671877641122066,-23.52574095170329],[-46.6719386010015,-23.525719733223877],[-46.67194194837804,-23.52571291377246],[-46.67193791142631,-23.525703912489842],[-46.671907142558446,-23.525675301239616],[-46.67187204712439,-23.525653519951994],[-46.67183212686693,-23.525638121563578],[-46.671812957362455,-23.52563470908909]]],[[[-46.672101311615776,-23.525832808649362],[-46.67210409885703,-23.525830178003492],[-46.67210899553265,-23.52582087846296],[-46.67211820453494,-23.5258017619082],[-46.67212399651453,-23.525788912907814],[-46.67212990242905,-23.525778880106635],[-46.672141014873816,-23.52576546824828],[-46.672152160178165,-23.52575465673482],[-46.67216426011944,-23.52574499082937],[-46.67219108547777,-23.52572030298522],[-46.672192888864984,-23.52571421531114],[-46.67219126737219,-23.525709898236194],[-46.67218918277252,-23.525708457742017],[-46.672185649432635,-23.525707845532672],[-46.67214688509837,-23.525715413966974],[-46.67210143497052,-23.525727099757688],[-46.672078801474804,-23.52573398916804],[-46.67207476907212,-23.525737283366336],[-46.6720717696433,-23.525741722332214],[-46.67207048869068,-23.52574962849324],[-46.67207541468409,-23.525781398006302],[-46.672085030347816,-23.525829335378138],[-46.672088527820065,-23.525834083808366],[-46.672092657812364,-23.525835412025458],[-46.672101311615776,-23.525832808649362]]],[[[-46.67204114670404,-23.525680564686816],[-46.672048218663036,-23.52567910708478],[-46.67210772722515,-23.525653092841704],[-46.672197623362216,-23.525620015535832],[-46.672281097669,-23.525585597570682],[-46.67232868312411,-23.52556774824627],[-46.67243558562972,-23.52552888933503],[-46.67244002065237,-23.525526457700778],[-46.672441381465525,-23.52552246978752],[-46.67244062531516,-23.525518432382484],[-46.67243840171356,-23.52551614454629],[-46.67243260485165,-23.52551620684174],[-46.67232868410823,-23.525529857502313],[-46.67212574115734,-23.525561187638246],[-46.672039352374306,-23.525575769481684],[-46.67199861232472,-23.5255819865135],[-46.67199455619319,-23.525583402682063],[-46.67199013941429,-23.52558727894077],[-46.67198775754657,-23.525590988853914],[-46.67198758369142,-23.525595830911293],[-46.67198983368984,-23.525600285719676],[-46.6720145172885,-23.525635509230565],[-46.672033391894516,-23.52567215961183],[-46.672036984448354,-23.525677457864493],[-46.67204114670404,-23.525680564686816]]],[[[-46.67331837943713,-23.52685177340246],[-46.67343060411983,-23.526722608746333],[-46.673430146985936,-23.52670961740008],[-46.673418415830334,-23.526702523000445],[-46.6734112391327,-23.526703445398937],[-46.67340894019522,-23.52670449595019],[-46.673296475589815,-23.526771557074355],[-46.673243353528036,-23.5267976837177],[-46.67324196425077,-23.526810571204187],[-46.673246539839546,-23.52681584530957],[-46.67331190756587,-23.52685453128166],[-46.67331837943713,-23.52685177340246]]],[[[-46.673104519197175,-23.526616543329517],[-46.67302344381565,-23.526604407857295],[-46.67297076211632,-23.526591083049592],[-46.67294449132199,-23.52658403565071],[-46.67293187227755,-23.526584171305615],[-46.672927392821684,-23.526587195813622],[-46.67292535557182,-23.52659724755751],[-46.67294554512098,-23.526608668642016],[-46.67297159001936,-23.526626585411822],[-46.67302964822378,-23.52666406780219],[-46.67311171134619,-23.52662489750341],[-46.67311187636081,-23.52662245757537],[-46.673104519197175,-23.526616543329517]]],[[[-46.671978511246195,-23.525807886240276],[-46.67193076847948,-23.52579237054809],[-46.67186132923792,-23.525795897839487],[-46.67181220410975,-23.525798399576683],[-46.67175470964692,-23.52579478293725],[-46.671739630089085,-23.5257870507179],[-46.67169233815571,-23.525770784212988],[-46.67185520772624,-23.52595651883209],[-46.671865820215935,-23.525949497620182],[-46.67194781848038,-23.52592356691323],[-46.6719717891909,-23.525916862721356],[-46.672028613295865,-23.52590082862903],[-46.67199702461725,-23.525828348446495],[-46.67199000142454,-23.525818165589477],[-46.671985069737495,-23.525812294759774],[-46.671978511246195,-23.525807886240276]]],[[[-46.67289820656021,-23.526711905087424],[-46.672792876948876,-23.526638744056765],[-46.67249750690297,-23.526438557690646],[-46.67205046325626,-23.525973910098138],[-46.67201174912592,-23.525959030682113],[-46.67199897740571,-23.525964595051498],[-46.671975580741105,-23.5259761946753],[-46.67195277480448,-23.525992227197612],[-46.67193484693543,-23.526013142316597],[-46.67193898412035,-23.5260441807348],[-46.67249695743463,-23.526670206331985],[-46.67256762882651,-23.526808740360995],[-46.672606684067944,-23.526869093855346],[-46.67262354611746,-23.526878213728516],[-46.67264867900261,-23.526871784998843],[-46.672769664295124,-23.52680355994852],[-46.672788417213674,-23.52679298538071],[-46.67290739336612,-23.526725893443295],[-46.67289820656021,-23.526711905087424]]],[[[-46.67428775439276,-23.527901005325596],[-46.674255642509294,-23.527887927434264],[-46.67397613349023,-23.52791063106647],[-46.673905339133064,-23.527910236730765],[-46.673833221326,-23.52790447369822],[-46.673807801500736,-23.527917415579857],[-46.67379269124695,-23.527940262862018],[-46.67378982640648,-23.527960757906833],[-46.673797072734295,-23.52797973277629],[-46.67391180785308,-23.528153145334652],[-46.6739319308254,-23.528160594607154],[-46.673946377612886,-23.528158843567542],[-46.67421427809406,-23.528012790491015],[-46.674278057293904,-23.52793292303381],[-46.67428775439276,-23.527901005325596]]],[[[-46.67414200552949,-23.527821436184276],[-46.673573740821794,-23.527453968481012],[-46.673452165984045,-23.52737524486682],[-46.67360227144076,-23.527169773912018],[-46.673504319622594,-23.527106691224628],[-46.67348460524056,-23.527099707966773],[-46.67341522705988,-23.527202267703128],[-46.673404848118246,-23.52721761144897],[-46.67334395391865,-23.527307629089616],[-46.67334331456086,-23.527315075041923],[-46.67336257775578,-23.527329745157637],[-46.673403582031604,-23.527365135156128],[-46.673407456918625,-23.527369518285397],[-46.673435224330255,-23.527396852097187],[-46.67352667759646,-23.52752707830202],[-46.67362406830415,-23.527669881959703],[-46.67367266151414,-23.527733202833534],[-46.67371458016637,-23.527772033342565],[-46.673768070576536,-23.52780441823867],[-46.67383223643684,-23.52782910292331],[-46.67391058692614,-23.52784478540899],[-46.67395897848069,-23.527845709699122],[-46.674140839944236,-23.527829937107388],[-46.67414200552949,-23.527821436184276]]],[[[-46.6734113559451,-23.52704285408886],[-46.67333701047358,-23.526995341961285],[-46.67332666124342,-23.52699816681803],[-46.673232904708826,-23.5270854358969],[-46.67322477487213,-23.52709331095291],[-46.67321939406864,-23.527098012135685],[-46.67312457458359,-23.527186270554175],[-46.673096110076266,-23.527198131628406],[-46.673095899660986,-23.52720472593605],[-46.6731182156854,-23.527211439262768],[-46.67316014591011,-23.52722805552501],[-46.67322672942072,-23.527273574244724],[-46.67324083807013,-23.527274054660257],[-46.67324783747498,-23.52726530589529],[-46.67332153047364,-23.52716388098104],[-46.67332675204993,-23.527158515078295],[-46.67333226526047,-23.527149105928686],[-46.67340534978934,-23.527048519203273],[-46.6734113559451,-23.52704285408886]]],[[[-46.673214378629524,-23.52691647237104],[-46.67313668114958,-23.52686719014087],[-46.6731233570412,-23.526866790677982],[-46.672994337754766,-23.526931871361477],[-46.67298428164474,-23.526937353341246],[-46.67297606518336,-23.526941088969267],[-46.67284516758259,-23.527007116226255],[-46.672734679808734,-23.527062410134768],[-46.67274553153244,-23.52708414657568],[-46.67277816423717,-23.527116756036133],[-46.672802745066626,-23.527132114057046],[-46.672856581912086,-23.527153207817584],[-46.67288769027301,-23.527158201227273],[-46.6729185057547,-23.527155522109265],[-46.67302583760216,-23.527122961211834],[-46.67311770308633,-23.52703243100757],[-46.67312401692103,-23.527028094550154],[-46.67313050322064,-23.52701981636231],[-46.6732214506076,-23.52693019086579],[-46.673214378629524,-23.52691647237104]]],[[[-46.67324809064958,-23.52656203488467],[-46.673368403244474,-23.526495802366853],[-46.67284623908665,-23.52554931421392],[-46.672812776021416,-23.5255497596938],[-46.67270735972731,-23.52555898382285],[-46.67265155090968,-23.52556312349496],[-46.672626590946884,-23.525565703489836],[-46.672606964222034,-23.52556873185305],[-46.67258758437387,-23.525572696701605],[-46.672563213846345,-23.52557852122449],[-46.672543466966964,-23.525584440536015],[-46.672524676552236,-23.525591649915174],[-46.67251308079148,-23.525596262545257],[-46.67251088831897,-23.52559713494667],[-46.67250620130543,-23.525599000388322],[-46.67248688992431,-23.525608382610535],[-46.67247079488256,-23.52561809147367],[-46.67243374715778,-23.525643774177308],[-46.67237541085857,-23.52567148716832],[-46.67227670388367,-23.525732787433537],[-46.67225471170721,-23.525754930118566],[-46.67223800173381,-23.52577735738406],[-46.67221487963761,-23.525834080727094],[-46.672212784365954,-23.52590324299337],[-46.67222062290941,-23.525936016967997],[-46.67223817108301,-23.52597347893819],[-46.67229993132716,-23.526043324021497],[-46.67248287996235,-23.52624466939077],[-46.672569257390066,-23.526323832640546],[-46.672654543597666,-23.526383601662456],[-46.67282326306614,-23.526468571093524],[-46.67292429111648,-23.526513059605456],[-46.67305612051979,-23.52654655495621],[-46.67314213343804,-23.52656548492848],[-46.67319525216261,-23.526570387027064],[-46.673224192785156,-23.526569391375464],[-46.67324809064958,-23.52656203488467]]]]},"properties":{"Equipamento":"Baixo do Viaduto Antártica","Modalidade da Concessão":"Concessão","Concessionária":"SOCIAL SERVICE COMUNICAÇÃO MKT DE RESPOSABILIDADE LTDA","Investimento":5373000,"Prazo da Concessão":10,"Poder Concedente":"Subprefeitura da Lapa","Área":14930.08}}
]}
