{"type":"FeatureCollection", "features": [
{"type":"Feature","geometry":{"type":"MultiPolygon","coordinates":[[[[-46.65029328730528,-23.516452261958197],[-46.65033590630744,-23.516430430055312],[-46.650378352075556,-23.516394704180037],[-46.650426314057505,-23.516324967758926],[-46.65044208993736,-23.516279396249146],[-46.65045106109682,-23.516229995799208],[-46.65045496404289,-23.516191160329615],[-46.65045340629172,-23.51614790373364],[-46.650447884962446,-23.51611427028777],[-46.650442828702275,-23.51609123346203],[-46.65042390188197,-23.51603959126896],[-46.65040693812741,-23.51600480585872],[-46.65037956712422,-23.515964712607623],[-46.65034704429056,-23.515926118811123],[-46.65030726188091,-23.515889623844803],[-46.650266201002154,-23.515857405616163],[-46.650224006602976,-23.51583480761241],[-46.650170579357926,-23.51581608526207],[-46.65008637512441,-23.515804624370453],[-46.65001596535663,-23.515799880242223],[-46.64995850363334,-23.51579687715085],[-46.64988256026883,-23.51579443112034],[-46.64977049455582,-23.515791428708376],[-46.64961917324805,-23.51578790303777],[-46.64946676520303,-23.51578518339908],[-46.648303043573996,-23.515760331440188],[-46.647795990719516,-23.515751891928673],[-46.64740941841031,-23.515742835074636],[-46.64704927253074,-23.515735736281666],[-46.646743968292036,-23.51572892436566],[-46.646511003362214,-23.51572445319923],[-46.64628676323804,-23.51571994360083],[-46.646219029867375,-23.515718582894074],[-46.64586771433981,-23.51571213839954],[-46.64571396639171,-23.51570877002929],[-46.64564524217628,-23.51570726603148],[-46.64540584409437,-23.515702138785553],[-46.64516896615316,-23.515697995931518],[-46.644815399113185,-23.51569075109083],[-46.644566204217185,-23.51568529260262],[-46.644468783719475,-23.515681914922165],[-46.644306114448156,-23.515673013516626],[-46.644232177964135,-23.51566578455246],[-46.64412230398489,-23.515656325335552],[-46.64384991445563,-23.51562510337927],[-46.6431663858057,-23.51551167364107],[-46.64297058928902,-23.515478485798354],[-46.64274739081504,-23.515440313155832],[-46.64251516375132,-23.515400573867534],[-46.64227280520288,-23.515358773829437],[-46.64203633766332,-23.51531828387824],[-46.641966191479156,-23.51532213015425],[-46.64190385779932,-23.51532423242646],[-46.641830587316186,-23.515328834017183],[-46.641731973358986,-23.515336592535174],[-46.64164589506165,-23.515344435530835],[-46.64159770933847,-23.515350289584532],[-46.64158191935656,-23.515353110995154],[-46.641564644216245,-23.515356200913093],[-46.64153918886,-23.515362971147585],[-46.64151804977772,-23.515370346048922],[-46.64150349499221,-23.515378012734743],[-46.64149053190732,-23.51538768542597],[-46.641482409234165,-23.51539600671449],[-46.641473753467395,-23.515405561745766],[-46.64146698750084,-23.51541589151817],[-46.641460234884306,-23.515427377029326],[-46.641455518962395,-23.515438768823277],[-46.64145267672022,-23.51544963516407],[-46.64145047187525,-23.515461361694076],[-46.641449151137834,-23.515487527399284],[-46.64144912738879,-23.51554089678544],[-46.641449103024854,-23.51560369382194],[-46.64144904196904,-23.515725134080753],[-46.64144938361968,-23.51574636976846],[-46.64145291689603,-23.51579755243427],[-46.64145822687508,-23.51587197844526],[-46.64146695860585,-23.515982272888998],[-46.64147355066455,-23.516071640475122],[-46.64147627638775,-23.516108238671798],[-46.64147695835872,-23.516114272758312],[-46.641478741063366,-23.516130102155024],[-46.64148164031044,-23.516142786261106],[-46.641486241653446,-23.51615611163242],[-46.64150011637514,-23.516182044868145],[-46.64151165181642,-23.516196227244805],[-46.641525529149675,-23.51620973474412],[-46.641523408213324,-23.516417445197373],[-46.64153628618416,-23.516609700143636],[-46.64152672440213,-23.51662200994758],[-46.641520833471105,-23.516633414133643],[-46.641518053424164,-23.516642979454666],[-46.641518772917706,-23.516669412613197],[-46.64152477786028,-23.516758018801433],[-46.641548273379364,-23.517043309412216],[-46.64155451502184,-23.51714468105101],[-46.641558633075114,-23.517206684875834],[-46.641562124852086,-23.51725924960148],[-46.64156566340681,-23.517301214057365],[-46.64158261174571,-23.517389647942817],[-46.641613224389694,-23.517427808682136],[-46.641656441783255,-23.51745407631816],[-46.64170065945454,-23.517467506743188],[-46.641803884652965,-23.517471763129116],[-46.64188037084135,-23.51746988724339],[-46.64227179684131,-23.517437965725122],[-46.643273307678555,-23.517329673617017],[-46.644314511205096,-23.51716946961663],[-46.64471251741444,-23.517107540686823],[-46.64514077903537,-23.51705491189681],[-46.64600570663887,-23.516973078654214],[-46.64649665028757,-23.516927266793065],[-46.64788609137866,-23.51679604707243],[-46.648233454661046,-23.51676350703483],[-46.64877173181096,-23.51670222100193],[-46.64962634020231,-23.516589436418386],[-46.649924556467774,-23.51653741135697],[-46.65029328730528,-23.516452261958197]]]]},"properties":{"Equipamento":"Complexo do Anhembi","Modalidade da Concessão":"Concessão","Concessionária":"SPE GL EVENTS CENTRO DE CONVENCOES ANHEMBI S.A.","Investimento":66173700,"Prazo da Concessão":30,"Poder Concedente":"SP Turis","Área":134577.9}},
{"type":"Feature","geometry":{"type":"MultiPolygon","coordinates":[[[[-46.64077737464281,-23.515104091313706],[-46.640080183576984,-23.514987939979036],[-46.637112855161945,-23.514478489321803],[-46.63668077367756,-23.514404716789958],[-46.63635509921362,-23.51435090867572],[-46.63610799473107,-23.51431133587746],[-46.63566144159735,-23.51425578494317],[-46.6353196972175,-23.514223229278883],[-46.63490610209999,-23.514191426493394],[-46.63466759084605,-23.514186400587054],[-46.63431308056776,-23.51417807417578],[-46.63391783915891,-23.514177704825894],[-46.63371864977427,-23.51418280679097],[-46.63355219472121,-23.514193590078328],[-46.63264649139318,-23.514252790876807],[-46.63171957583778,-23.51431371592405],[-46.63123986224608,-23.51435036995459],[-46.63088728124571,-23.51436611300383],[-46.63082854848024,-23.51437124612935],[-46.630778074476744,-23.514383824031764],[-46.63074071877474,-23.514400781488703],[-46.630739613179486,-23.5144014965332],[-46.63104763868719,-23.51606626355725],[-46.63144514912414,-23.516043660139108],[-46.63356239877936,-23.515922172775827],[-46.63373340364973,-23.51591328586526],[-46.63444822551991,-23.51588096188503],[-46.634482762919596,-23.51587528041099],[-46.63450183330521,-23.515862669802626],[-46.63452273917239,-23.515842947498154],[-46.63453591104602,-23.515819761085755],[-46.63453564122959,-23.515753969824882],[-46.63452956732802,-23.515691911235706],[-46.63450456950309,-23.515557955870733],[-46.63450363992433,-23.515546117834855],[-46.63449019095428,-23.515472065828064],[-46.63448874709694,-23.515469335766188],[-46.63448575533755,-23.51546813905152],[-46.63446384302057,-23.5154700306886],[-46.63444925611865,-23.51541802463422],[-46.63455974919765,-23.515409459683354],[-46.63465056795783,-23.51540241966544],[-46.6346988558932,-23.51604875616455],[-46.63482024611994,-23.517673520541223],[-46.634837955651555,-23.517795953777707],[-46.634852789696765,-23.517841845440397],[-46.63490874308956,-23.517916437087674],[-46.634951945528385,-23.51794887450984],[-46.63499490523566,-23.517961579589638],[-46.635045043599625,-23.517977968582137],[-46.635118072109016,-23.51798081906275],[-46.6351949596253,-23.51798673088979],[-46.635290683806595,-23.51798384612239],[-46.635873843162855,-23.51789766508794],[-46.63592887804805,-23.517891313643357],[-46.63629904130566,-23.51785139122318],[-46.637037649856914,-23.51779914405053],[-46.637161751227815,-23.517790053886227],[-46.637285619758444,-23.5177620619984],[-46.63753980978171,-23.51774048330046],[-46.63796097435057,-23.517665993307826],[-46.63816069655614,-23.51762830590881],[-46.638093134631156,-23.516568684905167],[-46.640073869994595,-23.516448807984773],[-46.640080508773735,-23.51654541748611],[-46.64105346399327,-23.5164856535578],[-46.64108900444209,-23.51647005741018],[-46.64110900304206,-23.516459142057702],[-46.64113545792861,-23.5164337652282],[-46.641162147729766,-23.516224492671885],[-46.64115669553647,-23.516125234791332],[-46.64115361066679,-23.51606992866401],[-46.64114992995046,-23.516048710114294],[-46.64113554622771,-23.515858484728216],[-46.6411236599509,-23.51572120481416],[-46.64111605962951,-23.515607358524903],[-46.64113561241986,-23.515376200379162],[-46.641114549169814,-23.51529482181349],[-46.64106805995131,-23.51523356260094],[-46.64102025393024,-23.51519792089683],[-46.64077737464281,-23.515104091313706]]]]},"properties":{"Equipamento":"Complexo do Anhembi","Modalidade da Concessão":"Concessão","Concessionária":"SPE GL EVENTS CENTRO DE CONVENCOES ANHEMBI S.A.","Investimento":66173700,"Prazo da Concessão":30,"Poder Concedente":"SP Turis","Área":260026.03}}
]}
