{"type":"FeatureCollection","features":[
{"type":"Feature","geometry":{"type":"Polygon","coordinates":[[[-46.62699066278749,-23.5446311166951],[-46.62676959112774,-23.546520695254195],[-46.626901832653566,-23.54670129420708],[-46.62709672118623,-23.546770604937734],[-46.627023690974234,-23.548215816432943],[-46.6285041794072,-23.549193794833553],[-46.628412618396865,-23.54968886914645],[-46.62652293753368,-23.54865490967601],[-46.6264358499788,-23.548814579582597],[-46.625304332768124,-23.548339805890507],[-46.625637471636885,-23.547318430179516],[-46.62668297878357,-23.547875730194356],[-46.626556738799295,-23.546947008846878],[-46.626448300027015,-23.546143447031568],[-46.62648444628444,-23.545149343144654],[-46.626692870445545,-23.544577412666758],[-46.62699066278749,-23.5446311166951]]]},"properties":{"Equipamento":"Dom Pedro","Conjunto":"5 (Ponte do Carmo)","Aporte":"R$ 60,33 MM","Etapas - Infraestrutura e Urbanização - Aporte":null,"Etapas - Serviços Preliminares Gerais - Aporte":null,"Etapas - Fundações e Contenções - Aporte":null,"Etapas - Superestrutura - Aporte":null,"Etapas - Parede,Pisos,Revestimento,Cobertura e Proteções - Aporte":null,"Etapas - Instalações - Aporte":null,"Etapas - Complementações - Aporte":null,"Fator":"13,86%","Etapas - Infraestrutura e Urbanização - Subfator":null,"Etapas - Serviços Preliminares Gerais - Subfator":null,"Etapas - Fundações e Contenções - Subfator":null,"Etapas - Superestrutura -  Subfator":null,"Etapas - Parede,Pisos,Revestimento,Cobertura e Proteções - Subfator":null,"Etapas - Instalações - Subfator":null,"Etapas - Complementações - Subfator":null}},
{"type":"Feature","geometry":{"type":"Polygon","coordinates":[[[-46.62870473477066,-23.544948624907338],[-46.62795424821103,-23.544810029349534],[-46.626692287264646,-23.54457773000636],[-46.62692723793792,-23.543898418407878],[-46.62695434763099,-23.54342621193646],[-46.626954347631006,-23.54283802255666],[-46.62814254784567,-23.542971414524875],[-46.62917002746005,-23.54301945507752],[-46.629173515064856,-23.543019883761534],[-46.62918232675049,-23.543189525949142],[-46.628798885940434,-23.543163711240318],[-46.62878849077856,-23.54319275825814],[-46.62917287050125,-23.543390753269676],[-46.63005256899837,-23.544297137332602],[-46.63031413669723,-23.544606729521988],[-46.6303344636569,-23.544631120147223],[-46.63036453178395,-23.54466689098298],[-46.63047779775955,-23.544801278716957],[-46.63074153640541,-23.544914474082123],[-46.63065979450966,-23.544985842305575],[-46.63046906341957,-23.544896632020215],[-46.62986771920655,-23.544267913361264],[-46.62963607457717,-23.54401166271118],[-46.62934024676398,-23.543694071466593],[-46.62916119308757,-23.543544196680266],[-46.62876805349373,-23.543276562708392],[-46.62874489686881,-23.543830100656862],[-46.62870473477066,-23.544948624907338]],[[-46.62845192395473,-23.54384412268815],[-46.62775709205415,-23.54380992185728],[-46.62775709205415,-23.543561965567456],[-46.62721148579664,-23.543502113979162],[-46.62703894364684,-23.544455461039345],[-46.62757522330165,-23.544515312193695],[-46.62758454990434,-23.54424598178455],[-46.62840062763993,-23.54435713408375],[-46.62845192395473,-23.54384412268815]]]},"properties":{"Equipamento":"Dom Pedro","Conjunto":"7 (Praça São Vito)","Aporte":"R$ 10,07 MM","Etapas - Infraestrutura e Urbanização - Aporte":null,"Etapas - Serviços Preliminares Gerais - Aporte":null,"Etapas - Fundações e Contenções - Aporte":null,"Etapas - Superestrutura - Aporte":null,"Etapas - Parede,Pisos,Revestimento,Cobertura e Proteções - Aporte":null,"Etapas - Instalações - Aporte":null,"Etapas - Complementações - Aporte":null,"Fator":"2,31%","Etapas - Infraestrutura e Urbanização - Subfator":null,"Etapas - Serviços Preliminares Gerais - Subfator":null,"Etapas - Fundações e Contenções - Subfator":null,"Etapas - Superestrutura -  Subfator":null,"Etapas - Parede,Pisos,Revestimento,Cobertura e Proteções - Subfator":null,"Etapas - Instalações - Subfator":null,"Etapas - Complementações - Subfator":null}},
{"type":"Feature","geometry":{"type":"Polygon","coordinates":[[[-46.62876805349373,-23.543276562708392],[-46.628742242990846,-23.544003678858633],[-46.628732013570655,-23.544191164109503],[-46.62873059414765,-23.544222654579272],[-46.62870516913382,-23.544948079295143],[-46.62870473477066,-23.544948624907338],[-46.628718718513205,-23.544579357013674],[-46.62873087803225,-23.54421979180961],[-46.62873856799612,-23.54405519106741],[-46.62876805349373,-23.543276562708392]]]},"properties":{"Equipamento":"Dom Pedro","Conjunto":null,"Aporte":null,"Etapas - Infraestrutura e Urbanização - Aporte":null,"Etapas - Serviços Preliminares Gerais - Aporte":null,"Etapas - Fundações e Contenções - Aporte":null,"Etapas - Superestrutura - Aporte":null,"Etapas - Parede,Pisos,Revestimento,Cobertura e Proteções - Aporte":null,"Etapas - Instalações - Aporte":null,"Etapas - Complementações - Aporte":null,"Fator":null,"Etapas - Infraestrutura e Urbanização - Subfator":null,"Etapas - Serviços Preliminares Gerais - Subfator":null,"Etapas - Fundações e Contenções - Subfator":null,"Etapas - Superestrutura -  Subfator":null,"Etapas - Parede,Pisos,Revestimento,Cobertura e Proteções - Subfator":null,"Etapas - Instalações - Subfator":null,"Etapas - Complementações - Subfator":null}},
{"type":"Feature","geometry":{"type":"Polygon","coordinates":[[[-46.630659263553596,-23.544986604815772],[-46.630741438458294,-23.544914956711995],[-46.630477932341385,-23.544801481399624],[-46.63006202198969,-23.544307066976152],[-46.62917267095147,-23.5433906526018],[-46.6287881688689,-23.543192472299165],[-46.62879925039962,-23.543163787791322],[-46.62918188913671,-23.54319008192375],[-46.62917307913741,-23.543019885486284],[-46.631335454690536,-23.544880016828067],[-46.63121985375294,-23.544952961922657],[-46.631086898747235,-23.54507438150495],[-46.630942897048875,-23.54521220299932],[-46.63082941016821,-23.54549045986461],[-46.63082941016821,-23.54574381884399],[-46.63046735767339,-23.54561986536204],[-46.62866176008011,-23.54518714235327],[-46.62871056280809,-23.544921262031313],[-46.628768490836656,-23.543277014336088],[-46.6289158996284,-23.54337727818419],[-46.629161403093796,-23.543544082632952],[-46.629299826951595,-23.54366019415358],[-46.629324942041464,-23.543681438322327],[-46.629340477148595,-23.54369425603142],[-46.629349927672095,-23.543704344042332],[-46.63007340363022,-23.54448352145086],[-46.63046847048152,-23.544896706191413],[-46.630659263553596,-23.544986604815772]]]},"properties":{"Equipamento":"Dom Pedro","Conjunto":"1 (Base GCM e Contrapartidas Sociais)","Aporte":"R$ 21,88 MM","Etapas - Infraestrutura e Urbanização - Aporte":null,"Etapas - Serviços Preliminares Gerais - Aporte":null,"Etapas - Fundações e Contenções - Aporte":null,"Etapas - Superestrutura - Aporte":null,"Etapas - Parede,Pisos,Revestimento,Cobertura e Proteções - Aporte":null,"Etapas - Instalações - Aporte":null,"Etapas - Complementações - Aporte":null,"Fator":"5,03%","Etapas - Infraestrutura e Urbanização - Subfator":null,"Etapas - Serviços Preliminares Gerais - Subfator":null,"Etapas - Fundações e Contenções - Subfator":null,"Etapas - Superestrutura -  Subfator":null,"Etapas - Parede,Pisos,Revestimento,Cobertura e Proteções - Subfator":null,"Etapas - Instalações - Subfator":null,"Etapas - Complementações - Subfator":null}},
{"type":"Feature","geometry":{"type":"Polygon","coordinates":[[[-46.626991466703316,-23.544633487606575],[-46.62870497103511,-23.544947135713766],[-46.62866254435618,-23.54518605903767],[-46.62870583688571,-23.545196377975437],[-46.62856633901011,-23.545941648453248],[-46.62842945113186,-23.546554758242237],[-46.62838465276101,-23.546646474079836],[-46.62837029689255,-23.546680242564673],[-46.627144516421374,-23.546558172211757],[-46.62709944694987,-23.546767435816715],[-46.62690010294054,-23.546701581569888],[-46.626770593956664,-23.54652113747166],[-46.626991466703316,-23.544633487606575]]]},"properties":{"Equipamento":"Dom Pedro","Conjunto":"6 (Praça Cívica)","Aporte":"R$ 22,38 MM","Etapas - Infraestrutura e Urbanização - Aporte":null,"Etapas - Serviços Preliminares Gerais - Aporte":null,"Etapas - Fundações e Contenções - Aporte":null,"Etapas - Superestrutura - Aporte":null,"Etapas - Parede,Pisos,Revestimento,Cobertura e Proteções - Aporte":null,"Etapas - Instalações - Aporte":null,"Etapas - Complementações - Aporte":null,"Fator":"5,14%","Etapas - Infraestrutura e Urbanização - Subfator":null,"Etapas - Serviços Preliminares Gerais - Subfator":null,"Etapas - Fundações e Contenções - Subfator":null,"Etapas - Superestrutura -  Subfator":null,"Etapas - Parede,Pisos,Revestimento,Cobertura e Proteções - Subfator":null,"Etapas - Instalações - Subfator":null,"Etapas - Complementações - Subfator":null}},
{"type":"Feature","geometry":{"type":"Polygon","coordinates":[[[-46.628384668644216,-23.54664626665141],[-46.628431322285,-23.546551875432485],[-46.62870806941079,-23.545196243060506],[-46.63046887951092,-23.54561986536204],[-46.63082803316951,-23.545744032125512],[-46.63095282384748,-23.545971438365846],[-46.63112326965155,-23.54611932196751],[-46.631388832317874,-23.546285882046874],[-46.63029715990145,-23.547839806923836],[-46.63030118380467,-23.547847110612626],[-46.62915327068825,-23.547049123882857],[-46.628384668644216,-23.54664626665141]]]},"properties":{"Equipamento":"Dom Pedro","Conjunto":"3 (Esplanada de Eventos)","Aporte":"R$ 12,86 MM","Etapas - Infraestrutura e Urbanização - Aporte":null,"Etapas - Serviços Preliminares Gerais - Aporte":null,"Etapas - Fundações e Contenções - Aporte":null,"Etapas - Superestrutura - Aporte":null,"Etapas - Parede,Pisos,Revestimento,Cobertura e Proteções - Aporte":null,"Etapas - Instalações - Aporte":null,"Etapas - Complementações - Aporte":null,"Fator":"2,95%","Etapas - Infraestrutura e Urbanização - Subfator":null,"Etapas - Serviços Preliminares Gerais - Subfator":null,"Etapas - Fundações e Contenções - Subfator":null,"Etapas - Superestrutura -  Subfator":null,"Etapas - Parede,Pisos,Revestimento,Cobertura e Proteções - Subfator":null,"Etapas - Instalações - Subfator":null,"Etapas - Complementações - Subfator":null}},
{"type":"Feature","geometry":{"type":"Polygon","coordinates":[[[-46.62920858953335,-23.547086832644805],[-46.629206640917324,-23.54708530406974],[-46.62928686013438,-23.5471381263776],[-46.629445141483366,-23.54725472577065],[-46.629679737054204,-23.547410191467204],[-46.63029025082889,-23.547845494439528],[-46.630230132611715,-23.547934935884516],[-46.62992632897094,-23.548393215952803],[-46.62922088661863,-23.5495054462309],[-46.628455053578904,-23.5507403267252],[-46.62681543912164,-23.55020149803351],[-46.627414510149684,-23.549144395323733],[-46.62841306377234,-23.549687023362274],[-46.62851086026115,-23.54919158045948],[-46.62756377847471,-23.548578172373812],[-46.62838477926547,-23.546646368061797],[-46.62915289134737,-23.547049209250876],[-46.62920858953335,-23.547086832644805]]]},"properties":{"Equipamento":"Dom Pedro","Conjunto":"9 (Terminal)","Aporte":"R$ 231,71 MM","Etapas - Infraestrutura e Urbanização - Aporte":"R$ 39,04 MM","Etapas - Serviços Preliminares Gerais - Aporte":"R$ 48,20 MM","Etapas - Fundações e Contenções - Aporte":"R$ 19,16 MM","Etapas - Superestrutura - Aporte":"R$ 20,34 MM","Etapas - Parede,Pisos,Revestimento,Cobertura e Proteções - Aporte":"R$ 40,55 MM","Etapas - Instalações - Aporte":"R$ 62,33 MM","Etapas - Complementações - Aporte":"R$ 2,08 MM","Fator":"53,25%","Etapas - Infraestrutura e Urbanização - Subfator":"16,85%","Etapas - Serviços Preliminares Gerais - Subfator":"20,8%","Etapas - Fundações e Contenções - Subfator":"8,27%","Etapas - Superestrutura -  Subfator":"8,78%","Etapas - Parede,Pisos,Revestimento,Cobertura e Proteções - Subfator":"17,5%","Etapas - Instalações - Subfator":"26,9%","Etapas - Complementações - Subfator":"0,9%"}},
{"type":"Feature","geometry":{"type":"Polygon","coordinates":[[[-46.63121491347826,-23.547192761479103],[-46.63149176417312,-23.54631297638555],[-46.6312553118809,-23.546199174882513],[-46.63111935181288,-23.546117888034328],[-46.63095383520832,-23.54597157158095],[-46.6308296977549,-23.545743967885393],[-46.6308296977549,-23.545494687195333],[-46.6309420125937,-23.54521289106356],[-46.63108979527634,-23.545071992771202],[-46.63121984403706,-23.544952771021276],[-46.63144079126096,-23.544818446535672],[-46.63152558460346,-23.544799790346254],[-46.63200721078884,-23.54485575890654],[-46.63233906562858,-23.545019906645123],[-46.63186502556519,-23.545951134542328],[-46.63235260963039,-23.546447786724077],[-46.631946289576064,-23.54741625308247],[-46.63121491347826,-23.547192761479103]]]},"properties":{"Equipamento":"Dom Pedro","Conjunto":"2 (Praças Fernando Costa e Ragueb Chohfi)","Aporte":"R$ 12,05  MM","Etapas - Infraestrutura e Urbanização - Aporte":null,"Etapas - Serviços Preliminares Gerais - Aporte":null,"Etapas - Fundações e Contenções - Aporte":null,"Etapas - Superestrutura - Aporte":null,"Etapas - Parede,Pisos,Revestimento,Cobertura e Proteções - Aporte":null,"Etapas - Instalações - Aporte":null,"Etapas - Complementações - Aporte":null,"Fator":"2,77%","Etapas - Infraestrutura e Urbanização - Subfator":null,"Etapas - Serviços Preliminares Gerais - Subfator":null,"Etapas - Fundações e Contenções - Subfator":null,"Etapas - Superestrutura -  Subfator":null,"Etapas - Parede,Pisos,Revestimento,Cobertura e Proteções - Subfator":null,"Etapas - Instalações - Subfator":null,"Etapas - Complementações - Subfator":null}},
{"type":"Feature","geometry":{"type":"Polygon","coordinates":[[[-46.62660473192238,-23.545316607798906],[-46.626495661309825,-23.5452757063192],[-46.62652292896296,-23.545159818793366],[-46.626645633402084,-23.545190494903146],[-46.62660473192238,-23.545316607798906]]]},"properties":{"Equipamento":"Dom Pedro","Conjunto":"4 ( Galerias de Águas Pluviais)","Aporte":"R$ 20,64 MM","Etapas - Infraestrutura e Urbanização - Aporte":null,"Etapas - Serviços Preliminares Gerais - Aporte":null,"Etapas - Fundações e Contenções - Aporte":null,"Etapas - Superestrutura - Aporte":null,"Etapas - Parede,Pisos,Revestimento,Cobertura e Proteções - Aporte":null,"Etapas - Instalações - Aporte":null,"Etapas - Complementações - Aporte":null,"Fator":"4,74%","Etapas - Infraestrutura e Urbanização - Subfator":null,"Etapas - Serviços Preliminares Gerais - Subfator":null,"Etapas - Fundações e Contenções - Subfator":null,"Etapas - Superestrutura -  Subfator":null,"Etapas - Parede,Pisos,Revestimento,Cobertura e Proteções - Subfator":null,"Etapas - Instalações - Subfator":null,"Etapas - Complementações - Subfator":null}},
{"type":"Feature","geometry":{"type":"MultiPolygon","coordinates":[[[[-46.62772351616752,-23.5500982556893],[-46.62769398138311,-23.550159495934913],[-46.62723474846839,-23.550071413456802],[-46.627212224611284,-23.55011064441015],[-46.62689013345472,-23.550853965524382],[-46.626743728383545,-23.55079615181069],[-46.62711537202575,-23.550046636006538],[-46.62648245164116,-23.54994752615881],[-46.626424385124466,-23.5499860218859],[-46.62631648462154,-23.55017648076623],[-46.62627304215565,-23.550150831301202],[-46.62631059411769,-23.55007928276703],[-46.62633297345549,-23.55004914020623],[-46.626320773065764,-23.55005211582018],[-46.626310562732854,-23.550054306441705],[-46.62630339377571,-23.550054306441705],[-46.62628927310255,-23.550052314967584],[-46.62626959732213,-23.55004781399318],[-46.62626199870447,-23.550037862936282],[-46.62624571595234,-23.55002094613782],[-46.62624245940191,-23.550002039125204],[-46.62624680146914,-23.549983132109855],[-46.6262570062557,-23.549962064931087],[-46.62626742628851,-23.549953278922192],[-46.62628370904064,-23.54994332785814],[-46.62629999179277,-23.54993835232584],[-46.62631369945733,-23.54993821772595],[-46.62632541067869,-23.549942818791283],[-46.626334612352615,-23.54994741985644],[-46.62634297751074,-23.54995202092146],[-46.62635050615304,-23.549961989895085],[-46.62635557231912,-23.54997025150645],[-46.62636218425865,-23.549989073144406],[-46.62635213167884,-23.550017562639106],[-46.62633298130046,-23.550049221268086],[-46.62631051958009,-23.55007935887694],[-46.62633216451062,-23.550050531599048],[-46.626353300270594,-23.55001650902102],[-46.62637277552045,-23.54994817297206],[-46.6264519102466,-23.549894553658795],[-46.62772351616752,-23.5500982556893]]],[[[-46.626955736571716,-23.550080136030008],[-46.626968419511904,-23.550085152798548],[-46.62650717195249,-23.55131909591927],[-46.62646020491584,-23.551435808643305],[-46.626366337798416,-23.55166978269901],[-46.62520761510192,-23.551630469120447],[-46.62513235219465,-23.551628005065577],[-46.62513504015562,-23.55159843640352],[-46.626354276426916,-23.55165181109162],[-46.626955736571716,-23.550080136030008]]],[[[-46.62619247141324,-23.552205883007602],[-46.626045853547936,-23.552585658396566],[-46.62639637821884,-23.55272878204865],[-46.625642798454464,-23.553020711032303],[-46.62533634801282,-23.552319419399307],[-46.625733337703075,-23.55245483385521],[-46.625896876126205,-23.55208628101758],[-46.62619247141324,-23.552205883007602]]]]},"properties":{"Equipamento":"Dom Pedro","Conjunto":"8 (Obras Complementares)","Aporte":"R$ 43,25 MM","Fator":"9,94%","Areas":[{"nome":"Demolição da Passarela","etapas":["Demolição da Passarela"]},{"nome":"Acesso ao BRT","etapas":["Acesso ao BRT"]},{"nome":"Estação Luís Gama","etapas":["Estação Luís Gama"]}]}}
]}
