{"type":"FeatureCollection", "features": [
{"type":"Feature","geometry":{"type":"Polygon","coordinates":[[[-46.62845662660749,-23.550737427781677],[-46.626809025255156,-23.550196633793735],[-46.62682171243657,-23.550185003322323],[-46.62739865598813,-23.54915030637335],[-46.62652413609665,-23.548658719532455],[-46.62643257411853,-23.548826593020618],[-46.62529800178096,-23.548337569653423],[-46.625630597529465,-23.547315405692476],[-46.626675908297294,-23.54788078273396],[-46.626447256698384,-23.54614942353247],[-46.62648794809391,-23.545169358534825],[-46.626700333728245,-23.544573363485434],[-46.62692674563025,-23.54388917249735],[-46.62696028813426,-23.542828285049413],[-46.628151047026314,-23.542958974545087],[-46.62919086465036,-23.543028163049037],[-46.63133758490646,-23.544873176392105],[-46.631454983670466,-23.544819363869458],[-46.631530454304475,-23.544796301353006],[-46.63200843498649,-23.54484242638185],[-46.632318703148506,-23.545011551349248],[-46.631862357844895,-23.545956023068385],[-46.632354048388,-23.546446741416943],[-46.631933573615065,-23.54741064296652],[-46.63122234242429,-23.547195149006416],[-46.6314925895525,-23.546312115713103],[-46.63121614882446,-23.546174961918418],[-46.63138713396444,-23.546285034255952],[-46.63029916831838,-23.547845274328147],[-46.62980241864062,-23.548558278068512],[-46.628458097056146,-23.550733865178373],[-46.62845662660749,-23.550737427781677]]]},"properties":{"Equipamentos":"Dom Pedro","Aporte":null,"Etapas - Infraestrutura e Urbanização - Aporte":null,"Etapas - Serviços Preliminares Gerais - Aporte":null,"Etapas - Fundações e Contenções - Aporte":null,"Etapas - Superestrutura - Aporte":null,"Etapas - Parede,Pisos,Revestimento,Cobertura e Proteções - Aporte":null,"Etapas - Instalações - Aporte":null,"Etapas - Complementações - Aporte":null,"Fator":null,"Etapas - Infraestrutura e Urbanização - Subfator":null,"Etapas - Serviços Preliminares Gerais - Subfator":null,"Etapas - Fundações e Contenções - Subfator":null,"Etapas - Superestrutura -  Subfator":null,"Etapas - Parede,Pisos,Revestimento,Cobertura e Proteções - Subfator":null,"Etapas - Instalações - Subfator":null,"Etapas - Complementações - Subfator":null}}
]}