{"type":"FeatureCollection", "features": [
{"type":"Feature","geometry":{"type":"MultiPolygon","coordinates":[[[[-46.67978130844055,-23.52354548401505],[-46.679770179893566,-23.523530548102084],[-46.67976023176431,-23.52352559134458],[-46.67971727187433,-23.523515926744118],[-46.679676392600015,-23.5234971237079],[-46.67962878207712,-23.523467253670646],[-46.6796170746936,-23.52346612211117],[-46.679607191699205,-23.523470154187155],[-46.67959074016854,-23.523513747039832],[-46.679568353619345,-23.523561632773912],[-46.679540438293394,-23.5236121779583],[-46.679497068619526,-23.523667296638678],[-46.67948114437598,-23.523684228498155],[-46.67947452143372,-23.52369535381334],[-46.67947892739159,-23.523707083432768],[-46.67948893494708,-23.523712864022425],[-46.67964750193462,-23.523637246201684],[-46.679722883884395,-23.5235920402774],[-46.679769551916884,-23.523556066046837],[-46.67978130844055,-23.52354548401505]]],[[[-46.6798479810017,-23.523429439052673],[-46.67995793823548,-23.523179097758046],[-46.67995985170339,-23.52315679513064],[-46.679956171089415,-23.523126450103263],[-46.679954700601996,-23.52309709350312],[-46.679937609843876,-23.523048663090755],[-46.67985968109528,-23.52289483073966],[-46.67980166217002,-23.52277967193865],[-46.679779751294234,-23.52275484514482],[-46.67975494119059,-23.52273622989453],[-46.67972686652141,-23.52272451642329],[-46.67968734024472,-23.52272927116492],[-46.67948640510264,-23.522808564532003],[-46.67947932623733,-23.522817483274274],[-46.67947683553002,-23.522855963381886],[-46.679480476398226,-23.522908110428116],[-46.67950205598013,-23.522965556959683],[-46.67953544467123,-23.523014636010917],[-46.679579449189944,-23.523112793318614],[-46.679600533433366,-23.523145480803414],[-46.67961423917731,-23.523186858191156],[-46.67963715527495,-23.523261559595298],[-46.67964337916835,-23.523319223288016],[-46.67964956451676,-23.52337384964243],[-46.679660829783764,-23.523396010042067],[-46.67967868396024,-23.52341809933167],[-46.679706371559035,-23.523436031552905],[-46.67974169528814,-23.5234498295121],[-46.67980098846443,-23.52344817638326],[-46.67984366552278,-23.5234355620404],[-46.6798479810017,-23.523429439052673]]],[[[-46.67963849525803,-23.522616314175572],[-46.67965951111885,-23.522596476528076],[-46.67967423864693,-23.522573229217706],[-46.679683861991165,-23.522542341468217],[-46.679679404203014,-23.52246564927228],[-46.679647575193705,-23.522377569207734],[-46.679622109649614,-23.522297041937783],[-46.67959238122748,-23.52219853641622],[-46.67957006625932,-23.522116240435878],[-46.67954269375997,-23.5219996491075],[-46.679520936041435,-23.521902610743926],[-46.67950591483136,-23.52180856994689],[-46.6795009694897,-23.521771617613048],[-46.67909418131377,-23.521814795703726],[-46.679128220745426,-23.521967067520965],[-46.679153614915876,-23.522090392419933],[-46.679195729448104,-23.522240315934553],[-46.67920902822022,-23.522290080484165],[-46.67923316704428,-23.52237381070589],[-46.679299744028654,-23.522573597707257],[-46.679319194510114,-23.522639306384825],[-46.6793312998057,-23.52265428236766],[-46.67939265054053,-23.522676967034805],[-46.67942645521428,-23.522670168267663],[-46.67963849525803,-23.522616314175572]]],[[[-46.68032997354841,-23.524272651196775],[-46.6804959460508,-23.524314922808703],[-46.68052717427307,-23.524314585609076],[-46.68062121523633,-23.524297676107995],[-46.68069108891463,-23.524277715267445],[-46.68078295879418,-23.524240229474184],[-46.68080221870879,-23.524225936201418],[-46.68080346084457,-23.52421439937655],[-46.680799189683064,-23.52420612238892],[-46.680658025942215,-23.524025180357597],[-46.6802716939199,-23.52419342473066],[-46.68032997354841,-23.524272651196775]]],[[[-46.68088048214003,-23.524319845513578],[-46.68086097827649,-23.52431493424288],[-46.68077467858167,-23.52435364040677],[-46.68071006299342,-23.52440491624457],[-46.68067303824287,-23.52444180883464],[-46.68064740687124,-23.524471682034715],[-46.68065008439022,-23.524493275882246],[-46.68065693006757,-23.524518891910322],[-46.68071599651998,-23.52460259410075],[-46.681234758803356,-23.52524035486189],[-46.68127617123534,-23.52521473496561],[-46.680972173837105,-23.52484358974854],[-46.68115169723475,-23.524722143443288],[-46.681453837453105,-23.52509270515388],[-46.68149408806284,-23.525070610493856],[-46.68132557124985,-23.5248681974678],[-46.68111604867322,-23.524607966283742],[-46.68093412187809,-23.524388411151303],[-46.68088048214003,-23.524319845513578]]]]},"properties":{"Equipamento":"Baixo do Viaduto Pompéia","Modalidade da Concessão":"Termo de permissão de uso (TPU)","Poder Concedente":"Subprefeitura da Lapa","Área":10013.09}}
]}
