{"type":"FeatureCollection", "features": [
{"type":"Feature","geometry":{"type":"Polygon","coordinates":[[[-46.682867137446536,-23.473560467551597],[-46.68339116830241,-23.47331775572833],[-46.6838581264908,-23.47429335936705],[-46.68348455994008,-23.474464684139406],[-46.682867137446536,-23.473560467551597]]]},"properties":{"nm_equipamento":"CEU Brasilândia","Esportivo - Piscinas Semiolímpicas":1,"Esportivo - Salas de Ginásticas":2,"Esportivo - Salas Esportivas Multiuso":8,"Esportivo - Salas de Dança":2,"Esportivo - Salas de Artes Marciais":2,"Esportivo - Quadras Cobertas":1,"Esportivo - Quadra Descoberta":1,"Esportivo - Piscinas Descobertas":3,"Esportivo - Playground":1,"Esportivo - Pistas de Corrida":1,"Educacional / Cultural - Bibliotecas":1,"Educacional / Cultural - Cineteatros":1,"Educacional / Cultural - Cozinhas Experimentais":1,"Educacional / Cultural - Salas De Circo":1,"Educacional / Cultural - Salas de Audiovisual":1,"Educacional / Cultural - Estúdios de Gravação":2,"Educacional / Cultural - Salas de Acesso Digital":1,"Educacional / Cultural - Salas de Música":1,"Educacional / Cultural - Salas de Artes":1,"Educacional / Cultural - Salas de Artes Cênicas":1,"Educacional / Cultural - EMEF":1,"Educacional / Cultural - Salas de Contraturno":1,"Educacional / Cultural - UniCEU":1,"Esportivo - Pistas de Skates":0,"Educacional / Cultural - Salas de Uso Múltiplo":0,"Educacional / Cultural - Salas de COWORKING":0}},
{"type":"Feature","geometry":{"type":"Polygon","coordinates":[[[-46.70340844585584,-23.769682714841192],[-46.703153809270994,-23.76943802623865],[-46.70484714256023,-23.768540830758592],[-46.70519090194979,-23.768692305754296],[-46.70530548841297,-23.770148787096623],[-46.70479621524326,-23.770335215531265],[-46.704758019755545,-23.770661464649017],[-46.70442699219524,-23.770801285449004],[-46.704108696464175,-23.770521643698743],[-46.703077418295535,-23.771453780528542],[-46.702695463418266,-23.771267353696935],[-46.70055651610552,-23.770288608447657],[-46.70217345841932,-23.77006722457246],[-46.70340844585584,-23.769682714841192]]]},"properties":{"nm_equipamento":"CEU Jardim Campinas","Esportivo - Piscinas Semiolímpicas":1,"Esportivo - Salas de Ginásticas":2,"Esportivo - Salas Esportivas Multiuso":8,"Esportivo - Salas de Dança":2,"Esportivo - Salas de Artes Marciais":2,"Esportivo - Quadras Cobertas":1,"Esportivo - Quadra Descoberta":0,"Esportivo - Piscinas Descobertas":3,"Esportivo - Playground":1,"Esportivo - Pistas de Corrida":0,"Educacional / Cultural - Bibliotecas":1,"Educacional / Cultural - Cineteatros":1,"Educacional / Cultural - Cozinhas Experimentais":1,"Educacional / Cultural - Salas De Circo":2,"Educacional / Cultural - Salas de Audiovisual":1,"Educacional / Cultural - Estúdios de Gravação":2,"Educacional / Cultural - Salas de Acesso Digital":2,"Educacional / Cultural - Salas de Música":4,"Educacional / Cultural - Salas de Artes":2,"Educacional / Cultural - Salas de Artes Cênicas":2,"Educacional / Cultural - EMEF":1,"Educacional / Cultural - Salas de Contraturno":1,"Educacional / Cultural - UniCEU":1,"Esportivo - Pistas de Skates":1,"Educacional / Cultural - Salas de Uso Múltiplo":6,"Educacional / Cultural - Salas de COWORKING":0}},
{"type":"Feature","geometry":{"type":"Polygon","coordinates":[[[-46.403501251472804,-23.524979103723137],[-46.403482112797676,-23.52487966509788],[-46.40376706640507,-23.52484261931631],[-46.403752180768855,-23.524977153946896],[-46.40381172331368,-23.525176030974972],[-46.40389253105309,-23.52521697620817],[-46.40454537252673,-23.5251136382142],[-46.404636812863416,-23.525589382268016],[-46.403645854795954,-23.525696619419694],[-46.403501251472804,-23.524979103723137]]]},"properties":{"nm_equipamento":"CEU Parque das Flores","Esportivo - Piscinas Semiolímpicas":1,"Esportivo - Salas de Ginásticas":0,"Esportivo - Salas Esportivas Multiuso":0,"Esportivo - Salas de Dança":2,"Esportivo - Salas de Artes Marciais":1,"Esportivo - Quadras Cobertas":1,"Esportivo - Quadra Descoberta":0,"Esportivo - Piscinas Descobertas":0,"Esportivo - Playground":1,"Esportivo - Pistas de Corrida":0,"Educacional / Cultural - Bibliotecas":1,"Educacional / Cultural - Cineteatros":1,"Educacional / Cultural - Cozinhas Experimentais":1,"Educacional / Cultural - Salas De Circo":0,"Educacional / Cultural - Salas de Audiovisual":0,"Educacional / Cultural - Estúdios de Gravação":1,"Educacional / Cultural - Salas de Acesso Digital":1,"Educacional / Cultural - Salas de Música":1,"Educacional / Cultural - Salas de Artes":1,"Educacional / Cultural - Salas de Artes Cênicas":1,"Educacional / Cultural - EMEF":1,"Educacional / Cultural - Salas de Contraturno":1,"Educacional / Cultural - UniCEU":1,"Esportivo - Pistas de Skates":0,"Educacional / Cultural - Salas de Uso ":0,"Educacional / Cultural - Salas de COWORKING":null}},
{"type":"Feature","geometry":{"type":"Polygon","coordinates":[[[-46.76019042254363,-23.61954450458614],[-46.76037332986727,-23.619834711510347],[-46.759887064055654,-23.620791163583437],[-46.76038671332997,-23.620901522988714],[-46.759766612891326,-23.62153097856014],[-46.75951678825416,-23.621244862766208],[-46.759463254403336,-23.621179464782738],[-46.75942756516946,-23.621142678402677],[-46.75926696361701,-23.621265299629364],[-46.75878962011387,-23.621142678402677],[-46.7586914747207,-23.62135113441976],[-46.75860671279024,-23.621326610199667],[-46.75869593587494,-23.621105892012284],[-46.75776801579408,-23.62079933835738],[-46.758013379276996,-23.619912372409217],[-46.76019042254363,-23.61954450458614]]]},"properties":{"nm_equipamento":"CEU Pirajuçara","Esportivo - Piscinas Semiolímpicas":1,"Esportivo - Salas de Ginásticas":1,"Esportivo - Salas Esportivas Multiuso":8,"Esportivo - Salas de Dança":2,"Esportivo - Salas de Artes Marciais":2,"Esportivo - Quadras Cobertas":2,"Esportivo - Quadra Descoberta":0,"Esportivo - Piscinas Descobertas":1,"Esportivo - Playground":1,"Esportivo - Pistas de Corrida":0,"Educacional / Cultural - Bibliotecas":1,"Educacional / Cultural - Cineteatros":1,"Educacional / Cultural - Cozinhas Experimentais":1,"Educacional / Cultural - Salas De Circo":1,"Educacional / Cultural - Salas de Audiovisual":1,"Educacional / Cultural - Estúdios de Gravação":2,"Educacional / Cultural - Salas de Acesso Digital":2,"Educacional / Cultural - Salas de Música":2,"Educacional / Cultural - Salas de Artes":2,"Educacional / Cultural - Salas de Artes Cênicas":2,"Educacional / Cultural - EMEF":1,"Educacional / Cultural - Salas de Contraturno":1,"Educacional / Cultural - UniCEU":1,"Esportivo - Pistas de Skates":1,"Educacional / Cultural - Salas de Uso Múltiplo":0,"Educacional / Cultural - Salas de COWORKING":1}},
{"type":"Feature","geometry":{"type":"Polygon","coordinates":[[[-46.757207840213674,-23.720700622724728],[-46.75711102163611,-23.72166883066191],[-46.75740147736878,-23.721852925723844],[-46.757781304096106,-23.722500665542213],[-46.75686525140079,-23.72252793872712],[-46.75650031983924,-23.721832470729794],[-46.75603112211725,-23.721021086711175],[-46.75658224325102,-23.72074153306472],[-46.757207840213674,-23.720700622724728]]]},"properties":{"nm_equipamento":"CEU Vila Gilda","Esportivo - Piscinas Semiolímpicas":1,"Esportivo - Salas de Ginásticas":2,"Esportivo - Salas Esportivas Multiuso":7,"Esportivo - Salas de Dança":2,"Esportivo - Salas de Artes Marciais":1,"Esportivo - Quadras Cobertas":1,"Esportivo - Quadra Descoberta":0,"Esportivo - Piscinas Descobertas":3,"Esportivo - Playground":1,"Esportivo - Pistas de Corrida":1,"Educacional / Cultural - Bibliotecas":1,"Educacional / Cultural - Cineteatros":1,"Educacional / Cultural - Cozinhas Experimentais":3,"Educacional / Cultural - Salas De Circo":2,"Educacional / Cultural - Salas de Audiovisual":1,"Educacional / Cultural - Estúdios de Gravação":2,"Educacional / Cultural - Salas de Acesso Digital":2,"Educacional / Cultural - Salas de Música":2,"Educacional / Cultural - Salas de Artes":2,"Educacional / Cultural - Salas de Artes Cênicas":2,"Educacional / Cultural - EMEF":1,"Educacional / Cultural - Salas de Contraturno":1,"Educacional / Cultural - UniCEU":1,"Esportivo - Pistas de Skates":1,"Educacional / Cultural - Salas de Uso Múltiplo":4,"Educacional / Cultural - Salas de COWORKING":0}}
]}
