{"type":"FeatureCollection","features":[
{"type":"Feature","geometry":{"type":"MultiPolygon","coordinates":[[[[332551.3693,7394715.738],[332551.9598,7394716.2394],[332552.8166,7394716.3983],[332574.0869,7394714.5749],[332589.8708,7394713.7135],[332599.2526,7394714.0056],[332615.5858,7394715.7682],[332623.7871,7394717.3004],[332632.391,7394719.1323],[332641.1386,7394721.3803],[332648.8148,7394723.7066],[332656.2535,7394726.7017],[332663.3297,7394729.6674],[332657.3847,7394739.0561],[332649.7578,7394735.9326],[332640.7139,7394732.883],[332631.7379,7394730.3982],[332624.7171,7394728.8668],[332613.6678,7394726.9076],[332605.3336,7394725.8661],[332595.4815,7394725.4262],[332585.7989,7394725.4241],[332574.2977,7394725.8548],[332559.2872,7394726.8788],[332558.5306,7394727.1991],[332558.159,7394727.741],[332558.0627,7394728.1886],[332558.1512,7394728.8301],[332558.5306,7394729.4649],[332559.4884,7394738.3177],[332567.5073,7394739.2231],[332576.5608,7394741.0338],[332595.9614,7394745.8839],[332614.1979,7394750.4754],[332647.1788,7394761.275],[332646.4027,7394768.3885],[332655.4563,7394770.7166],[332669.8127,7394800.076],[332692.188,7394820.7699],[332695.8663,7394824.2607],[332695.2537,7394824.9652],[332685.5751,7394836.2365],[332691.412,7394842.1105],[332705.4642,7394824.1275],[332695.4243,7394815.8978],[332687.5147,7394808.7748],[332674.6952,7394797.457],[332662.1495,7394771.2016],[332674.5658,7394769.7789],[332681.6794,7394766.1575],[332687.7582,7394762.148],[332692.2096,7394753.392],[332693.8869,7394750.155],[332695.5022,7394746.5629],[332698.5888,7394747.2131],[332701.4178,7394739.5065],[332707.7826,7394723.9885],[332712.3225,7394712.2175],[332714.1661,7394708.1791],[332716.1016,7394702.4633],[332716.8943,7394699.0575],[332717.1603,7394697.2779],[332717.318,7394695.5502],[332717.4096,7394693.5205],[332717.3842,7394689.0141],[332717.1685,7394686.3463],[332716.0009,7394679.8495],[332714.8333,7394673.3528],[332713.8876,7394668.8592],[332711.5683,7394657.8385],[332710.4864,7394652.3054],[332709.3619,7394646.5549],[332708.133,7394643.1731],[332706.4959,7394636.1739],[332700.5464,7394635.9152],[332696.4402,7394628.9401],[332695.1789,7394626.603],[332691.1371,7394621.2032],[332687.742,7394616.4501],[332682.3099,7394618.6488],[332676.6191,7394612.5053],[332668.1133,7394607.7965],[332659.6392,7394605.873],[332653.0152,7394605.4835],[332644.7834,7394605.2576],[332637.9389,7394605.7506],[332633.0776,7394606.4749],[332627.4886,7394607.728],[332622.53,7394609.6068],[332617.2694,7394612.1881],[332610.8975,7394616.0792],[332605.883,7394619.4642],[332602.8582,7394622.1084],[332600.4801,7394624.6921],[332594.6216,7394632],[332588.4771,7394643.892],[332586.7221,7394647.312],[332585.2598,7394650.1614],[332584.3505,7394651.9335],[332574.7022,7394670.3793],[332571.09,7394678.5178],[332568.4968,7394683.6473],[332565.7263,7394688.936],[332559.7302,7394700.7581],[332554.4853,7394710.3943],[332552.1896,7394713.3786],[332551.5243,7394714.4324],[332551.2793,7394715.3129],[332551.3693,7394715.738]]]]},"properties":{"Equipamento":"Terminal Bandeira","Modalidade da Concessão":"Parceria público-privada (PPP)","Concessionária":"SPE SÃO PAULO SUL S.A.","Investimento":57124000,"Prazo da Concessão":30,"Poder Concedente":"Secretaria Municipal de Mobilidade e Trânsito","Área":18678.36}},
{"type":"Feature","geometry":{"type":"MultiPolygon","coordinates":[[[[326998.2877,7387544.7663],[326999.079,7387546.3488],[327000.4287,7387546.3488],[327115.8581,7387514.6057],[327112.7777,7387504.033],[327106.9216,7387485.2829],[327054.0941,7387499.3392],[326999.5108,7387514.7036],[326989.8793,7387517.0558],[326998.2877,7387544.7663]]],[[[326956.6686,7387517.7969],[326957.5762,7387517.7736],[326957.9718,7387518.3554],[326970.562,7387557.6968],[326973.1335,7387556.7427],[326962.9942,7387522.6554],[326960.1795,7387514.2965],[326959.2412,7387513.5289],[326948.2382,7387515.4907],[326880.0877,7387529.9055],[326875.4914,7387532.9285],[326871.5584,7387535.6456],[326869.3053,7387537.5781],[326865.6516,7387542.0231],[326864.4414,7387544.1292],[326863.3902,7387547.7738],[326863.1266,7387551.7392],[326863.0933,7387555.0226],[326863.3434,7387556.3654],[326864.5134,7387559.8354],[326866.1519,7387563.6545],[326868.478,7387567.6365],[326870.4358,7387570.5717],[326872.2714,7387572.6022],[326878.9283,7387578.8977],[326882.07,7387581.5972],[326888.2503,7387586.2884],[326891.1826,7387587.9408],[326894.5105,7387589.244],[326896.8377,7387589.3836],[326905.505,7387586.4029],[326965.7531,7387564.5257],[326967.9206,7387563.957],[326973.6455,7387562.0952],[326974.4368,7387560.792],[326973.136,7387556.7513],[326970.5647,7387557.7054],[326969.7358,7387559.256],[326962.9869,7387560.7455],[326956.4475,7387559.6284],[326909.9965,7387575.7327],[326905.6213,7387577.5013],[326902.0723,7387582.9703],[326900.8405,7387584.4965],[326898.3387,7387585.4041],[326895.6508,7387586.1604],[326893.6261,7387585.9161],[326891.392,7387584.9852],[326889.1579,7387583.5889],[326885.7369,7387581.3315],[326881.6976,7387578.0599],[326874.9953,7387572.0091],[326872.8881,7387569.8794],[326871.2718,7387567.9132],[326869.0857,7387564.148],[326867.3985,7387560.6514],[326866.1767,7387557.1606],[326865.6182,7387554.1934],[326865.733,7387551.7159],[326865.8396,7387549.2051],[326866.3381,7387546.7822],[326867.1486,7387544.475],[326868.5722,7387542.314],[326872.063,7387538.3577],[326877.4621,7387534.8437],[326880.6752,7387533.0856],[326883.8736,7387532.4816],[326890.6997,7387533.4056],[326938.7956,7387524.22],[326947.639,7387518.7743],[326956.6686,7387517.7969]]]]},"properties":{"Equipamento":"Terminal Água Espraiada","Modalidade da Concessão":"Parceria público-privada (PPP)","Concessionária":"SPE SÃO PAULO SUL S.A.","Investimento":3990000,"Prazo da Concessão":30,"Poder Concedente":"Secretaria Municipal de Mobilidade e Trânsito","Área":5092.65}},
{"type":"Feature","geometry":{"type":"MultiPolygon","coordinates":[[[[320142.1462,7382948.1981],[320148.8862,7382955.4581],[320222.8163,7383037.5182],[320258.7963,7383012.9982],[320298.7464,7382985.3882],[320376.2065,7382931.9081],[320397.6665,7382916.9081],[320411.6765,7382906.4881],[320427.8965,7382894.1581],[320417.2485,7382882.9885],[320404.9233,7382872.2513],[320396.254,7382865.6584],[320325.4283,7382816.8587],[320319.924,7382821.8697],[320292.2264,7382842.128],[320251.4763,7382870.368],[320226.7863,7382886.968],[320175.8262,7382923.3481],[320164.9062,7382930.4981],[320147.6262,7382943.7381],[320142.1462,7382948.1981]]]]},"properties":{"Equipamento":"Terminal Capelinha","Modalidade da Concessão":"Parceria público-privada (PPP)","Concessionária":"SPE SÃO PAULO SUL S.A.","Investimento":16206000,"Prazo da Concessão":30,"Poder Concedente":"Secretaria Municipal de Mobilidade e Trânsito","Área":29201.94}},
{"type":"Feature","geometry":{"type":"MultiPolygon","coordinates":[[[[326820.8066,7373630.9668],[327095.0542,7374001.1737],[327103.2148,7373995.2253],[327131.3079,7374032.7337],[327150.0296,7374059.7379],[327168.227,7374046.4143],[327170.176,7374043.0899],[327170.1201,7374039.3419],[327169.3095,7374035.6848],[327167.8996,7374031.7208],[327165.8006,7374026.5495],[327164.1903,7374022.5331],[327162.5705,7374019.3161],[327159.712,7374014.6353],[327155.266,7374008.2368],[327147.0141,7373996.5468],[327142.2697,7373989.8949],[327137.9733,7373983.5981],[327134.147,7373977.7187],[327128.797,7373970.0287],[327116.6164,7373954.2643],[327088.4094,7373917.9039],[327053.117,7373872.2286],[327023.0875,7373832.5793],[326994.6595,7373794.9237],[326957.7875,7373743.6707],[326944.2522,7373724.2232],[326920.6568,7373690.6683],[326892.7738,7373653.3013],[326856.3026,7373603.8109],[326820.8066,7373630.9668]]]]},"properties":{"Equipamento":"Terminal Grajau","Modalidade da Concessão":"Parceria público-privada (PPP)","Concessionária":"SPE SÃO PAULO SUL S.A.","Investimento":17302000,"Prazo da Concessão":30,"Poder Concedente":"Secretaria Municipal de Mobilidade e Trânsito","Área":22803.78}},
{"type":"Feature","geometry":{"type":"MultiPolygon","coordinates":[[[[322982.5218,7381428.5781],[322989.2895,7381506.0997],[323011.4385,7381526.4909],[323020.7552,7381530.0066],[323043.4316,7381533.8739],[323053.803,7381534.9286],[323076.6551,7381535.2802],[323077.3583,7381533.1708],[323068.2174,7381487.4664],[323068.2174,7381487.4664],[323056.6155,7381415.0426],[323050.2872,7381361.2521],[323048.3536,7381346.1345],[323048.7931,7381334.1811],[323052.133,7381329.347],[323056.3402,7381328.9868],[322990.0806,7381305.9674],[323000.8035,7381413.4605],[322982.5218,7381428.5781]]]]},"properties":{"Equipamento":"Terminal Guarapiranga","Modalidade da Concessão":"Parceria público-privada (PPP)","Concessionária":"SPE SÃO PAULO SUL S.A.","Investimento":6861000,"Prazo da Concessão":30,"Poder Concedente":"Secretaria Municipal de Mobilidade e Trânsito","Área":14455.42}},
{"type":"Feature","geometry":{"type":"MultiPolygon","coordinates":[[[[319046.4711,7378861.0384],[319059.3458,7378876.2128],[319073.7359,7378889.6428],[319094.9459,7378913.1328],[319112.9391,7378933.548],[319122.1659,7378943.7329],[319140.3094,7378966.1077],[319153.475,7378983.1912],[319163.4083,7378960.3445],[319173.586,7378937.0929],[319157.3549,7378919.0447],[319135.9159,7378894.9128],[319080.7259,7378833.5027],[319051.6058,7378861.5227],[319046.4711,7378861.0384]]]]},"properties":{"Equipamento":"Terminal Jardim Ângela","Modalidade da Concessão":"Parceria público-privada (PPP)","Concessionária":"SPE SÃO PAULO SUL S.A.","Investimento":3636000,"Prazo da Concessão":30,"Poder Concedente":"Secretaria Municipal de Mobilidade e Trânsito","Área":6441.67}},
{"type":"Feature","geometry":{"type":"MultiPolygon","coordinates":[[[[323027.2263,7384169.0702],[323023.6227,7384175.6622],[323020.898,7384181.1995],[323018.3491,7384188.4946],[323026.4353,7384188.6704],[323045.9395,7384183.8903],[323047.2822,7384183.6216],[323060.7095,7384180.8003],[323074.2895,7384178.2603],[323091.0695,7384174.9103],[323125.9462,7384167.911],[323141.2796,7384164.9103],[323175.4796,7384158.5003],[323202.0197,7384153.3703],[323228.3297,7384148.4603],[323244.6736,7384144.7239],[323246.5193,7384131.452],[323246.1677,7384125.2995],[323244.5857,7384119.3228],[323241.9489,7384112.1156],[323234.3901,7384106.6662],[323228.309,7384103.6998],[323225.2327,7384102.6012],[323222.7278,7384101.9859],[323219.3878,7384101.5465],[323212.4443,7384100.8873],[323202.7321,7384101.0191],[323191.8334,7384101.4586],[323191.1197,7384097.5503],[323183.3517,7384096.9321],[323175.8808,7384097.1958],[323169.2449,7384098.2944],[323161.9498,7384099.6128],[323155.0941,7384101.898],[323151.7542,7384104.7985],[323134.8787,7384101.6344],[323138.2187,7384099.437],[323136.9003,7384097.2397],[323132.7196,7384097.1602],[323127.8796,7384097.6102],[323123.6618,7384098.13],[323112.9557,7384100.529],[323110.8296,7384100.9702],[323107.7196,7384101.8102],[323104.7296,7384102.7502],[323100.4796,7384104.3202],[323094.0896,7384106.7502],[323095.2115,7384108.8636],[323099.782,7384109.7425],[323102.7703,7384111.8519],[323105.2918,7384115.917],[323092.778,7384119.0372],[323090.0533,7384119.0372],[323082.3352,7384121.4322],[323079.4128,7384121.6959],[323078.7096,7384121.2125],[323077.7263,7384120.7071],[323065.8113,7384124.4206],[323061.7683,7384126.3543],[323059.6588,7384127.9363],[323059.3073,7384130.3973],[323053.8579,7384133.0341],[323050.6937,7384136.1983],[323042.6195,7384146.6203],[323038.8595,7384152.7003],[323032.3241,7384161.3357],[323027.2263,7384169.0702]]]]},"properties":{"Equipamento":"Terminal João Dias","Modalidade da Concessão":"Parceria público-privada (PPP)","Concessionária":"SPE SÃO PAULO SUL S.A.","Investimento":7323000,"Prazo da Concessão":30,"Poder Concedente":"Secretaria Municipal de Mobilidade e Trânsito","Área":11946.16}},
{"type":"Feature","geometry":{"type":"MultiPolygon","coordinates":[[[[324068.6736,7363735.3274],[324070.2336,7363735.7914],[324072.0736,7363736.1274],[324073.6736,7363736.0634],[324075.6656,7363735.6794],[324116.8177,7363724.2314],[324118.9777,7363723.2954],[324119.8177,7363722.6874],[324119.8177,7363722.6874],[324121.7697,7363720.9034],[324122.4497,7363720.0394],[324122.7377,7363719.0394],[324122.5697,7363717.9114],[324122.5697,7363717.9114],[324119.9057,7363705.7914],[324119.9057,7363705.7914],[324113.7297,7363685.5353],[324113.3017,7363686.2113],[324112.7817,7363686.7913],[324111.8937,7363687.3313],[324105.1627,7363689.1553],[324082.9936,7363694.9673],[324065.4456,7363699.7633],[324064.9176,7363699.8033],[324064.4856,7363699.7393],[324064.0656,7363699.5753],[324063.6616,7363699.3433],[324063.2296,7363698.9593],[324062.8816,7363698.5113],[324066.6096,7363732.9674],[324066.8576,7363733.9114],[324067.5296,7363734.6954],[324068.6736,7363735.3274]]]]},"properties":{"Equipamento":"Terminal Paralheiros","Modalidade da Concessão":"Parceria público-privada (PPP)","Concessionária":"SPE SÃO PAULO SUL S.A.","Investimento":2090000,"Prazo da Concessão":30,"Poder Concedente":"Secretaria Municipal de Mobilidade e Trânsito","Área":2065.86}},
{"type":"Feature","geometry":{"type":"MultiPolygon","coordinates":[[[[325348.0109,7382970.9496],[325302.0726,7382964.6893],[325292.6726,7382963.4493],[325287.5725,7382962.7093],[325286.2825,7382962.6193],[325283.3225,7382962.4393],[325280.1025,7382962.4093],[325275.8325,7382962.1893],[325268.8525,7382961.5093],[325261.9025,7382961.2093],[325256.7025,7382960.8893],[325250.0925,7382960.3793],[325247.2925,7382960.1293],[325244.2025,7382959.6793],[325241.2525,7382959.0693],[325185.3124,7382949.2493],[325132.7724,7382940.2093],[325108.1523,7382936.4193],[325074.6223,7382930.9192],[325063.9123,7382928.9592],[324984.3372,7382917.2399],[324965.4751,7382917.6932],[324959.8077,7382913.4651],[324951.3965,7382912.2957],[324945.8191,7382921.9213],[324938.3778,7382935.6032],[324938.236,7382936.6428],[324939.0866,7382937.3517],[324971.0318,7382945.1017],[325040.5455,7382961.7358],[325088.7467,7382973.5499],[325117.5257,7382980.6855],[325126.7196,7382983.2464],[325133.5124,7382984.8793],[325147.4024,7382987.6693],[325147.8224,7382987.6193],[325157.7224,7382989.6193],[325166.0224,7382990.9693],[325174.2224,7382992.2193],[325187.3189,7382994.141],[325235.7625,7383001.2494],[325238.8825,7383001.5494],[325239.4325,7383001.4894],[325239.8925,7383001.2994],[325241.441,7382994.3456],[325255.9125,7383000.2094],[325258.3525,7383000.8994],[325260.2025,7383001.1894],[325263.8125,7383001.1894],[325275.7525,7383004.7194],[325278.7425,7383005.5294],[325282.3425,7383006.5994],[325284.1425,7383007.4794],[325303.2426,7383012.7494],[325321.9326,7383020.0694],[325329.6826,7383023.0394],[325337.0526,7383025.7494],[325340.8426,7383026.9694],[325344.3526,7383027.7794],[325348.3426,7383028.3894],[325373.1626,7383031.8694],[325419.2527,7383038.7695],[325427.0527,7383039.9395],[325436.0576,7383042.0562],[325463.5517,7383045.9021],[325479.3502,7383048.085],[325480.4074,7383048.2381],[325486.7328,7383048.5195],[325490.5828,7383048.4095],[325495.0628,7383047.9595],[325499.2028,7383047.4495],[325503.8528,7383046.6395],[325511.5028,7383044.8295],[325516.4328,7383043.5495],[325521.3628,7383042.4295],[325523.4228,7383042.1195],[325526.4228,7383041.5295],[325529.3528,7383041.1595],[325532.1828,7383040.8795],[325536.7428,7383040.5995],[325550.4229,7383040.0195],[325590.8429,7383038.5795],[325612.5929,7383037.7295],[325616.4629,7383037.3595],[325617.8429,7383036.8795],[325619.3329,7383036.0795],[325620.4929,7383035.1495],[325621.4529,7383033.8895],[325622.0329,7383032.9995],[325622.2529,7383032.0195],[325622.2829,7383031.1595],[325622.1529,7383030.0895],[325621.7729,7383029.0495],[325621.4129,7383028.3895],[325620.8629,7383027.7795],[325620.1529,7383027.1695],[325619.4129,7383026.6495],[325609.4029,7383016.3095],[325607.0529,7383014.3995],[325597.4929,7383003.0695],[325597.0729,7383002.8495],[325596.4329,7383002.6395],[325586.7129,7383001.1595],[325558.2229,7382996.8294],[325538.8226,7382993.8995],[325538.9029,7382993.3594],[325494.4528,7382986.8794],[325494.3958,7382986.7973],[325491.8145,7382986.5605],[325432.375,7382977.7181],[325348.9719,7382965.5689],[325348.0109,7382970.9496]]]]},"properties":{"Equipamento":"Terminal Santo Amaro","Modalidade da Concessão":"Parceria público-privada (PPP)","Concessionária":"SPE SÃO PAULO SUL S.A.","Investimento":11421600,"Prazo da Concessão":30,"Poder Concedente":"Secretaria Municipal de Mobilidade e Trânsito","Área":31069.8}},
{"type":"Feature","geometry":{"type":"MultiPolygon","coordinates":[[[[325127.0494,7370596.1726],[325136.4538,7370594.6464],[325138.5681,7370574.9132],[325121.0372,7370427.4429],[325121.0372,7370416.5192],[325121.0372,7370416.5192],[325126.6753,7370405.5955],[325134.78,7370394.6718],[325216.8841,7370325.6056],[325222.8745,7370309.7486],[325248.2457,7370278.0346],[325233.6661,7370262.6621],[325203.0092,7370298.5166],[325202.9211,7370302.4808],[325187.3657,7370317.5816],[325185.5796,7370317.4442],[325182.8317,7370317.8106],[325169.7792,7370329.0312],[325165.291,7370333.8858],[325154.9536,7370343.9734],[325149.1614,7370352.7608],[325097.7843,7370400.6139],[325089.1742,7370405.9723],[325079.2818,7370412.8421],[325069.9975,7370421.9921],[325071.0381,7370426.0778],[325069.3893,7370444.1223],[325067.3742,7370442.382],[325064.1683,7370441.0996],[325060.2297,7370441.6492],[325054.3675,7370444.2139],[325049.6045,7370448.7021],[325046.8566,7370454.6559],[325042.4652,7370470.7638],[325041.2852,7370476.1338],[325039.6652,7370487.9939],[325057.0366,7370490.6618],[325061.7937,7370491.5427],[325068.4888,7370545.9851],[325075.3602,7370545.9851],[325075.3602,7370545.9851],[325081.3507,7370580.342],[325081.3507,7370580.342],[325089.3452,7370582.9408],[325090.9309,7370583.7777],[325094.5869,7370586.1562],[325098.2868,7370589.2836],[325102.163,7370592.6312],[325103.6922,7370593.6079],[325106.0391,7370595.1859],[325108.1094,7370596.155],[325110.3117,7370596.7276],[325112.9105,7370597.2121],[325117.051,7370596.9038],[325127.0494,7370596.1726]]]]},"properties":{"Equipamento":"Terminal Varginha","Modalidade da Concessão":"Parceria público-privada (PPP)","Concessionária":"SPE SÃO PAULO SUL S.A.","Investimento":8118000,"Prazo da Concessão":30,"Poder Concedente":"Secretaria Municipal de Mobilidade e Trânsito","Área":16516.0}}
]}
