{"type":"FeatureCollection", "features": [
{"type":"Feature","geometry":{"type":"Polygon","coordinates":[[[-46.47626357084429,-23.517247259826807],[-46.47539461460589,-23.520939786288547],[-46.473988966002636,-23.52076793827221],[-46.47440239206242,-23.519180860695197],[-46.475745973833654,-23.517015397247047],[-46.47626357084429,-23.517247259826807]]]},"properties":{"Equipamento":"Term A.E Carvalho","Modalidade de Concessão":"Parceria Público Privada (PPP)","Prazo de Concessão":"30 anos","Concessionária":"Concessionária Terminais Bloco Leste SPE S.A","Poder Concedente":"SP Trans","Área":" 10.936 m²"}},
{"type":"Feature","geometry":{"type":"Polygon","coordinates":[[[-46.55465850891588,-23.5272811184557],[-46.55480887078632,-23.527347137007425],[-46.554760162011384,-23.527413155526045],[-46.55493170161006,-23.52754519246391],[-46.55424554321538,-23.528547115499226],[-46.55394270170168,-23.528430613212635],[-46.55465850891588,-23.5272811184557]]]},"properties":{"Equipamento":"Term Aricanduva","Modalidade de Concessão":"Parceria Público Privada (PPP)","Prazo de Concessão":"30 anos","Concessionária":"Concessionária Terminais Bloco Leste SPE S.A","Poder Concedente":"SP Trans","Área":"6.213 m²"}},
{"type":"Feature","geometry":{"type":"Polygon","coordinates":[[[-46.40885295271434,-23.58291668706476],[-46.408773062101616,-23.583239708636697],[-46.40859448308495,-23.583459362851517],[-46.407203446534076,-23.583735006836292],[-46.4068838840832,-23.5836230265373],[-46.406550223288896,-23.583287085067067],[-46.40692617911346,-23.58294252881976],[-46.40752770843275,-23.582731487671605],[-46.40743841892442,-23.58251613921145],[-46.408162133886705,-23.582434306703956],[-46.40885295271434,-23.58291668706476]]]},"properties":{"Equipamento":"Term Cidade Tiradentes","Modalidade de Concessão":"Parceria Público Privada (PPP(","Prazo de Concessão":"30 anos","Concessionária":"Concessionária Terminais Bloco Leste SPE S.A","Poder Concedente":"SP Trans","Área":"19.172 m² "}},
{"type":"Feature","geometry":{"type":"Polygon","coordinates":[[[-46.46988976746057,-23.541258072458376],[-46.472708246416765,-23.541709803250296],[-46.47269839159524,-23.542062152190812],[-46.47200855408848,-23.54193566806437],[-46.47185087694408,-23.542676501931638],[-46.470362798893774,-23.542432569289858],[-46.47046134710903,-23.54179111462805],[-46.469781364423795,-23.54161042260921],[-46.46988976746057,-23.541258072458376]]]},"properties":{"Equipamento":"Term Itaquera II","Modalidade de Concessão":"Parceria Público Privada (PPP)","Prazo de Concessão":"30 anos","Concessionária":"Concessionária Terminais Bloco Leste SPE S.A","Poder Concedente":"SP Trans","Área":" 18.060 m²"}},
{"type":"Feature","geometry":{"type":"Polygon","coordinates":[[[-46.54704989059141,-23.51850461610441],[-46.547272363418124,-23.51894790628675],[-46.54681244363213,-23.51918328099814],[-46.546534352598734,-23.51867134046315],[-46.54704989059141,-23.51850461610441]]]},"properties":{"Equipamento":"Term Penha","Modalidade de Concessão":"Parceria Público Privada (PPP)","Prazo de Concessão":"30 anos","Concessionária":"Concessionária Terminais Bloco Leste SPE S.A","Poder Concedente":"SP Trans","Área":"4.206 m²"}},
{"type":"Feature","geometry":{"type":"Polygon","coordinates":[[[-46.60293031993292,-23.602554322679413],[-46.603240522776,-23.602967780627132],[-46.602334085896864,-23.603517825340298],[-46.60201179722873,-23.603122827021416],[-46.60293031993292,-23.602554322679413]]]},"properties":{"Equipamento":"Term Sacomã","Modalidade de Concessão":"Parceria Público Privada","Prazo de Concessão":"30 anos","Concessionária":"Concessionária Terminais Bloco Leste SPE S.A","Poder Concedente":"SP Trans","Área":"16.345 m² "}},
{"type":"Feature","geometry":{"type":"Polygon","coordinates":[[[-46.43429687191815,-23.491538002987127],[-46.43534464722797,-23.491418671185684],[-46.43537204004652,-23.49162802515183],[-46.43521224860494,-23.491640586379223],[-46.43523507595374,-23.491843659389364],[-46.43515518023295,-23.491849939992935],[-46.434780811712656,-23.492000674388933],[-46.43436307122966,-23.492038357961004],[-46.43429687191815,-23.491538002987127]]]},"properties":{"Equipamento":"Term São Miguel ","Modalidade de Concessão":"Parceria Público Privada (PPP)","Prazo de Concessão":"30 anos","Concessionária":"Concessionária Terminais Bloco Leste SPE S.A","Poder Concedente":"SP Trans","Área":"8.242 m²"}},
{"type":"Feature","geometry":{"type":"Polygon","coordinates":[[[-46.50157649137871,-23.61398078909071],[-46.50162924778082,-23.614531850770422],[-46.50026813260621,-23.614338496058963],[-46.500283959526854,-23.6137680979981],[-46.50157649137871,-23.61398078909071]]]},"properties":{"Equipamento":"Term Sapopemba","Modalidade de Concessão":"Parceria Público Privada (PPP)","Prazo de Concessão":"30 anos","Concessionária":"Concessionária Terminais Bloco Leste SPE S.A","Poder Concedente":"SP Trans","Área":"8.235 m²"}},
{"type":"Feature","geometry":{"type":"Polygon","coordinates":[[[-46.523085178831174,-23.55796856144649],[-46.52329323891372,-23.55830564674666],[-46.52251906186238,-23.55882014369559],[-46.52224809989441,-23.55837661196283],[-46.523085178831174,-23.55796856144649]]]},"properties":{"Equipamento":"Term Vila Carrão","Modalidade de Concessão":"Parceria Público Privada (PPP)","Prazo de Concessão":"30 anos","Concessionária":"Concessionária Terminais Bloco Leste SPE S.A","Poder Concedente":"SP Trans","Área":"11.262 m²"}},
{"type":"Feature","geometry":{"type":"Polygon","coordinates":[[[-46.58272484703505,-23.584099949002173],[-46.58296096487223,-23.58456580026675],[-46.583341376943245,-23.584397492903882],[-46.58323643568228,-23.584163064431632],[-46.58362996541091,-23.584015795049023],[-46.58367259779818,-23.584090932509763],[-46.583390568159324,-23.584184102901364],[-46.58345943586184,-23.58434339406283],[-46.58383656851844,-23.584244212796342],[-46.58406612752681,-23.584280278720097],[-46.5841218775717,-23.58439448741329],[-46.584013656896325,-23.584610882559442],[-46.58368571545579,-23.584782195130412],[-46.583764421401526,-23.58498055677534],[-46.583321700456814,-23.58513984697012],[-46.58329218572716,-23.585076732010403],[-46.583610288924476,-23.58495651295556],[-46.5835610977084,-23.58483328831004],[-46.582898655998534,-23.585058699159195],[-46.58266909699016,-23.585001595114033],[-46.58260350870206,-23.584905419823894],[-46.58266909699016,-23.58474312386198],[-46.58281339122399,-23.584613888045055],[-46.58271172937743,-23.584424542316043],[-46.58239362618012,-23.584574816726523],[-46.58224277311748,-23.584193119387372],[-46.582518243927524,-23.584075905021063],[-46.582564155729195,-23.584166069927516],[-46.58272484703505,-23.584099949002173]]]},"properties":{"Equipamento":"Term Vila Prudente","Modalidade de Concessão":"Parceria Público Privada (PPP)","Prazo de Concessão":"30 anos","Concessionária":"Concessionária Terminais Bloco Leste SPE S.A","Poder Concedente":"SP Trans","Área":"14.822 m² "}}
]}
