{"type":"FeatureCollection", "features": [
{"type":"Feature","geometry":{"type":"Polygon","coordinates":[[[-46.700475035014264,-23.650700085807845],[-46.70006796456463,-23.650927723608856],[-46.70004209530296,-23.650920873664077],[-46.69988313537035,-23.65068865022682],[-46.699833875235626,-23.650616408793702],[-46.69953677872424,-23.650178192552644],[-46.699439851189695,-23.65003522432881],[-46.699361586277895,-23.649925826281827],[-46.699342394880226,-23.64990472591842],[-46.69926629336868,-23.649795845895397],[-46.69975644590903,-23.649500870142415],[-46.69982441544611,-23.649596850365825],[-46.69985964717091,-23.649646588539316],[-46.699893917308856,-23.649694961982213],[-46.69995819510851,-23.649785758776382],[-46.69996782144016,-23.64979951061479],[-46.700023917919566,-23.64988133641754],[-46.700062154626664,-23.649936942672483],[-46.70008949478114,-23.649976990574945],[-46.70021963699839,-23.65016851215678],[-46.70028664930476,-23.65026712855676],[-46.70078566981472,-23.64996953384777],[-46.70084199398042,-23.65004223925555],[-46.70075435269234,-23.6500947621141],[-46.70070356736068,-23.65012519413727],[-46.70065727546873,-23.65015289674485],[-46.70055668379365,-23.65021321720593],[-46.700455729114665,-23.650273672522623],[-46.700358555942714,-23.650331988629375],[-46.700261477379115,-23.65039012304129],[-46.70033719923074,-23.650500026163026],[-46.700350276110704,-23.65051900730821],[-46.700475035014264,-23.650700085807845]]]},"properties":{"Equipamento":"Mercado de Santo Amaro","Modalidade da Concessão":"Concessão","Concessionária":"MERCADO DE SANTO AMARO CONCESSIONARIA FENIX S.A.","Investimento":21342000,"Prazo da Concessão":25,"Poder Concedente":"São Paulo Regula","Área":9205.65}}
]}
