{"type":"FeatureCollection", "features": [
{"type":"Feature","geometry":{"type":"MultiPolygon","coordinates":[[[[-46.634889368519005,-23.54256618542349],[-46.63488430771155,-23.54254536326726],[-46.63490248689751,-23.542517338991654],[-46.63492574936534,-23.54251203389945],[-46.634952520687264,-23.54251301764809],[-46.63499258659819,-23.542528434748114],[-46.635058718874944,-23.54255618142436],[-46.635108084617585,-23.542608799490935],[-46.63522079598756,-23.54273476394736],[-46.63539753303648,-23.542989100843556],[-46.635457051236656,-23.54308589301549],[-46.635581913618786,-23.54330661617686],[-46.63560750082716,-23.543322793995458],[-46.635638419817944,-23.54332626429227],[-46.63568554539959,-23.5433086888101],[-46.6357006779787,-23.543269869156912],[-46.63567413631298,-23.54320243277146],[-46.63549574173524,-23.542882661145594],[-46.63538455044233,-23.54274310296652],[-46.63539805739577,-23.54273178144111],[-46.635505111447216,-23.542866513975476],[-46.63559399174924,-23.54300727832893],[-46.63568231091507,-23.543158168777722],[-46.635754108784475,-23.54328454317435],[-46.6357678939844,-23.54330972096325],[-46.63576974342215,-23.54334828888199],[-46.63575241519088,-23.54338958877619],[-46.63573145282226,-23.54341448000451],[-46.635643711896456,-23.54347676359006],[-46.63561910069593,-23.543483980244364],[-46.63552446018412,-23.54354317300761],[-46.635423410049704,-23.543583455937345],[-46.63538221660029,-23.54358135877473],[-46.63534711874784,-23.543572871786605],[-46.63532019072963,-23.543559237410474],[-46.635127750059866,-23.543255723995454],[-46.63503540021252,-23.543085770169885],[-46.63505860567821,-23.543063810165847],[-46.63525899231009,-23.543382125700393],[-46.6353154140432,-23.54344887144773],[-46.635332698769,-23.543461055810056],[-46.635358066916666,-23.543459523942865],[-46.635396700697534,-23.543452177951846],[-46.63541974574329,-23.543439895547287],[-46.63543155724575,-23.543410042705464],[-46.6351352298894,-23.542972881361717],[-46.635039317691394,-23.54281827494634],[-46.634889368519005,-23.54256618542349]]],[[[-46.63776542565899,-23.54767575012872],[-46.637435309165106,-23.54732867043812],[-46.637124425164615,-23.54697226961559],[-46.637058995049976,-23.547011557439436],[-46.63682497461941,-23.54659095056613],[-46.636506660751785,-23.54674320990725],[-46.63639846198781,-23.546546429667387],[-46.6367162147984,-23.546397930357248],[-46.63648828865108,-23.54599342655069],[-46.63646088932991,-23.54600736323715],[-46.63628654397165,-23.54601948402706],[-46.63628717557508,-23.54597033000621],[-46.636415359737676,-23.545959838159003],[-46.63636143164158,-23.54585982434946],[-46.63640213864293,-23.545840529055923],[-46.636209679333476,-23.54549896566451],[-46.636191163743476,-23.545466105058487],[-46.636186499801376,-23.545457828191946],[-46.63612876887076,-23.545355371856683],[-46.636110395521406,-23.545322762590608],[-46.6360970887331,-23.5452991465741],[-46.63604347905366,-23.545204002924358],[-46.63602153045354,-23.54516504954372],[-46.635936946941065,-23.54501493373819],[-46.63588792495484,-23.545003258462856],[-46.635850755131194,-23.54502390527149],[-46.63579016796386,-23.545057559076636],[-46.63572957978531,-23.54509121287004],[-46.63564151374481,-23.545140130556845],[-46.63563746968634,-23.545169521551603],[-46.63561085364232,-23.545182477285486],[-46.635588850864224,-23.545148159658993],[-46.63555758576109,-23.545110336342866],[-46.63554009273183,-23.54508925214193],[-46.63542299869024,-23.54496289617123],[-46.635407766530975,-23.544946338547106],[-46.63543319379983,-23.544935707105292],[-46.635573696810106,-23.544855920701195],[-46.63561122279194,-23.544834610098434],[-46.63567585275926,-23.544797909468212],[-46.63577878187811,-23.544739459294913],[-46.635855424008035,-23.54469593719609],[-46.63587045583083,-23.544667965780086],[-46.6357986199327,-23.544547618717104],[-46.63579916566199,-23.544546998014237],[-46.63579970050662,-23.54454636839556],[-46.6358002234872,-23.54454572987136],[-46.63580073656248,-23.544545082421035],[-46.63580123678319,-23.544544425172575],[-46.63580172710975,-23.54454375990091],[-46.6358022046041,-23.544543086636942],[-46.635802671213774,-23.54454240445715],[-46.635803125002404,-23.544541715187965],[-46.635803566927,-23.544541017013252],[-46.635803997009916,-23.544540311738846],[-46.63580441525113,-23.54453959936475],[-46.63580482067131,-23.544538879901253],[-46.635805213270444,-23.54453815334837],[-46.63580559304853,-23.544537419706078],[-46.63580596001675,-23.54453667987733],[-46.63580631515445,-23.544535933851773],[-46.63580665552355,-23.544535181660347],[-46.63580698406215,-23.54453442327213],[-46.63580729882269,-23.544533659610654],[-46.63580760078453,-23.5445328906656],[-46.635807888968316,-23.544532116447275],[-46.63580816338521,-23.544531337858597],[-46.63580842500341,-23.544530553986345],[-46.63580867285472,-23.544529765743746],[-46.63580890597096,-23.544528974043992],[-46.635809126299684,-23.544528177963592],[-46.63580933286152,-23.54452737751283],[-46.635809524699454,-23.54452657450783],[-46.635809702781685,-23.54452576803538],[-46.6358098671082,-23.544524958095504],[-46.63581001672198,-23.544524146504305],[-46.635810153559426,-23.544523331435343],[-46.63581027470478,-23.544522514725386],[-46.6358103821056,-23.544521695450875],[-46.635810475773056,-23.54452087451476],[-46.63581055473896,-23.544520052830226],[-46.6358106199715,-23.544519229484084],[-46.635810670491324,-23.544518404486606],[-46.63581070632076,-23.54451757964365],[-46.63581072842801,-23.54451675404197],[-46.635810735833715,-23.544515927691894],[-46.63581072856021,-23.544515102399227],[-46.63581070756452,-23.544514276347854],[-46.63581067188962,-23.54451345135391],[-46.63581062152435,-23.54451262651446],[-46.63581055745923,-23.544511802722123],[-46.635810478726086,-23.544510980890124],[-46.635810386293095,-23.544510160105233],[-46.63581027919207,-23.544509341280673],[-46.63581015742302,-23.544508524416447],[-46.6358100219653,-23.54450770950225],[-46.63580987281891,-23.54450689653807],[-46.63580970902683,-23.544506087340054],[-46.635809531557264,-23.544505280994976],[-46.63580933943083,-23.54450447751313],[-46.6358091336269,-23.54450367688423],[-46.635808914167825,-23.544502880914102],[-46.63580868104242,-23.544502088699822],[-46.63580843425069,-23.544501300241397],[-46.635808172824454,-23.54450051645204],[-46.635807898722426,-23.54449973731114],[-46.635807610965244,-23.544498962828992],[-46.635807309564086,-23.54449819390854],[-46.63580699549831,-23.544497430539455],[-46.63580666777737,-23.544496671829133],[-46.6357604219813,-23.544428723001154],[-46.63575980665378,-23.544428231000172],[-46.63575918362547,-23.544427749916533],[-46.635758552896355,-23.544427279750238],[-46.6357579134871,-23.544426820511582],[-46.635757265397686,-23.54442637220057],[-46.63575661058684,-23.544425934796614],[-46.63575594809753,-23.54442551011581],[-46.63575527790744,-23.54442509635236],[-46.63575460100708,-23.544424694398863],[-46.63575391739646,-23.544424304255326],[-46.63575322609621,-23.544423925932033],[-46.63575252907623,-23.544423560311316],[-46.63575182632534,-23.544423206490247],[-46.635751116864185,-23.54442286447914],[-46.635750401683296,-23.5444225351706],[-46.635749680782666,-23.544422218564623],[-46.6357489541623,-23.54442191466121],[-46.63574822280156,-23.544421623450074],[-46.63574748670044,-23.544421344931198],[-46.635746744879576,-23.544421079114894],[-46.63574599930887,-23.54442082688347],[-46.63574524898661,-23.5444205864414],[-46.635744494925675,-23.54442036048712],[-46.63574373710371,-23.544420147214808],[-46.635742975520735,-23.544419946624465],[-46.635742211167255,-23.544419759608697],[-46.63574144306393,-23.54441958617781],[-46.6357406721901,-23.544419426321507],[-46.635739898534624,-23.544419279136868],[-46.63573912309917,-23.54441914641942],[-46.63573834488206,-23.54441902637364],[-46.63573756390562,-23.544418920805345],[-46.63573678210623,-23.544418827888126],[-46.635735998526876,-23.544418749438105],[-46.63573521413574,-23.54441868454205],[-46.63573442892166,-23.544418632297063],[-46.63573364192761,-23.54441859451927],[-46.63573285510113,-23.544418570285163],[-46.63573206747405,-23.544418560507943],[-46.63573128098273,-23.544418563361187],[-46.6357304936908,-23.544418580671337],[-46.63572970656645,-23.544418611525145],[-46.63572892058904,-23.544418655912356],[-46.63572813575855,-23.544418713832933],[-46.635727351106816,-23.544418786200108],[-46.6357265685702,-23.544418871187446],[-46.63572578719169,-23.544418970611083],[-46.63572500793946,-23.544419083557795],[-46.63572423080237,-23.544419209124673],[-46.635723455802726,-23.54441934911755],[-46.63572268390873,-23.544419502623207],[-46.63572191412986,-23.54441966874903],[-46.6357211474678,-23.54441984929055],[-46.63566721095589,-23.544330219197718],[-46.63563351941955,-23.54427431023726],[-46.6355966138735,-23.54421306835999],[-46.635561836399404,-23.54415535841926],[-46.63552770245532,-23.544098755137778],[-46.635334643290186,-23.543778605717197],[-46.635257939460864,-23.54365343226445],[-46.63524248479998,-23.543659970138904],[-46.63524999922176,-23.54364103225797],[-46.63509456686087,-23.543386755732143],[-46.63495766405573,-23.543147384714537],[-46.63499113951897,-23.543137001976472],[-46.63504779450842,-23.543263732767592],[-46.6351402829336,-23.54341058741669],[-46.635253885913194,-23.543585213942084],[-46.635260601796,-23.543592070477445],[-46.63526572474265,-23.543596922778864],[-46.635271011335064,-23.543601622553567],[-46.63527645662063,-23.543606165338474],[-46.63528205467856,-23.54361054758369],[-46.635287800545086,-23.54361476392321],[-46.635293689278754,-23.543618810796858],[-46.63529971298889,-23.54362268377242],[-46.63530586672289,-23.5436263783868],[-46.63531214359176,-23.54362989200333],[-46.63531853864288,-23.543633220158902],[-46.635325044987255,-23.543636360216873],[-46.63533165474538,-23.543639308647936],[-46.63533836298695,-23.543642062794838],[-46.635345162822986,-23.543644620020896],[-46.635352046373946,-23.543646976796825],[-46.63535900775255,-23.54364913228149],[-46.63536604005859,-23.54365108293533],[-46.635373134455556,-23.54365282704517],[-46.63538028602431,-23.54365436285666],[-46.63538748692999,-23.543655690452177],[-46.63539474664984,-23.5436567049806],[-46.63540203808936,-23.543657512381305],[-46.63540935143268,-23.543658110951455],[-46.63541668275116,-23.5436584998293],[-46.63542402324179,-23.543658680010445],[-46.635431366037885,-23.54365865066406],[-46.63543870427277,-23.543658410959306],[-46.63544603110213,-23.5436579618712],[-46.63545333968162,-23.543657304374733],[-46.6354600157822,-23.543656509946597],[-46.635467871730945,-23.543655364475967],[-46.63547508249148,-23.543654084013376],[-46.63548224664548,-23.543652599052734],[-46.635489357337455,-23.543650909666134],[-46.63549640773424,-23.543649017731507],[-46.635503391993204,-23.54364692601937],[-46.63551030229068,-23.543644635515026],[-46.63551713180468,-23.543642148999357],[-46.635523875660766,-23.543639468329634],[-46.63553052508942,-23.543636597210227],[-46.635542438929825,-23.54363085237702],[-46.63554942017074,-23.543628754373415],[-46.63556324786292,-23.543624193152535],[-46.6355768776138,-23.54361914998792],[-46.6355902889574,-23.54361363322211],[-46.635603463364134,-23.543607649371236],[-46.635616382349085,-23.54360120856305],[-46.635629025446306,-23.54359431914013],[-46.63564137612964,-23.54358699120965],[-46.63565341493485,-23.54357923490971],[-46.63566272935337,-23.54357278775529],[-46.63568066856374,-23.54356099607239],[-46.635698220759586,-23.543548719918377],[-46.63571537139581,-23.543535971185737],[-46.635732105893794,-23.543522759058224],[-46.635748409730816,-23.54350909723414],[-46.635764267360145,-23.543494995810466],[-46.63576701505313,-23.543492404114915],[-46.63577966719713,-23.543480468454597],[-46.63578103812387,-23.54347909497685],[-46.63579459273807,-23.543465527079643],[-46.63580903337773,-23.54345018534272],[-46.63581456562462,-23.543443944114525],[-46.635822975561666,-23.543434456028905],[-46.635836406737134,-23.54341835371885],[-46.6358493162878,-23.543401891166756],[-46.63586169167214,-23.54338508385614],[-46.63587352328671,-23.543367947239656],[-46.63588479954703,-23.54335049498468],[-46.635892940933275,-23.543337114952553],[-46.63596054956668,-23.543205102424977],[-46.635967504136495,-23.54319317339879],[-46.63597493385711,-23.543181490416977],[-46.635982828167904,-23.543170070748115],[-46.63599117646354,-23.54315892804913],[-46.63599996719289,-23.54314807869601],[-46.63600918879364,-23.543137538161766],[-46.63601882773366,-23.54312732103717],[-46.63602887143781,-23.543117440096818],[-46.63603930636278,-23.543107909028528],[-46.63605011701778,-23.54309874244365],[-46.636061288857846,-23.543089952234475],[-46.63607280635867,-23.543081550303633],[-46.636084654975335,-23.543073548543386],[-46.63609681622317,-23.54306595708145],[-46.63610927554612,-23.543058786907206],[-46.6361220144707,-23.543052049051273],[-46.63613501545814,-23.543045750922293],[-46.63614826100317,-23.54303990263768],[-46.63616173355587,-23.543034510703166],[-46.63616999452105,-23.54303182578786],[-46.636190949256154,-23.543025561380865],[-46.63621205848175,-23.543019750472965],[-46.63623330953356,-23.543014398615483],[-46.63625469069313,-23.54300950864073],[-46.63627619021969,-23.543005081575178],[-46.63629779640598,-23.54300112115404],[-46.63631949752238,-23.54299762930674],[-46.63632213366229,-23.542997263840974],[-46.63634128183932,-23.542994607962676],[-46.63636313664786,-23.542992059061554],[-46.6363850511754,-23.542989982716694],[-46.63640701076551,-23.54298838179132],[-46.636429006604274,-23.54298725637815],[-46.636458366730615,-23.542986495966513],[-46.63648773833007,-23.542986583373494],[-46.63650584980357,-23.542987059253065],[-46.63650266096529,-23.54301770912171],[-46.63643270742857,-23.54311904261806],[-46.63641456350352,-23.54318993621654],[-46.63640088732775,-23.54324337149399],[-46.63639729779324,-23.54325739809127],[-46.6363765031721,-23.54334924638276],[-46.636364631559424,-23.543401684691105],[-46.63632971219897,-23.5435559210907],[-46.6363088432054,-23.543648097956336],[-46.63628303627016,-23.543762087976198],[-46.63627888678695,-23.543780415270863],[-46.63626183253133,-23.54384281342671],[-46.63625777684051,-23.54386444572573],[-46.63624373164754,-23.543939357112116],[-46.6362437231126,-23.543946581439066],[-46.63624637671382,-23.54395522260772],[-46.636409914054866,-23.54424509125836],[-46.636478451680176,-23.54435058448078],[-46.63704739911418,-23.544026532169145],[-46.63722628816271,-23.543927779460095],[-46.63733973569956,-23.543865153052927],[-46.63755889455508,-23.543741326966995],[-46.63783288047772,-23.543586523688422],[-46.637838681636595,-23.543580412305932],[-46.637842971263254,-23.543570885329025],[-46.637846169062385,-23.5435601959112],[-46.63784802820946,-23.54355213937425],[-46.637848345004706,-23.543546085742758],[-46.63784691015532,-23.54354095358559],[-46.63784259715892,-23.543532781436493],[-46.637789520860316,-23.543462542838274],[-46.63781896650633,-23.543442271318547],[-46.63783630326918,-23.54346788920949],[-46.63784061687726,-23.54347326467107],[-46.63785363153021,-23.54348934151397],[-46.63785828964952,-23.543494379226395],[-46.6378631296498,-23.54349923441757],[-46.637868214920324,-23.543503884747278],[-46.6378739303927,-23.543508013713915],[-46.63788537765188,-23.543516244383845],[-46.637903730963124,-23.543526984992013],[-46.637928201396406,-23.543541305806123],[-46.63793472173281,-23.543544227071834],[-46.6379544658843,-23.543552672878402],[-46.63796126792597,-23.543555009625567],[-46.637981670112545,-23.54356201810063],[-46.637995153965626,-23.543566948415574],[-46.63800159945909,-23.543569995084557],[-46.63800726155507,-23.54357416343831],[-46.6380119294258,-23.543579275994418],[-46.638015419385574,-23.543585132408857],[-46.638017598350366,-23.543591505616924],[-46.63801838001,-23.54359814909764],[-46.63801773374297,-23.543604804907176],[-46.638016019671404,-23.543611288647163],[-46.63801350355208,-23.543617546949168],[-46.63800557809286,-23.54363624274764],[-46.63800147253993,-23.543649083712996],[-46.63799742485326,-23.54366880876297],[-46.63799491392329,-23.54368868830148],[-46.63799408905171,-23.54370203653467],[-46.6379942483471,-23.543708727205978],[-46.6379947235895,-23.543722103286736],[-46.637996373248534,-23.54373540198133],[-46.63799848650542,-23.543748646127042],[-46.638000308103834,-23.54375510978943],[-46.638004540418486,-23.543767915322245],[-46.63800698669957,-23.543774202636346],[-46.63801487465972,-23.543792876383506],[-46.63801784942372,-23.54379897030168],[-46.638024232784176,-23.54381099373279],[-46.63803712116705,-23.543834977906755],[-46.6379907916459,-23.543864930756282],[-46.63797970079901,-23.543847127846153],[-46.63797434068902,-23.543841404004716],[-46.63796860227387,-23.543836768684997],[-46.63796014292736,-23.543833877774553],[-46.637952021014875,-23.543834505123726],[-46.63794480401131,-23.543837019304146],[-46.63793497967159,-23.543842540937863],[-46.63782455866631,-23.543906401040243],[-46.63774508488209,-23.543952363162788],[-46.63766164513137,-23.544000619160016],[-46.637608124276134,-23.5440315343945],[-46.637559358073446,-23.54405970401001],[-46.637516440597615,-23.54408449430496],[-46.63737596473581,-23.544165911162263],[-46.63735073803655,-23.544180532187237],[-46.63719771862408,-23.544269219386784],[-46.637073174755244,-23.544339254462454],[-46.637015915149384,-23.54437145323068],[-46.63693391848243,-23.544417562520678],[-46.63683032559372,-23.544475816327967],[-46.63676632072222,-23.544511621356033],[-46.636660008034276,-23.544571092967526],[-46.63660328604203,-23.544602823583542],[-46.63668373007491,-23.54473959877249],[-46.63674302641265,-23.544829639834518],[-46.63677046011047,-23.544863119917014],[-46.636794348371545,-23.54489227296469],[-46.636827759146485,-23.544933048016716],[-46.63689334101747,-23.545016520146888],[-46.63695917094132,-23.545096287213926],[-46.637036862213556,-23.545192635443698],[-46.63709144660329,-23.545258072342385],[-46.637297367558446,-23.545513720431764],[-46.63790901970663,-23.545100668797854],[-46.638036949169006,-23.545243375394847],[-46.638299513400526,-23.545586628835476],[-46.63830234306771,-23.54558796531096],[-46.63830514983445,-23.545589350791175],[-46.63830793171963,-23.545590783490944],[-46.63831068873445,-23.545592264313164],[-46.63831342086772,-23.54559379235493],[-46.63831612518134,-23.54559536764719],[-46.6383188026323,-23.54559698837382],[-46.63832145127307,-23.545598655458345],[-46.638324071092455,-23.545600367997864],[-46.638326660120526,-23.545602125110115],[-46.63832921933667,-23.545603926784768],[-46.63833174773913,-23.54560577122631],[-46.63833424339156,-23.545607660261222],[-46.63833670626039,-23.545609591180742],[-46.63833913537744,-23.545611564898135],[-46.638341530720346,-23.545613579607558],[-46.638343890330376,-23.54561563532964],[-46.638346214196325,-23.545617731161485],[-46.6383485023182,-23.545619867103106],[-46.63835075272609,-23.545622042272196],[-46.6383529653976,-23.545624254862954],[-46.63835513937576,-23.54562650669153],[-46.6383572746158,-23.54562879414625],[-46.63835937016074,-23.545631119043293],[-46.63836142598819,-23.54563347957681],[-46.63836344012824,-23.545635874864534],[-46.63836541256969,-23.545638304003557],[-46.638367343312545,-23.54564076699387],[-46.63836923136625,-23.545643262942903],[-46.63837107673079,-23.545645791850646],[-46.638372877413886,-23.545648351028994],[-46.63837463440608,-23.545650941370564],[-46.63837634572624,-23.545653561090138],[-46.63837801235376,-23.545656210177416],[-46.63837963329807,-23.54565888773982],[-46.63838120756862,-23.545661592884734],[-46.6383827351542,-23.54566432470926],[-46.638384215064264,-23.54566708232082],[-46.63838564728762,-23.545669864816478],[-46.638387031813075,-23.545672671293325],[-46.63838836766126,-23.5456755017617],[-46.638389654809785,-23.545678354415777],[-46.6383908922793,-23.545681229265863],[-46.63839208102676,-23.545684124495832],[-46.63839321811408,-23.545687040136638],[-46.63839430645698,-23.545689974351482],[-46.63839534311736,-23.545692927171363],[-46.638396329063376,-23.54569589768302],[-46.638397264283846,-23.54569888498354],[-46.63839814679765,-23.545701887287755],[-46.638398978563515,-23.54570490457503],[-46.63839975761152,-23.545707935963076],[-46.63840048489865,-23.545710979635775],[-46.63840115944553,-23.545714035603424],[-46.638401781240965,-23.54571710296313],[-46.63840235027376,-23.545720180811966],[-46.63840286554217,-23.54572326735445],[-46.63858762266235,-23.545935441672924],[-46.6383751351946,-23.546095981187158],[-46.63833617576309,-23.546053387562207],[-46.63796481596174,-23.546324181146858],[-46.6382078089291,-23.546589975745654],[-46.63823881834977,-23.546566218216704],[-46.63825702548904,-23.54658488527879],[-46.63824820349287,-23.546591948687023],[-46.63822305930329,-23.546610093518105],[-46.63819658650594,-23.546631683849508],[-46.638186622051855,-23.546641722125916],[-46.638182229952214,-23.54665088898014],[-46.638177111420966,-23.54666466893268],[-46.63817433667086,-23.546677882379974],[-46.638174849268964,-23.54668762969116],[-46.63817863855851,-23.546700954602727],[-46.63818056705031,-23.546714300017715],[-46.63818002024179,-23.54672550333397],[-46.63817742010533,-23.54673699918738],[-46.63817084258079,-23.546751607233773],[-46.63815730419834,-23.546773603133616],[-46.638122593895076,-23.54681812684935],[-46.638089514938265,-23.5468599242891],[-46.638066143028894,-23.54688671950645],[-46.638046765882784,-23.546903900540403],[-46.63802271794051,-23.546923568944866],[-46.63800283207491,-23.54693922018291],[-46.63797425325885,-23.54695685933484],[-46.63795060659594,-23.546969389575125],[-46.637930249528225,-23.546978634262718],[-46.637905491035426,-23.546988153768734],[-46.63789378981643,-23.546992653983008],[-46.63788860282795,-23.546995062806616],[-46.63787070740948,-23.547003372211538],[-46.63783783385028,-23.54702223050723],[-46.63782463628005,-23.54703221250854],[-46.637798577458256,-23.547055604475815],[-46.63778377087804,-23.54707011856267],[-46.63777218281247,-23.547083515119784],[-46.63776051806239,-23.54709862823847],[-46.63774900718252,-23.54711825488021],[-46.637728786959336,-23.547162264712355],[-46.63772056618633,-23.547186552455265],[-46.63771552589675,-23.54720665277281],[-46.63771312209455,-23.547226093206334],[-46.63771201721262,-23.547247596927757],[-46.637712925107564,-23.547282689904037],[-46.63772058639707,-23.547340052695844],[-46.637737238187505,-23.547420546710885],[-46.63775276013685,-23.547476335819436],[-46.637760498873604,-23.54750698078115],[-46.63777081638186,-23.54754147709371],[-46.63780457197995,-23.5476150588951],[-46.637835840654894,-23.547676783922554],[-46.6378422360226,-23.54768802158646],[-46.63775836190596,-23.547753497634428],[-46.637718963480374,-23.547713051386502],[-46.63776542565899,-23.54767575012872]]],[[[-46.634882073308795,-23.545580395804265],[-46.6347323752113,-23.545353937109212],[-46.63482430491407,-23.54535515887256],[-46.63506592599167,-23.545221711196554],[-46.635239113729966,-23.54512027266665],[-46.635274767263944,-23.545100404098733],[-46.63529510825875,-23.545087965914277],[-46.635304914995764,-23.545057250092427],[-46.63532332124222,-23.545049146923663],[-46.63541181143578,-23.545174017550263],[-46.63541534929559,-23.545178604764835],[-46.635419882981424,-23.54518372061684],[-46.63542531722159,-23.5451879980179],[-46.63543155183812,-23.545191335978945],[-46.63543838427479,-23.545193117151417],[-46.635445343380404,-23.545195319609533],[-46.6354593710132,-23.54519946420466],[-46.63546594021291,-23.545202215288782],[-46.63547214371482,-23.545205571635897],[-46.63547786567847,-23.54520959135506],[-46.63548577570166,-23.54522072651545],[-46.63548964244781,-23.545226641335532],[-46.63550377694699,-23.54524916145774],[-46.63548782361596,-23.545258237605523],[-46.635451084811564,-23.545249683936756],[-46.63535971211285,-23.545298944176164],[-46.63528860019081,-23.54533728140401],[-46.63520423201395,-23.545382764583533],[-46.63513175681985,-23.54542183669427],[-46.635049738344314,-23.545466053424974],[-46.634978886997864,-23.545504249615465],[-46.63488732516634,-23.545553610912965],[-46.634882073308795,-23.545580395804265]]],[[[-46.636052912609756,-23.543007336356045],[-46.6360408340468,-23.54301503982348],[-46.636029026222396,-23.543023092623958],[-46.63601750178978,-23.543031488303207],[-46.63600627238937,-23.54304021770862],[-46.635995349661606,-23.54304927168745],[-46.63598474427872,-23.543058642000297],[-46.635974466879496,-23.54306831769896],[-46.6359646496708,-23.5430798009376],[-46.635951397425366,-23.543096032314498],[-46.63593860545212,-23.543112574006756],[-46.63592628046135,-23.543129414204518],[-46.63591443115557,-23.543146543786065],[-46.635903066181456,-23.543163949115122],[-46.63589219325103,-23.543181620177332],[-46.6358818190523,-23.543199543357],[-46.63587195031798,-23.543217708650094],[-46.635862593747255,-23.543236103343823],[-46.63585375700753,-23.543254713812175],[-46.63584544388231,-23.543273529179086],[-46.63584023306477,-23.543286194793982],[-46.63583589637591,-23.543291929491655],[-46.63582935819604,-23.543293894617253],[-46.63582368020393,-23.54329413493922],[-46.63582053176249,-23.543292994112793],[-46.635814186841124,-23.543286829936633],[-46.63581134746869,-23.543279003438652],[-46.63577835491973,-23.543193201368656],[-46.635764382549105,-23.543166036173474],[-46.635814252639435,-23.543138651978808],[-46.63567249448801,-23.542903548941087],[-46.63599945159722,-23.542926970044405],[-46.636052912609756,-23.543007336356045]]]]},"properties":{"Equipamento":"Vale do Anhangabaú","Modalidade da Concessão":"Concessão","Concessionária":"VIVA O VALE CONCESSIONÁRIA SPE S.A.","Investimento":6542000,"Prazo da Concessão":10,"Poder Concedente":"Secretaria Muncipal de Subprefeituras","Área":67702.43}}
]}
