{"type":"FeatureCollection", "features": [
{"type":"Feature","geometry":{"type":"Polygon","coordinates":[[[-46.65805619347586,-23.586323574382003],[-46.65826696704706,-23.586509585165825],[-46.65793129061885,-23.586738521153194],[-46.656791552048624,-23.587282242522484],[-46.65506633133615,-23.58852706980558],[-46.65500387990765,-23.588476990775035],[-46.655636200621274,-23.58753979396373],[-46.65652613347748,-23.58725362566448],[-46.656643229905924,-23.586988919432056],[-46.65653393990603,-23.586666978700038],[-46.65590161919242,-23.586309265849252],[-46.65593284490667,-23.586237723162082],[-46.65779077490471,-23.586495276653352],[-46.65805619347586,-23.586323574382003]]]},"properties":{"Estrutura":"Marquise","Equipamento":"Parque Ibirapuera"}},
{"type":"Feature","geometry":{"type":"Polygon","coordinates":[[[-46.65552691062139,-23.5865310479316],[-46.655533689466274,-23.586533101437496],[-46.65563022029094,-23.58658514354999],[-46.65571062093113,-23.58664040630168],[-46.655765896371264,-23.586700274256433],[-46.65578850905132,-23.586734813448672],[-46.655796046611336,-23.586753234347473],[-46.65581865929139,-23.586796983971787],[-46.6558236843314,-23.58686375968604],[-46.65581865929139,-23.586923627538887],[-46.655811121731375,-23.586955864063725],[-46.65580358417135,-23.58699040318869],[-46.655791021571325,-23.58701803448211],[-46.6557809714913,-23.587052573590714],[-46.65575835881124,-23.587087112690224],[-46.6557382586512,-23.58711244135742],[-46.65569554581109,-23.58714467783587],[-46.655657858011,-23.58717230909682],[-46.65559001997084,-23.58720684816482],[-46.65555813633564,-23.587217854583194],[-46.655524694450676,-23.58722526899736],[-46.655484494130576,-23.58723217680891],[-46.65541414357041,-23.587227571601243],[-46.65532118033018,-23.58720684816482],[-46.65526087985004,-23.58718842732968],[-46.655208116929906,-23.587151585651654],[-46.655150328969775,-23.587105533539585],[-46.6551201787297,-23.587054876197627],[-46.65510259108966,-23.587015731874548],[-46.65508500344961,-23.58697198232317],[-46.65507495336959,-23.58693974580229],[-46.65507244084959,-23.586868364906454],[-46.65508500344961,-23.58679468136035],[-46.65510761612967,-23.586734813448672],[-46.655150328969775,-23.586670340282467],[-46.65527595497008,-23.586573630473794],[-46.65534881805026,-23.586545999086777],[-46.65538901837035,-23.586536788623153],[-46.65548740976791,-23.586527054408393],[-46.65552691062139,-23.5865310479316]]]},"properties":{"Estrutura":"Oca ","Equipamento":"Parque Ibirapuera"}},
{"type":"Feature","geometry":{"type":"Polygon","coordinates":[[[-46.6565764977341,-23.585067928807327],[-46.656963399135265,-23.585355738865104],[-46.65639560876728,-23.585993523703955],[-46.65620467041345,-23.585846165749373],[-46.6565764977341,-23.585067928807327]]]},"properties":{"Estrutura":"Auditório do Ibirapuera","Equipamento":"Parque Ibirapuera"}},
{"type":"Feature","geometry":{"type":"Polygon","coordinates":[[[-46.66008040839552,-23.585129748818545],[-46.66014395237779,-23.58516743089041],[-46.66019628271613,-23.58520511295144],[-46.660252350935785,-23.585239369361172],[-46.66028972974889,-23.58526334884266],[-46.66041681771343,-23.585362692362164],[-46.65945992009802,-23.5864280612403],[-46.65914593806797,-23.586195119587725],[-46.66008040839552,-23.585129748818545]]]},"properties":{"Estrutura":"Pavilhão das Culturas Brasileiras","Equipamento":"Parque Ibirapuera"}},
{"type":"Feature","geometry":{"type":"Polygon","coordinates":[[[-46.66099585590681,-23.584206054480546],[-46.66098014125589,-23.584364488338093],[-46.660996937854684,-23.58437122304299],[-46.661013734453476,-23.584378919848174],[-46.661028431477426,-23.584388540854018],[-46.66104522807622,-23.584402010261],[-46.66105992510016,-23.58441644176696],[-46.661077281329874,-23.584441988938874],[-46.661085119998354,-23.584454925775095],[-46.66109036893547,-23.584476091974743],[-46.6610956178726,-23.584494371871717],[-46.66109876723487,-23.584519386463427],[-46.661096667660026,-23.584541514752114],[-46.66109351829775,-23.58456171883854],[-46.661085119998354,-23.58458288502099],[-46.661076721698954,-23.584602127002054],[-46.661068323399554,-23.584612710090436],[-46.66105467616304,-23.58462906577081],[-46.66104522807622,-23.584642535153126],[-46.66102528211515,-23.584657928731204],[-46.66099888674175,-23.584672610631422],[-46.66096583906688,-23.584679494084842],[-46.66094480872832,-23.584685000847323],[-46.66091927188864,-23.584685000847323],[-46.6608802155456,-23.58467674070353],[-46.66085768304,-23.584671233940707],[-46.660829141866245,-23.584654713650853],[-46.66080060069249,-23.584631309903326],[-46.66077656601985,-23.58460790615164],[-46.660764548683524,-23.584580372320783],[-46.66075553568128,-23.58455283848414],[-46.66075102918016,-23.584515667795518],[-46.66076304651649,-23.58446197678226],[-46.6607968639944,-23.58441107240966],[-46.66082458827463,-23.584388083750245],[-46.66084891782778,-23.584374109344992],[-46.66087516251339,-23.58436545043881],[-46.660857593370146,-23.584205384261228],[-46.66099585590681,-23.584206054480546]]]},"properties":{"Estrutura":"Planetário","Equipamento":"Parque Ibirapuera"}},
{"type":"Feature","geometry":{"type":"Polygon","coordinates":[[[-46.66141673167024,-23.584650786162698],[-46.66147966772796,-23.585155106754883],[-46.66134249939705,-23.585169896185825],[-46.66128279082948,-23.58466261775305],[-46.66141673167024,-23.584650786162698]]]},"properties":{"Estrutura":"Escola de Astrofísica","Equipamento":"Parque Ibirapuera"}},
{"type":"Feature","geometry":{"type":"Polygon","coordinates":[[[-46.66343343668111,-23.591342665678706],[-46.663454547646175,-23.59144423517597],[-46.66245177680591,-23.591613517496654],[-46.66243594358211,-23.59152645804472],[-46.66343343668111,-23.591342665678706]]]},"properties":{"Estrutura":"Antiga Serraria","Equipamento":"Parque Ibirapuera"}},
{"type":"Feature","geometry":{"type":"Polygon","coordinates":[[[-46.658999746580534,-23.59105649064661],[-46.65972123747777,-23.59191159894017],[-46.659336272370055,-23.59229008771693],[-46.659244492609275,-23.59233214195806],[-46.6591119218437,-23.592334478304394],[-46.65894365894894,-23.592210651891353],[-46.65885697806376,-23.5921031798155],[-46.65880343986998,-23.591881226336696],[-46.65872950617379,-23.591659272482385],[-46.65868361629341,-23.591563481755582],[-46.65867596798001,-23.59139292736157],[-46.6587193084226,-23.591304145534473],[-46.658999746580534,-23.59105649064661]]]},"properties":{"Estrutura":"Quadras","Equipamento":"Parque Ibirapuera"}},
{"type":"Feature","geometry":{"type":"Polygon","coordinates":[[[-46.655465587077465,-23.59154731897991],[-46.6554081721941,-23.591658397682295],[-46.6550764417569,-23.59154731897991],[-46.65514661550323,-23.591430393928427],[-46.655465587077465,-23.59154731897991]]]},"properties":{"Estrutura":"CECCO/ Ed. Apoio Operacional","Equipamento":"Parque Ibirapuera"}},
{"type":"Feature","geometry":{"type":"Polygon","coordinates":[[[-46.66305005166108,-23.59403433843301],[-46.66285427886552,-23.594569108366468],[-46.66255685481072,-23.594472504926916],[-46.66276015732919,-23.593944634875818],[-46.66305005166108,-23.59403433843301]]]},"properties":{"Estrutura":"Campo Experimental da Escola de Jardinagem","Equipamento":"Parque Ibirapuera"}},
{"type":"Feature","geometry":{"type":"Polygon","coordinates":[[[-46.6555946136813,-23.585617618746564],[-46.65585680576763,-23.586098196661556],[-46.65349707699072,-23.587627296500724],[-46.653068035394924,-23.588238931447396],[-46.65282967895281,-23.58871949976261],[-46.65336598094756,-23.589484036636712],[-46.653449405702304,-23.590183037880376],[-46.65286543241913,-23.590641755422737],[-46.65198351358332,-23.59087111359251],[-46.65179282842963,-23.590641755422737],[-46.65265091162122,-23.588522903846382],[-46.65324680272651,-23.58744162104211],[-46.65425981760547,-23.586666150110318],[-46.6555946136813,-23.585617618746564]]]},"properties":{"Estrutura":"Estacionamento","Equipamento":"Parque Ibirapuera"}},
{"type":"Feature","geometry":{"type":"Polygon","coordinates":[[[-46.66424780380493,-23.5906677116843],[-46.66430012299014,-23.590828987058657],[-46.66329178960252,-23.590998979806216],[-46.663253739286,-23.59083334584981],[-46.66424780380493,-23.5906677116843]]]},"properties":{"Estrutura":"Estacionamento","Equipamento":"Parque Ibirapuera"}}
]}
