{"type":"FeatureCollection", "features": [
{"type":"Feature","geometry":{"type":"Polygon","coordinates":[[[-46.66330352924434,-23.58224230541186],[-46.66331600638454,-23.58233635379369],[-46.66327941365251,-23.58234585524075],[-46.66269288075467,-23.582149667839484],[-46.66276558239838,-23.582670924877117],[-46.66281261146132,-23.583016733098372],[-46.66283221811374,-23.583161553201265],[-46.662856883997186,-23.58334576563857],[-46.6628627299199,-23.58338958879038],[-46.66289345070431,-23.583619891407462],[-46.66291812016261,-23.583804837028886],[-46.6629432810369,-23.583993473427185],[-46.66295741513943,-23.584099430230143],[-46.662967169427205,-23.584172559583315],[-46.66300300221534,-23.584441192859373],[-46.66302385699162,-23.584597545507076],[-46.663035307943375,-23.584683391931655],[-46.663051859461696,-23.584807470760452],[-46.66307953643081,-23.585014960435856],[-46.66309882893118,-23.585159595077034],[-46.663106201871614,-23.585214870167746],[-46.66312303056764,-23.585341026558194],[-46.663133085901805,-23.585416412006673],[-46.6631468698812,-23.58551974653653],[-46.66316926685769,-23.585687648455654],[-46.66318880093122,-23.58583409463925],[-46.66319475533738,-23.585878729309126],[-46.66323045519161,-23.586146363317116],[-46.66326662475458,-23.586417511328126],[-46.66327838772201,-23.586505693173923],[-46.66330228816915,-23.586684868453357],[-46.66333888617069,-23.586959272621755],[-46.66337032200191,-23.587212319720244],[-46.6639243533936,-23.58736429312127],[-46.6639656476257,-23.58737561973955],[-46.663995609981995,-23.58737540529498],[-46.6640077539296,-23.58746438033113],[-46.66403451489718,-23.587650098736404],[-46.66406477312437,-23.587870404917087],[-46.66423010368757,-23.589131684009963],[-46.66447211054567,-23.59089160704015],[-46.66354306073484,-23.591064910067225],[-46.6636949249027,-23.591974782213192],[-46.66271987784017,-23.592162846533167],[-46.662658474320345,-23.591842093370374],[-46.66225215165708,-23.591916222820025],[-46.66252838740282,-23.59353538281804],[-46.66248061492388,-23.593518876933434],[-46.662374808246945,-23.59348253177175],[-46.66219201050275,-23.593419739576557],[-46.66200296291008,-23.593354800755286],[-46.661747214567335,-23.593268139134107],[-46.66146007039591,-23.593175242640722],[-46.661397409692626,-23.593322722775262],[-46.66137935636295,-23.593365211414763],[-46.66135970084989,-23.593414690287663],[-46.6613116456685,-23.59353566140012],[-46.661280672196256,-23.5936136305169],[-46.66124393859399,-23.59370610048557],[-46.66122894617274,-23.59374384171503],[-46.66120894768298,-23.593794182106667],[-46.661152849913094,-23.593935398157633],[-46.6611254596179,-23.594004347514186],[-46.66111171311068,-23.59402782128929],[-46.66069713359667,-23.593878946845216],[-46.66023007895847,-23.59372567292504],[-46.6596969877086,-23.59354653298511],[-46.65941865172247,-23.593459381056693],[-46.659351404552616,-23.593436744019936],[-46.65923577987012,-23.593395505191946],[-46.65882129596677,-23.593258208421023],[-46.65843423329698,-23.59312649178154],[-46.65788756481345,-23.59294241813754],[-46.6576292717022,-23.592857677583208],[-46.657220061132875,-23.59271933669529],[-46.65695889616678,-23.592632584809817],[-46.65668676674887,-23.59254049521053],[-46.65647139878898,-23.592468553728384],[-46.65603689554164,-23.59232337986184],[-46.65573168334523,-23.592221618713207],[-46.65557288890796,-23.592168327802103],[-46.65552720570731,-23.592152992130824],[-46.65518861390385,-23.592039174630905],[-46.654866080148125,-23.59193137182664],[-46.65472808935882,-23.591884734814148],[-46.65459711754335,-23.59183875072357],[-46.65461186461582,-23.591808024605488],[-46.65461925786727,-23.591789546823904],[-46.65470483998581,-23.591575676922382],[-46.65472305042318,-23.59153016669184],[-46.65473118853115,-23.591509831586528],[-46.654748375748454,-23.591466877866296],[-46.654764218696286,-23.59142728776518],[-46.654789832796126,-23.591363277053865],[-46.65480739432242,-23.591319390133208],[-46.65483222933026,-23.59125732469317],[-46.6548500254975,-23.59121285191796],[-46.654875262361905,-23.591149784354094],[-46.65489059789564,-23.59111146026341],[-46.6549006682994,-23.591086293275282],[-46.654917314892145,-23.59104469441037],[-46.6549418153962,-23.590983465103427],[-46.65496365768791,-23.59092887963669],[-46.65499130089484,-23.590859798495536],[-46.65503697858493,-23.590745648733744],[-46.655046741112066,-23.590721249875585],[-46.65502240583099,-23.590698648391225],[-46.65489661236838,-23.590581816244274],[-46.65488481657365,-23.590553956481674],[-46.654662075273585,-23.590334896044485],[-46.65464199381285,-23.590338875589246],[-46.65412790496015,-23.590444450774424],[-46.654084793779816,-23.59054923123518],[-46.653923587771054,-23.590608398205745],[-46.65378655531278,-23.59065596025501],[-46.65371330504504,-23.590681383669022],[-46.6534635525282,-23.590779045996822],[-46.653368250328775,-23.590814719423847],[-46.65294139338804,-23.590974497738177],[-46.652766186576144,-23.59104007952366],[-46.65266934307079,-23.591076328812782],[-46.65264418936087,-23.591085744080992],[-46.65263345378723,-23.591089762981916],[-46.65261776782342,-23.59109563427991],[-46.6525348469424,-23.591084360213852],[-46.652478768577915,-23.591101412659505],[-46.6524244503911,-23.591123035502324],[-46.652336585068035,-23.591130750262288],[-46.652297860820894,-23.59113415036525],[-46.65230382009938,-23.591249367350958],[-46.65227238784218,-23.591270848687213],[-46.652258349073705,-23.59126742299551],[-46.65223049543269,-23.591259828749987],[-46.65220973367212,-23.591253789902744],[-46.65219609912321,-23.59124923293621],[-46.65218938599885,-23.591246703659504],[-46.652176191664964,-23.59124115139522],[-46.65216971931799,-23.591238131925422],[-46.65215704892612,-23.59123161959356],[-46.652144773512,-23.591224489908264],[-46.65213292958462,-23.59121676325065],[-46.65212154976811,-23.59120846275227],[-46.65211066668655,-23.59119961154467],[-46.65210031299795,-23.591190235468112],[-46.65209051745278,-23.591180361307423],[-46.652081308812804,-23.59117001675034],[-46.65207693266385,-23.59116467769469],[-46.652068270668714,-23.59115401216759],[-46.65206408273147,-23.59114860157679],[-46.652060064861786,-23.591143079008283],[-46.65205622300569,-23.59113744981694],[-46.65205255819939,-23.59113171850687],[-46.6520490754092,-23.591125890443337],[-46.65204577665107,-23.591119970120044],[-46.6520397422563,-23.591107872443324],[-46.65203150161904,-23.591089307329973],[-46.65201506192473,-23.591052132411242],[-46.65198766116113,-23.59099017512476],[-46.65196865141626,-23.59094674161769],[-46.65193607087036,-23.5908723064065],[-46.65190066131182,-23.590791744488847],[-46.65188677666622,-23.590760874349204],[-46.651876240799425,-23.59073592942202],[-46.65186884093031,-23.590717053745557],[-46.6518618855235,-23.590698069493794],[-46.65185538966996,-23.590679008111955],[-46.651845506723184,-23.590639928491793],[-46.65184170829463,-23.59062016025022],[-46.65183868053075,-23.590600277255046],[-46.65183642767787,-23.590580305648764],[-46.65183495107715,-23.590560274313784],[-46.651834254006516,-23.590540210305868],[-46.651834337795805,-23.590520141604514],[-46.65183520181547,-23.59050009621006],[-46.651836720642045,-23.59048007365051],[-46.651839035859574,-23.59046011305581],[-46.65184220478724,-23.590440253549165],[-46.651846222933266,-23.590420527687005],[-46.651851082832856,-23.590400965348366],[-46.65185677901454,-23.590381599100073],[-46.65186330107447,-23.59036245885239],[-46.65187063762917,-23.590343574525946],[-46.651878779254524,-23.59032497602053],[-46.65188771260769,-23.590306693277636],[-46.6518973858892,-23.5902887367813],[-46.6519004266287,-23.590282662332243],[-46.6519095498253,-23.590264438974312],[-46.65192779621132,-23.59022799225715],[-46.65196428993436,-23.59015509880718],[-46.65204031011022,-23.59000323390679],[-46.65206146211048,-23.589960648241583],[-46.652103765115086,-23.589875478720348],[-46.65211912335597,-23.589845170733525],[-46.652132002447324,-23.58982118316677],[-46.65216169942501,-23.589767571018193],[-46.65216922906309,-23.589756129121177],[-46.65218449869349,-23.589733377638304],[-46.65220004399191,-23.58971081014657],[-46.65221190309016,-23.589694021462893],[-46.652216165033046,-23.589688603154478],[-46.65222481044818,-23.589677847419235],[-46.65224180356604,-23.589656191922472],[-46.6522565232929,-23.589633111263208],[-46.65226704380322,-23.589615528613916],[-46.652277113733774,-23.589597722293625],[-46.65228982809264,-23.58957365068113],[-46.652298823006795,-23.589555362747806],[-46.65231008649122,-23.58953068438902],[-46.65231798160792,-23.589511970190898],[-46.652325395497066,-23.589493088635468],[-46.652333105614844,-23.589474311387484],[-46.65234585345583,-23.589442980038612],[-46.6523583690907,-23.589411571693617],[-46.65237065156255,-23.589380088168767],[-46.65238269990315,-23.589348530377446],[-46.65239451218723,-23.589316901049223],[-46.652402273602156,-23.589295649881294],[-46.65240609038562,-23.58928520106619],[-46.65241743159335,-23.58925343316838],[-46.65242853680159,-23.589221598248315],[-46.65243940407374,-23.589189698132653],[-46.652450032464216,-23.58915773554058],[-46.65246041411312,-23.589125708749712],[-46.65246420581022,-23.589112788635124],[-46.652473683574854,-23.589080487912497],[-46.652494535410334,-23.589009425048758],[-46.652500818645414,-23.58898875218588],[-46.6525041200075,-23.588975563672648],[-46.65250797748515,-23.588962498374062],[-46.652512387498795,-23.588949583418767],[-46.65252835405824,-23.58878904714651],[-46.652528322255826,-23.588787368771033],[-46.65253272250818,-23.588778289947314],[-46.65253514682794,-23.58877189786234],[-46.65255488873142,-23.588720879393183],[-46.65256754460187,-23.58868909840072],[-46.652580443510196,-23.588657399705216],[-46.652593583530816,-23.588625786036157],[-46.65260696565458,-23.588594258285976],[-46.652620587933264,-23.58856281737836],[-46.65263445041197,-23.58853146692485],[-46.65264855209956,-23.588500206032933],[-46.65266289206146,-23.58846903832455],[-46.65267453042273,-23.58844418438066],[-46.652785004821666,-23.588295845455868],[-46.652864548428546,-23.58812004971441],[-46.65299107407517,-23.587839758553034],[-46.65299370599627,-23.58783343830013],[-46.65299569564646,-23.587826921703336],[-46.65299702804118,-23.587820264006357],[-46.65299769018917,-23.58781352314073],[-46.65299769253902,-23.58780706381525],[-46.65299880297245,-23.58779356088156],[-46.6530005892587,-23.58778011938435],[-46.65300304980025,-23.58776676823724],[-46.6530061781012,-23.58775353640597],[-46.6530099666747,-23.58774045196381],[-46.653014409002274,-23.58772754207068],[-46.653025212259195,-23.587702360165874],[-46.65303155034361,-23.587690141675367],[-46.6530389136018,-23.587676383461158],[-46.6530516314652,-23.58765199028318],[-46.65306176780302,-23.58763395113661],[-46.6530723942922,-23.58761616684232],[-46.6530862035406,-23.58759348591074],[-46.65309728645004,-23.587575923415095],[-46.653108642636965,-23.587558510620465],[-46.65312027214657,-23.587541251138415],[-46.653132172096335,-23.587524149514632],[-46.65314433859014,-23.58750720759661],[-46.65315676972514,-23.587490429919608],[-46.653169463587226,-23.587473820116028],[-46.65318241630288,-23.58745738183912],[-46.65319562594669,-23.58744111781837],[-46.6532090906045,-23.58742503168617],[-46.6532228054345,-23.587409128009106],[-46.65323676848865,-23.587393407710852],[-46.65325097787542,-23.587377876229596],[-46.65326542873042,-23.587362536326122],[-46.65327969537442,-23.58734782146588],[-46.653300460087614,-23.587328654177156],[-46.653321444860694,-23.587309690431912],[-46.6533426467999,-23.587290933872918],[-46.65336406298887,-23.587272386337172],[-46.6533856914909,-23.58725404965127],[-46.65340753036927,-23.58723592564174],[-46.65342957670765,-23.587218016145602],[-46.65345182760098,-23.587200323902746],[-46.653474281123906,-23.58718285164265],[-46.65354820325623,-23.587126752910173],[-46.653738358814294,-23.586977113553125],[-46.6538732256904,-23.586871991004372],[-46.654007084994795,-23.586766154854775],[-46.65419021321645,-23.586624782914686],[-46.65441308785666,-23.58645056360186],[-46.65487030949176,-23.586091878105204],[-46.65496752345629,-23.58601301469932],[-46.65507119529414,-23.585921671327213],[-46.655092206410735,-23.585902736880005],[-46.65511292406599,-23.585883528330324],[-46.655133341458956,-23.585864050265837],[-46.65514029730524,-23.58585782929207],[-46.65515105627102,-23.585848607694487],[-46.65516740656341,-23.585834987506463],[-46.65518400601931,-23.585821625634285],[-46.65520084979711,-23.585808526644556],[-46.65521793206421,-23.585795694211434],[-46.655235249926974,-23.585783131977745],[-46.65525279558218,-23.585770842735624],[-46.655270567127175,-23.58575883102037],[-46.65528855675876,-23.58574709962413],[-46.655306760615005,-23.585735653103058],[-46.655325172840676,-23.58572449332553],[-46.65534258427819,-23.585714314957293],[-46.655424410901134,-23.585669089293255],[-46.65552931757172,-23.585574068928505],[-46.655542627593206,-23.58555787770377],[-46.65573066175099,-23.585332852076647],[-46.65584182139539,-23.58519524349825],[-46.65585019111126,-23.58518411305915],[-46.65585812142549,-23.585172711882976],[-46.65586560372525,-23.58516105631597],[-46.6558726274158,-23.585149160919443],[-46.655879183861664,-23.58513704023382],[-46.65589085957729,-23.585112187487645],[-46.65589596454914,-23.585099487185307],[-46.655900572723496,-23.585086626926497],[-46.65590467645594,-23.585073622144048],[-46.65590776577609,-23.58506246401378],[-46.65591484983879,-23.585036174749547],[-46.65592065498156,-23.585016575139946],[-46.65592688184251,-23.58499708662078],[-46.655933525591195,-23.58497771466162],[-46.65594058439281,-23.58495846921518],[-46.65594805635586,-23.58493935571971],[-46.65595593668394,-23.584920382353463],[-46.65596422449921,-23.58490155725289],[-46.65597291498262,-23.584882886790467],[-46.655982005297055,-23.584864379123562],[-46.65599149161444,-23.584846041517043],[-46.65605651902251,-23.584742802286982],[-46.656140161139916,-23.584605765027824],[-46.656211982940285,-23.58447714709055],[-46.65630206783674,-23.58430327644199],[-46.65643924101466,-23.58403423651272],[-46.65658792874732,-23.58374426902467],[-46.65674004508757,-23.583445096493666],[-46.65686771596239,-23.583195500253378],[-46.65698475655908,-23.582967488398868],[-46.65708297306235,-23.582773999221992],[-46.65709608834199,-23.582749748706643],[-46.65711226848769,-23.582719348444602],[-46.657131433612264,-23.582682756845365],[-46.65715032482468,-23.582646043549506],[-46.6571689411795,-23.58260921127626],[-46.65718399986132,-23.58257892049753],[-46.65718727944135,-23.582572860567883],[-46.6571939194178,-23.582560778676093],[-46.6572040833826,-23.58254275073617],[-46.65721448887344,-23.582524841223574],[-46.65722513591293,-23.582507051944056],[-46.65723602160746,-23.582489386540516],[-46.657247144020374,-23.58247184683962],[-46.65725850221733,-23.582454436463326],[-46.65727009426169,-23.582437157238317],[-46.65728191822814,-23.582420011894136],[-46.657293973182355,-23.582403004052765],[-46.65730625522844,-23.582386135561777],[-46.657318764400365,-23.582369409129797],[-46.657330354267664,-23.58235429807268],[-46.65733438346762,-23.582348637404305],[-46.65733879691778,-23.582343225481594],[-46.65734357725695,-23.58233808416223],[-46.65743096342664,-23.58223054862011],[-46.65745050205372,-23.582209899413844],[-46.65747014196992,-23.58218974849412],[-46.6574900739888,-23.582169842785657],[-46.65751029620776,-23.582150186823746],[-46.6575308027944,-23.582130784282587],[-46.657551590843816,-23.58211163790212],[-46.65757265647154,-23.582092750432732],[-46.657593996806696,-23.58207412732308],[-46.65761560697386,-23.582055770431083],[-46.65763748212027,-23.582037683420513],[-46.65765962033205,-23.582019869923737],[-46.65768201674511,-23.58200233270162],[-46.6577099010823,-23.581981154637738],[-46.65772804833166,-23.58196962719312],[-46.657746034179006,-23.581957886550406],[-46.65776385570812,-23.581945934546805],[-46.65782154598505,-23.581905634823315],[-46.65782261628206,-23.58190434111437],[-46.658235339408286,-23.58170247019735],[-46.65827917138551,-23.581677888093406],[-46.6583776294962,-23.581627730884783],[-46.658516668257406,-23.58156980334531],[-46.65900949496285,-23.581329532237884],[-46.659284943084096,-23.5812042982011],[-46.65979990935132,-23.580962165500917],[-46.6599285065093,-23.58090517005989],[-46.65998322358139,-23.580885394445882],[-46.66027664761477,-23.580751552321257],[-46.66067590616602,-23.580572558020204],[-46.66104214632076,-23.58041077422187],[-46.66133593085865,-23.580297028412694],[-46.66137861160913,-23.580287083067017],[-46.661422133042805,-23.580280878952724],[-46.66146610592595,-23.580278471703767],[-46.66151013960218,-23.580279881752016],[-46.66156533071517,-23.580286515611252],[-46.66163049783257,-23.58029682729679],[-46.661695021724356,-23.580310132114676],[-46.661758740326995,-23.58032639748438],[-46.66184541113261,-23.58035299073839],[-46.66192131331075,-23.580378548698388],[-46.6619960558226,-23.58040685517007],[-46.66206951959348,-23.58043786808401],[-46.662141590355446,-23.580471538095413],[-46.66220258348624,-23.580502898383948],[-46.66227140127891,-23.580541912881024],[-46.662338636023875,-23.580583197313995],[-46.66240420084641,-23.5806266993364],[-46.66246800879181,-23.58067236028163],[-46.66250766077781,-23.580702514828705],[-46.66252445514338,-23.58071562390653],[-46.662710611808386,-23.580855682560532],[-46.66278753200212,-23.580918612295275],[-46.66286267409108,-23.580983335450235],[-46.66293598952877,-23.581049809202774],[-46.66298213296136,-23.58109344571078],[-46.66301614767354,-23.581128028356407],[-46.66304803833118,-23.581165178435178],[-46.663077114598735,-23.581204226978763],[-46.66310324096012,-23.581244993933097],[-46.6631262984384,-23.58128729003682],[-46.6631461777499,-23.581330917797555],[-46.66316278817769,-23.58137567591199],[-46.66316489001181,-23.58138214971587],[-46.663182038082844,-23.581433884200877],[-46.663194670780754,-23.581479810959358],[-46.66320449413831,-23.58152632766492],[-46.663211478834384,-23.58157328473128],[-46.663214714822765,-23.5816070120941],[-46.66330352924434,-23.58224230541186]],[[-46.66165221746359,-23.586077576069258],[-46.66167350484725,-23.586089498256946],[-46.66164275640419,-23.58616103136034],[-46.661630930079944,-23.586194630228764],[-46.661900354666116,-23.58628669882821],[-46.661905092295726,-23.5862728039809],[-46.66196100070693,-23.586292777400704],[-46.66196763374035,-23.58627106652382],[-46.661975214686066,-23.5862728040832],[-46.662005538539766,-23.586201591862064],[-46.66200771845884,-23.586195322948257],[-46.66201054429518,-23.58617719460176],[-46.66202733291955,-23.586065246880118],[-46.66203586132016,-23.586051352102317],[-46.662045337003356,-23.58603658841837],[-46.66204335195975,-23.58603302375744],[-46.662093525030706,-23.58591536483452],[-46.66202490597779,-23.585909279025305],[-46.661954811246304,-23.58591063142737],[-46.661917919282374,-23.58591468863352],[-46.66190537601463,-23.585924155447355],[-46.661811881501606,-23.585925369242247],[-46.661803113835276,-23.58594243426223],[-46.661789294634055,-23.58593620140048],[-46.66180777502925,-23.585896682752335],[-46.661745982610974,-23.58587684291073],[-46.66165221746359,-23.586077576069258]],[[-46.65874115118696,-23.583297864568163],[-46.65848268950942,-23.583601999763943],[-46.659646556008376,-23.584463672469585],[-46.65990958198095,-23.58417038765449],[-46.65874115118696,-23.583297864568163]],[[-46.65376164927972,-23.587588804926742],[-46.65346220737972,-23.587945728373843],[-46.654710198153154,-23.588834992413215],[-46.654534181451865,-23.589043739398587],[-46.654624203019246,-23.589107134015503],[-46.65479950891253,-23.58889827891929],[-46.65541888500214,-23.58933791595097],[-46.65571974742524,-23.588981104676655],[-46.65376164927972,-23.587588804926742]]]},"properties":{"Equipamento":"Parque Ibirapuera","Modalidade da Concessão":"Concessão","Concessionária":"URBIA GESTÃO DE PARQUES SPE S.A.","Investimento":91900000,"Prazo da Concessão":35,"Poder Concedente":"Secretaria municipal do Verde e Meio Ambiente","Área":1122644.73}},
{"type":"Feature","geometry":{"type":"Polygon","coordinates":[[[-46.405917556395366,-23.53912362594626],[-46.405922432637745,-23.539192236339012],[-46.40587060614398,-23.539209514105522],[-46.40576538265663,-23.539192956245987],[-46.405666441168535,-23.539179997919675],[-46.40564373987612,-23.539153198918488],[-46.40565073617042,-23.539078490986135],[-46.40563895742184,-23.539056893756126],[-46.405618540924294,-23.539043935416405],[-46.4054779811912,-23.539030257167557],[-46.405171733728025,-23.5389517871861],[-46.40514618243902,-23.538955758816382],[-46.40506078078937,-23.539047670624925],[-46.40463748565631,-23.538952354674088],[-46.40458178892828,-23.53900001265814],[-46.40451495285463,-23.538952354674088],[-46.40454837089146,-23.538863846943602],[-46.40454094466106,-23.538751510122992],[-46.404555797121866,-23.538676618855963],[-46.404606117780745,-23.538646589683097],[-46.404612029738,-23.538582642218987],[-46.40453534494887,-23.538541358618097],[-46.404456268270735,-23.538498787079916],[-46.40435930848982,-23.538440793994734],[-46.404117649528,-23.5383191826758],[-46.40408423149118,-23.538254503644183],[-46.40421047740806,-23.53808089134941],[-46.40445925612661,-23.538155782955663],[-46.404533518430654,-23.538033233032326],[-46.40446296108217,-23.53799111428333],[-46.40450725038329,-23.537895048702087],[-46.404526777181836,-23.53786819555894],[-46.40453003164826,-23.53784134241031],[-46.40449097805117,-23.537802554519274],[-46.40451701378256,-23.537754815560756],[-46.404559321846065,-23.537727962388985],[-46.404597448553545,-23.53771962685538],[-46.40464708115784,-23.53776928677081],[-46.40495728414992,-23.53786901378662],[-46.405717691447926,-23.53808686942387],[-46.40585670355396,-23.53877281813097],[-46.40590800906676,-23.539049090285804],[-46.405915108160244,-23.539087561248166],[-46.405917751971764,-23.539111433282585],[-46.405917556395366,-23.53912362594626]]]},"properties":{"Equipamento":"Parque Lageado","Modalidade da Concessão":"Concessão","Concessionária":"URBIA GESTÃO DE PARQUES SPE S.A.","Investimento":1200000,"Prazo da Concessão":35,"Poder Concedente":"Secretaria Municipal do Verde e Meio Ambiente","Área":15964.59}},
{"type":"Feature","geometry":{"type":"Polygon","coordinates":[[[-46.56512580597595,-23.50866936710152],[-46.56515318071627,-23.508657352241247],[-46.56516949051768,-23.508653666393258],[-46.565194364612175,-23.50865377759616],[-46.565217625416835,-23.50865823967465],[-46.56524057568148,-23.50866956808803],[-46.565272204718525,-23.508702663186757],[-46.56537039609989,-23.50882458189862],[-46.56552308516454,-23.509017203666296],[-46.565679380395764,-23.509208345016905],[-46.56584385656952,-23.509412226392595],[-46.56596787964884,-23.509548965918782],[-46.566058873558404,-23.50964187815649],[-46.56628927804302,-23.50983118978511],[-46.56630041096683,-23.509845165448997],[-46.56630585636371,-23.50985847587934],[-46.566309773593716,-23.509875052677216],[-46.56631033613122,-23.509889495889333],[-46.5663050897277,-23.50990128837046],[-46.566292678543924,-23.509911708034544],[-46.56615870194258,-23.509993246873893],[-46.56599277596178,-23.51011402857274],[-46.56593921563389,-23.510156589058575],[-46.565886303759505,-23.51019999639264],[-46.565859778958014,-23.510222461117813],[-46.5658120414951,-23.51026339078875],[-46.56576545336936,-23.510305621930062],[-46.56570546687601,-23.51036266422618],[-46.56566581657976,-23.510401405710315],[-46.56560689036721,-23.510460504402186],[-46.56556936146145,-23.510501348518154],[-46.56556484335185,-23.51050658199383],[-46.56552141870285,-23.510560214834907],[-46.56546681713075,-23.510629864634016],[-46.565458527674046,-23.510640712385516],[-46.56539400586084,-23.510729721342827],[-46.56535010606623,-23.510791218201913],[-46.565291435950755,-23.51088360531894],[-46.56521738790923,-23.510998730591723],[-46.5651634854554,-23.511085965674916],[-46.565116584137165,-23.511153604520533],[-46.56506950717158,-23.511221134043353],[-46.565063947313284,-23.511225392744468],[-46.5650572555155,-23.511227919024485],[-46.56505005280505,-23.511228479071306],[-46.565043004457294,-23.511227020142154],[-46.56487494747574,-23.511147897591396],[-46.564868409926305,-23.511144997663436],[-46.56483516623271,-23.51113159810884],[-46.564828382521135,-23.511129247001143],[-46.5648009128455,-23.511120677645632],[-46.56476573466803,-23.511112460280618],[-46.56471551077949,-23.51110554008179],[-46.56466475491541,-23.51110382048639],[-46.564621303914286,-23.511106456954774],[-46.564571995768105,-23.511118692136257],[-46.56455268763653,-23.511125568753897],[-46.56452597320269,-23.511135499868637],[-46.56431220171522,-23.511235087313413],[-46.56394023443772,-23.51140561814109],[-46.56381617882621,-23.511465112093532],[-46.5636360885947,-23.511547744155575],[-46.56359738289106,-23.511570528613685],[-46.56355505023387,-23.51160129636862],[-46.56352092224412,-23.511630356225226],[-46.563489214480704,-23.511665261630146],[-46.5634570864265,-23.511706041107374],[-46.56341880390391,-23.511764672561068],[-46.56332669255973,-23.51193374628773],[-46.56331082775408,-23.511966867088542],[-46.56328391434453,-23.511993145295232],[-46.563243425559406,-23.512005923663374],[-46.56322985718165,-23.51196813157524],[-46.56325606013884,-23.511913859481048],[-46.56343294947228,-23.51161083055],[-46.563586413691674,-23.51134649960009],[-46.56379901513728,-23.510965352315583],[-46.56413604383406,-23.510365588676866],[-46.56433932297758,-23.510007923513548],[-46.56439451566394,-23.509897014794063],[-46.56450890504046,-23.509690872036888],[-46.5646468606032,-23.50945703953899],[-46.564776776062125,-23.509222294367863],[-46.56491221457632,-23.50898270650221],[-46.565040573292585,-23.50874897014326],[-46.56509420763723,-23.508696866646783],[-46.56512580597595,-23.50866936710152]]]},"properties":{"Equipamento":"Parque Tenente Brigadeiro Faria Lima","Modalidade da Concessão":"Concessão","Concessionária":"URBIA GESTÃO DE PARQUES SPE S.A.","Investimento":1500000,"Prazo da Concessão":35,"Poder Concedente":"Secretaria Municipal do Verde e Meio Ambiente","Área":38840.76}},
{"type":"Feature","geometry":{"type":"Polygon","coordinates":[[[-46.72716760338417,-23.479806349527323],[-46.727216234737206,-23.47978086112258],[-46.72722318207335,-23.479774489020613],[-46.72726486609024,-23.479761744815793],[-46.72738297080474,-23.479733070350413],[-46.727459391502364,-23.479720326141585],[-46.72750454918733,-23.4797139540367],[-46.727556654208435,-23.47969165166721],[-46.72758261325334,-23.479667980492902],[-46.727613082956466,-23.479655515359582],[-46.72762943274647,-23.47964882344328],[-46.727658621563435,-23.479633473845904],[-46.72768948267229,-23.47961723881867],[-46.72774641744121,-23.479580993066758],[-46.727819938684675,-23.479525419662973],[-46.727851915994705,-23.479529162861304],[-46.727928336692315,-23.479490930172016],[-46.72821037075423,-23.479647789104785],[-46.728543403805354,-23.479687435741774],[-46.728536683205206,-23.47973783396166],[-46.72853508715308,-23.47974982553733],[-46.72852973514239,-23.47977333598937],[-46.72851939344807,-23.479845149450114],[-46.72851721940872,-23.479861617321035],[-46.72850877178209,-23.479925526522585],[-46.728504998544615,-23.479956749205318],[-46.728499016659555,-23.480006291306946],[-46.728490773653654,-23.480069376501497],[-46.728485881451945,-23.480110138318405],[-46.728476113372736,-23.48017639192054],[-46.728474944335,-23.480184342318026],[-46.728466167010914,-23.480249997976998],[-46.72846178226402,-23.480290636774193],[-46.728455824617114,-23.480345795309002],[-46.7284477013732,-23.480401547658055],[-46.72844119337356,-23.480455041732597],[-46.72843373172066,-23.480505972812846],[-46.72843148434175,-23.48052132176691],[-46.72842438471177,-23.480577495302875],[-46.72841880023274,-23.480617722990395],[-46.72841860346255,-23.48061990141966],[-46.72841462747182,-23.48066411158986],[-46.72841470888087,-23.480706407537966],[-46.72842016516331,-23.480749474643847],[-46.72842647891574,-23.480780215223366],[-46.72843576355955,-23.480813559634736],[-46.72844945365939,-23.480848408358828],[-46.72847534173209,-23.48090277123125],[-46.728497605564506,-23.48093745262067],[-46.7285175566739,-23.480965946968325],[-46.72855484354152,-23.481008552670367],[-46.728590358761004,-23.481040667011133],[-46.72859276606742,-23.481042843647632],[-46.728632198274354,-23.48107278433927],[-46.72868395307723,-23.4811017566681],[-46.728725760723016,-23.48112166476579],[-46.728758663209334,-23.48113433921673],[-46.72881204585241,-23.481150001181998],[-46.72883687485725,-23.48115465617199],[-46.72886602207461,-23.48116013014159],[-46.728912508778414,-23.48116347931549],[-46.72896742254972,-23.481164423289076],[-46.72899854693483,-23.481163861273522],[-46.729052183804825,-23.481162905008812],[-46.72916423745201,-23.48116433469572],[-46.72923299392758,-23.481166018964522],[-46.72923631373602,-23.481166099520074],[-46.729299925691066,-23.481170414409977],[-46.7293648542144,-23.48117659291839],[-46.72940763471847,-23.48118251148791],[-46.72942644566855,-23.48118512012754],[-46.72948603222515,-23.481196053498362],[-46.72951966699138,-23.48120481866892],[-46.72954966512118,-23.481216983374885],[-46.72956512444863,-23.481231332158465],[-46.72956726745893,-23.48123501070302],[-46.729573576202874,-23.481245830949796],[-46.72958092647241,-23.481259944641792],[-46.72958335944243,-23.48127234301211],[-46.72958298464923,-23.481285639428982],[-46.72957681834459,-23.481302250943177],[-46.729563379899844,-23.481334005312426],[-46.72955204994572,-23.481360787804995],[-46.72953232682152,-23.481412839265886],[-46.72952548756213,-23.481430397373483],[-46.72950485560998,-23.481483325803637],[-46.7294900316953,-23.481519195192902],[-46.72947057656369,-23.48156627713684],[-46.729460323567885,-23.481591566741653],[-46.729433613881554,-23.48165739523701],[-46.7294295636284,-23.481667364225782],[-46.72940464449984,-23.481732368268183],[-46.72939773551267,-23.481749836844198],[-46.72938341499508,-23.481786025721256],[-46.729358820227105,-23.481846628515893],[-46.72934824415708,-23.481872671195124],[-46.72931880818022,-23.481933643757685],[-46.72931622920153,-23.481940074692197],[-46.72928077084119,-23.482028700928353],[-46.72927975854849,-23.482032152616274],[-46.729258425615534,-23.482104909793296],[-46.72924387749316,-23.482159007806903],[-46.72924135647159,-23.482168381898944],[-46.72922744016729,-23.482221308022023],[-46.72921812484027,-23.482266706197162],[-46.72921329067918,-23.482304397153086],[-46.729211179100304,-23.48235567523937],[-46.72921074138818,-23.482400181165776],[-46.729210867591306,-23.48240535399339],[-46.72921196173614,-23.482448713260894],[-46.72921539614272,-23.48251087424856],[-46.72921924876152,-23.482548802927834],[-46.72922307921559,-23.482586533191228],[-46.729229438773665,-23.482653790796874],[-46.729235008119254,-23.482712252855578],[-46.72923873902211,-23.48275135679206],[-46.729246917358864,-23.482831958710534],[-46.729250101524734,-23.482865172079777],[-46.7292536255106,-23.48290192146369],[-46.72925992999926,-23.482964953604576],[-46.72926308416376,-23.483013130124075],[-46.729266191405344,-23.483060711179498],[-46.72927281793523,-23.48313342087748],[-46.7292822720733,-23.483218008950185],[-46.72928887745304,-23.483274834092605],[-46.72929635083734,-23.48331939580383],[-46.72930517007889,-23.483365062307485],[-46.72931070474522,-23.483390835905624],[-46.72931388375382,-23.483405637024998],[-46.72932421612318,-23.483438211201637],[-46.729342458709844,-23.48349179182773],[-46.72936153874015,-23.4835405230427],[-46.729371807593076,-23.483565223703224],[-46.7293821165467,-23.483589996158322],[-46.72940615498183,-23.483643584695105],[-46.72941937645346,-23.48366948067309],[-46.72942468648069,-23.483689287885127],[-46.72942298333135,-23.483711827766317],[-46.72942271602746,-23.48371535245783],[-46.729411316990046,-23.48373610362763],[-46.729375440757295,-23.483756693893117],[-46.729358692477,-23.483760636262257],[-46.729320463457775,-23.48376597285338],[-46.72929542541466,-23.483761843126658],[-46.729265307478904,-23.483743539287307],[-46.72924894306595,-23.48370485547953],[-46.72921068424511,-23.483593812896995],[-46.72917457692393,-23.483491595891305],[-46.729168008570966,-23.483472136742925],[-46.72913168372371,-23.483364495066972],[-46.7290942255075,-23.48326077597209],[-46.7290805196324,-23.48321949810276],[-46.72905574676774,-23.483144859537838],[-46.72900950085636,-23.483009884621545],[-46.728995918356134,-23.482970555866554],[-46.728967827772664,-23.48288923572053],[-46.72893098426321,-23.482775576674722],[-46.72890932832698,-23.482712471010416],[-46.728892068477776,-23.48266215732702],[-46.7288570453021,-23.48255895293792],[-46.728849525259506,-23.48253707523918],[-46.72881345174589,-23.482432147811643],[-46.728778098571546,-23.48232539824031],[-46.728739460536794,-23.48220848111847],[-46.72870639503346,-23.482117246893107],[-46.728669661786356,-23.48200900457213],[-46.7286421907905,-23.48192786709767],[-46.728619030789346,-23.481865012838462],[-46.7285897834367,-23.481802307364124],[-46.72855045016062,-23.481731910867435],[-46.7285021866205,-23.481668124987863],[-46.72848681595173,-23.481647806237188],[-46.728421501737444,-23.481573003120047],[-46.72836375463004,-23.481516934716982],[-46.72834492653163,-23.48150174725292],[-46.72829979941092,-23.4814653418104],[-46.72822291872872,-23.48141645674857],[-46.72813224263536,-23.481363697206724],[-46.72810864627194,-23.481349962245822],[-46.7279649315541,-23.481265110879246],[-46.72792423525191,-23.4812410815699],[-46.72784504334779,-23.4811921135714],[-46.72779500050771,-23.481161531781677],[-46.727744148462065,-23.48113045416448],[-46.72766281694716,-23.481084065296596],[-46.727644136138316,-23.481073409203955],[-46.727564220844286,-23.481023004259207],[-46.72754882193021,-23.481011020474494],[-46.727498194821244,-23.480971650670178],[-46.72745805889475,-23.480936517057966],[-46.7274455516756,-23.48092556675873],[-46.72738756862328,-23.48086343236158],[-46.7273841862214,-23.48085929795678],[-46.72734490995143,-23.48081124177793],[-46.72732100218847,-23.480777345983956],[-46.727307926239206,-23.480758807683145],[-46.7272875984165,-23.480719409011144],[-46.72725844815073,-23.480658074731277],[-46.72723043676872,-23.480593982679814],[-46.72722595106145,-23.480568277716873],[-46.727227209794485,-23.48051159101822],[-46.72722225888376,-23.480488501805002],[-46.72721612035936,-23.48045991740745],[-46.72721037991347,-23.48044611083034],[-46.72719886639685,-23.480035744948324],[-46.72719555570868,-23.479864261486217],[-46.72716760338417,-23.479806349527323]]]},"properties":{"Equipamento":"Parque Jacintho Albero","Modalidade da Concessão":"Concessão","Concessionária":"URBIA GESTÃO DE PARQUES SPE S.A.","Investimento":2400000,"Prazo da Concessão":35,"Poder Concedente":"Secretaria Municipal do Verde e Meio Ambiente","Área":34446.08}},
{"type":"Feature","geometry":{"type":"Polygon","coordinates":[[[-46.752251939172304,-23.615348621045158],[-46.75232177043434,-23.615492253189107],[-46.752355137019045,-23.615620785662923],[-46.752597820381744,-23.615438855043358],[-46.75277431737278,-23.61534283600343],[-46.752961845425766,-23.615282192363015],[-46.75308870263808,-23.615216495054224],[-46.75323762197427,-23.615130583139205],[-46.753414118965324,-23.61509015398323],[-46.75382778378808,-23.614903168974617],[-46.75542177223846,-23.61420070939636],[-46.75574718856571,-23.614736398336454],[-46.755692033256004,-23.614786934915895],[-46.75542177223846,-23.614903168974617],[-46.75461650471682,-23.61526703144853],[-46.75436830582317,-23.615297353275746],[-46.75416423117727,-23.615302406912946],[-46.75383881485002,-23.615408533248875],[-46.75336999471756,-23.61575217984219],[-46.75367334892092,-23.615802716029915],[-46.7536954110448,-23.615848198582206],[-46.75357406936346,-23.61593411002678],[-46.75335896365562,-23.615949270864096],[-46.75324313750525,-23.61596948531113],[-46.753176951133604,-23.61604528945969],[-46.75308870263808,-23.616141307984932],[-46.75274122418696,-23.616257540842398],[-46.75214554684218,-23.616611292382963],[-46.75210142259444,-23.616621399555786],[-46.75189183241756,-23.616323237629274],[-46.75189794126775,-23.616042942110553],[-46.75183004238435,-23.615913588536184],[-46.75163390892786,-23.61562347750965],[-46.752251939172304,-23.615348621045158]]]},"properties":{"Equipamento":"Parque Eucaliptos","Modalidade da Concessão":"Concessão","Concessionária":"URBIA GESTÃO DE PARQUES SPE S.A.","Investimento":700000,"Prazo da Concessão":35,"Poder Concedente":"Secretaria Municipal do Verde e Meio Ambiente","Área":22505.08}},
{"type":"Feature","geometry":{"type":"Polygon","coordinates":[[[-46.72542840879841,-23.49275945359447],[-46.72536145057866,-23.493176381502334],[-46.72536915314165,-23.493255353526944],[-46.72537927140158,-23.49331898455446],[-46.72545588108394,-23.493265958700324],[-46.7254426733298,-23.493412169339607],[-46.72544392779832,-23.493464150570873],[-46.725464698092274,-23.493510448107713],[-46.72547093655524,-23.49360198930837],[-46.72547093655524,-23.493670645167157],[-46.72548341348117,-23.493762186256568],[-46.725508367333035,-23.49381939940515],[-46.725508367333035,-23.493893776461206],[-46.72552084425896,-23.493996760007995],[-46.72551714069318,-23.49405647145034],[-46.72554793514405,-23.494179210153863],[-46.72556982837545,-23.4942875541889],[-46.72558318206297,-23.494353641802842],[-46.725603298346314,-23.494443567020962],[-46.72562102316391,-23.49452277204447],[-46.72565431160033,-23.494600928743253],[-46.725687311057804,-23.49466290675736],[-46.72573159457768,-23.494725265441694],[-46.72575791277747,-23.494750854051293],[-46.72578149480107,-23.49477376394885],[-46.725894137487,-23.49485936716947],[-46.725955906021255,-23.494904009222584],[-46.72602389908339,-23.494958831403537],[-46.72607957932847,-23.49501817407813],[-46.72612060119063,-23.495082664652596],[-46.72613861848099,-23.49512972293978],[-46.72614507900962,-23.495146597167988],[-46.7261613681872,-23.49517343461764],[-46.726185498799396,-23.495227997766648],[-46.72622316470185,-23.495280631999446],[-46.72623589947451,-23.495298424584202],[-46.72625284535133,-23.49531704641821],[-46.7262850304619,-23.49534052911765],[-46.726336991666265,-23.495366898991296],[-46.7263366127479,-23.49536586901224],[-46.72634935696695,-23.495382565618964],[-46.72636311971304,-23.495396002035303],[-46.72638552218743,-23.495409698789647],[-46.72641380500539,-23.495450039802108],[-46.72644041414916,-23.495490711505646],[-46.72648364629926,-23.495515330294612],[-46.726523653017075,-23.495566696021633],[-46.72657967696543,-23.495621998299782],[-46.726617808441,-23.495669666852052],[-46.72668876615773,-23.49571847281345],[-46.72679520273283,-23.495751010111004],[-46.7269282484517,-23.495759144434142],[-46.72707903359976,-23.49576727875677],[-46.727229818747816,-23.4957266071386],[-46.727351705006534,-23.495698507567994],[-46.72733999308848,-23.495762952850352],[-46.72731656925239,-23.49587036158424],[-46.72724629774409,-23.49603147452097],[-46.72715260239968,-23.49612814218846],[-46.72705890705527,-23.496246291463557],[-46.72700034746502,-23.49627851397475],[-46.72693697535216,-23.49631386853795],[-46.726927304830376,-23.496332615174477],[-46.72690578303734,-23.496308147332485],[-46.72681945111316,-23.496228147239744],[-46.72680127352037,-23.496200363200618],[-46.72674189338393,-23.496163688259994],[-46.72664029685873,-23.49610091179185],[-46.726401366479024,-23.49595586340368],[-46.7261902948472,-23.495823899674342],[-46.72598892408406,-23.49570141113743],[-46.72577522449871,-23.49556196251067],[-46.725621114220786,-23.495467740382054],[-46.72544851070952,-23.495360327073243],[-46.725351934935354,-23.495301909272058],[-46.725208098675964,-23.495217109191998],[-46.724984125072034,-23.495077660052843],[-46.72487522047564,-23.494998513178498],[-46.72478275430888,-23.49493255741357],[-46.72472727460883,-23.494891099487283],[-46.7246779593199,-23.49485906380805],[-46.724650332711235,-23.494834927373926],[-46.72457932874203,-23.49470453865766],[-46.72451418947451,-23.494574173199464],[-46.72444782130492,-23.4944614438471],[-46.72439645121228,-23.494323878368057],[-46.72434508111964,-23.49418631274543],[-46.7243204234752,-23.49411470318644],[-46.72431425906408,-23.494095858559184],[-46.72429987543814,-23.494024248951032],[-46.724283437008495,-23.493971483951704],[-46.724266998578855,-23.49388668301568],[-46.72424645054179,-23.49381695776075],[-46.72423412171956,-23.49377173054864],[-46.72421768328992,-23.493720849916464],[-46.72419508044915,-23.49366054691958],[-46.72418069682322,-23.493607781774656],[-46.72416631319727,-23.49356255449077],[-46.724139277785895,-23.49347392644588],[-46.7241087310249,-23.493384650999353],[-46.72407662346607,-23.49325412398364],[-46.724126714481166,-23.493278054413462],[-46.72410723400079,-23.49319025856456],[-46.723902082950154,-23.492950844426556],[-46.72329666156378,-23.492310375769993],[-46.72326385044617,-23.49228387285168],[-46.7232488857642,-23.4922495620576],[-46.72326010927567,-23.49220324247143],[-46.723329320929786,-23.492139767456546],[-46.72364448117815,-23.49179240454376],[-46.72367650526485,-23.491714084946445],[-46.72373521609047,-23.491728769874484],[-46.72373162209808,-23.49176161952519],[-46.72406463766768,-23.49178791462068],[-46.72408359693138,-23.491793206580148],[-46.72410255619507,-23.491807570469042],[-46.72420312272425,-23.492168935159],[-46.72431969062905,-23.492366488881792],[-46.7243804759261,-23.492411521451743],[-46.724545166393305,-23.492462743617327],[-46.724654721356266,-23.49245289320241],[-46.72503995384045,-23.492161977283413],[-46.725064299387775,-23.492133739360916],[-46.72507575611593,-23.49213308266497],[-46.725086496798575,-23.49214161971198],[-46.72511948402683,-23.492206706594505],[-46.725145937406424,-23.49222389130746],[-46.725218684200335,-23.492224902172865],[-46.72531478835036,-23.492208558656078],[-46.72533629499617,-23.49220381692175],[-46.7253457284657,-23.492173634809077],[-46.72543593932098,-23.49211243165256],[-46.72558269960012,-23.49212140944245],[-46.72576135627056,-23.492099066436857],[-46.725885874556,-23.49205065657842],[-46.72691450387072,-23.491655929376734],[-46.72727760277696,-23.491515359468274],[-46.72730611463701,-23.49151606619184],[-46.727328461770554,-23.491525960321287],[-46.72747179166161,-23.49170405452431],[-46.727481809342166,-23.491725256199114],[-46.72748103875135,-23.49174787131516],[-46.727478726978916,-23.491761299038465],[-46.72746562693511,-23.491779673815522],[-46.72741037901475,-23.491808758703307],[-46.72739275993684,-23.4918389217132],[-46.727395109147224,-23.49187123921614],[-46.72753606177057,-23.492128701706587],[-46.727539585586165,-23.49216209638609],[-46.72752431571863,-23.492195491057114],[-46.72691821943824,-23.49256498636873],[-46.72687123523045,-23.492574681567056],[-46.72673585614194,-23.492523517062345],[-46.726574060116214,-23.492476652306827],[-46.726426908566594,-23.492468572877783],[-46.72626010037002,-23.49248473293443],[-46.726002839841534,-23.492531058419203],[-46.725585819350115,-23.492666802769186],[-46.725503589957434,-23.49270774151398],[-46.7254519029106,-23.492727133546527],[-46.72542840879841,-23.49275945359447]]]},"properties":{"Equipamento":"Parque Jardim da Felicidade","Modalidade da Concessão":"Concessão","Concessionária":"URBIA GESTÃO DE PARQUES SPE S.A.","Investimento":1600000,"Prazo da Concessão":35,"Poder Concedente":"Secretaria Municipal do Verde e Meio Ambiente","Área":30063.1}}
]}
