{"type":"FeatureCollection", "features": [
{"type":"Feature","geometry":{"type":"Polygon","coordinates":[[[-46.628614403308916,-23.581336259174503],[-46.628133816758734,-23.58139401909726],[-46.62792444632097,-23.580480290668202],[-46.626115316327585,-23.58072821876686],[-46.62602427834236,-23.580329993161424],[-46.625831598206474,-23.579452158776995],[-46.62570587499321,-23.578883691941773],[-46.625592083332336,-23.578371387696535],[-46.625606979126,-23.57835975885284],[-46.62587938936598,-23.578361210358953],[-46.626662681266794,-23.57836647813125],[-46.62791779068929,-23.57837741582109],[-46.6279452402412,-23.578395779350643],[-46.6280057072359,-23.578672384524907],[-46.62808293465709,-23.579011309905297],[-46.62823128098981,-23.57967818947165],[-46.62840938598711,-23.58044320046653],[-46.62849962683925,-23.580837378101535],[-46.628614403308916,-23.581336259174503]]]},"properties":{"Equipamento":"Cemitério da Vila Mariana","Modalidade da Concessão":"Concessão","Concessionária":"CONCESSIONÁRIA DE CEMITÉRIOS E SERVIÇOS FUNERÁRIOS SPE S/A","Investimento":9729000,"Prazo da Concessão":25,"Poder Concedente":"São Paulo Regula","Área":63695.77}},
{"type":"Feature","geometry":{"type":"Polygon","coordinates":[[[-46.65949884332336,-23.550901270767522],[-46.659511404074685,-23.550910889352686],[-46.65952044014256,-23.550920635854904],[-46.65952782711448,-23.55093166418634],[-46.65953399189541,-23.550946769158365],[-46.659534693177,-23.55097141416543],[-46.659526925445,-23.551008069441682],[-46.65951416819874,-23.55102960720267],[-46.65933635271264,-23.55126114319293],[-46.659063910633044,-23.5516211501597],[-46.65861206580712,-23.55221539266654],[-46.657610974520026,-23.551696690964324],[-46.65759324441296,-23.551627140467687],[-46.656728976497654,-23.55118630641978],[-46.65665847193931,-23.551210055756986],[-46.656561848577645,-23.551160690155957],[-46.654900491576065,-23.55027860598682],[-46.65488682363144,-23.550250938329103],[-46.65503187771012,-23.5500151503744],[-46.65508765389206,-23.54992945042068],[-46.6558473673538,-23.55034163589638],[-46.656013893847216,-23.550079429890328],[-46.6562874389814,-23.549652695481385],[-46.65551415074709,-23.549261500100343],[-46.65566789452513,-23.549023180051286],[-46.65574991694782,-23.548885408465612],[-46.65575574459661,-23.548881463418272],[-46.6557614114329,-23.54888031945442],[-46.65576806443662,-23.548879706804186],[-46.65583322117035,-23.548912515201753],[-46.657007141724264,-23.549551181703396],[-46.65744831680989,-23.54978551107932],[-46.658763523354516,-23.550504110129047],[-46.65949884332336,-23.550901270767522]]]},"properties":{"Equipamento":"Cemitério da Consolção","Modalidade da Concessão":"Concessão","Concessionária":"CONCESSIONÁRIA DE CEMITÉRIOS E SERVIÇOS FUNERÁRIOS SPE S/A","Investimento":6492000,"Prazo da Concessão":25,"Poder Concedente":"São Paulo Regula","Área":69704.94}},
{"type":"Feature","geometry":{"type":"Polygon","coordinates":[[[-46.52667200800765,-23.56644458342272],[-46.52779523363073,-23.56539729388142],[-46.52770943127313,-23.565303164243364],[-46.52762618678245,-23.56523222617608],[-46.5275311544848,-23.56513185578788],[-46.5274362931736,-23.565046257712822],[-46.52737126622911,-23.564966697766334],[-46.527292551796315,-23.564891494084947],[-46.52709630383941,-23.56474990797095],[-46.526992382770324,-23.56467284040946],[-46.52689995774732,-23.56459988165072],[-46.52677565437467,-23.564542008213238],[-46.526692752345575,-23.564500612554525],[-46.52659124385742,-23.564434073265918],[-46.526491975928664,-23.56436329190252],[-46.5264675949926,-23.56423479107309],[-46.526512624370234,-23.56416892305696],[-46.52654418666796,-23.5641264031579],[-46.52661398276337,-23.564024414207537],[-46.52667486677155,-23.5639436172759],[-46.526740718441076,-23.56389653965914],[-46.526852063613745,-23.56382368883452],[-46.52694548429693,-23.563784782138587],[-46.5270409989644,-23.5637289712063],[-46.52715979605159,-23.56370669870163],[-46.527278545282876,-23.56368020657842],[-46.527424374547095,-23.563619679247708],[-46.52752687853119,-23.563574351605762],[-46.52762139311767,-23.563432019858574],[-46.52766532335838,-23.563271190233582],[-46.527700290974686,-23.563127333193542],[-46.527739740266384,-23.562974989392483],[-46.527748408918264,-23.5629326942701],[-46.52779160664194,-23.562708557374552],[-46.527812595743974,-23.56254373228092],[-46.52779558997057,-23.562261092631477],[-46.527784626109366,-23.56210502337726],[-46.52776387196996,-23.561894177697464],[-46.527750876277814,-23.561760289494405],[-46.52773673553165,-23.561626411637143],[-46.52770804220784,-23.561421975308853],[-46.527666379807826,-23.56118495396309],[-46.52765533373908,-23.56112069238287],[-46.52793316629665,-23.561575900945673],[-46.528160678848344,-23.56194750522407],[-46.52845887052666,-23.562437364298347],[-46.52879661504536,-23.562989843770797],[-46.52895863571083,-23.563255337330418],[-46.529262673692664,-23.563754537879046],[-46.52951194660861,-23.564170563902348],[-46.52979232401692,-23.564637197794703],[-46.53051119905237,-23.564268885742997],[-46.53113952676622,-23.563944286413417],[-46.53153357335338,-23.56458167999657],[-46.53168795352301,-23.564832076047338],[-46.531774169082105,-23.564971002759563],[-46.532062287157274,-23.56545118206562],[-46.532287465481296,-23.565816815085746],[-46.53255241382294,-23.566304320633062],[-46.53264939577618,-23.566459936576074],[-46.53254350752993,-23.56660866682042],[-46.53246246355855,-23.566727653649043],[-46.532360986500834,-23.566861615021708],[-46.53227085861049,-23.56698702266057],[-46.532207835482524,-23.567080505442124],[-46.53216032300691,-23.567129515007117],[-46.532097324217425,-23.567225107955625],[-46.53202809305801,-23.56737563574637],[-46.531978805224405,-23.567468983054624],[-46.53192752180796,-23.567587676287584],[-46.531872418588556,-23.567771831919462],[-46.53181733873858,-23.567958098654078],[-46.5317954984672,-23.568049064941697],[-46.5317473759007,-23.568193580625127],[-46.531733131454175,-23.568248593539654],[-46.53169915532204,-23.568329654569983],[-46.53161386143797,-23.568477174380128],[-46.53158467581987,-23.568527058857942],[-46.53156676433511,-23.568562058197163],[-46.531543738892196,-23.56860027405174],[-46.5314981998373,-23.56867142413872],[-46.53148747840782,-23.568684720760498],[-46.5314667238604,-23.568721331166294],[-46.53145383549202,-23.568745201374707],[-46.53144397466805,-23.568783287493705],[-46.53143739335395,-23.568808150324553],[-46.53142825143648,-23.568858892041764],[-46.53142396955095,-23.56893385646312],[-46.53143143704678,-23.568985490190098],[-46.53143406589851,-23.5690640800218],[-46.53144884490104,-23.569203227511768],[-46.5314558127772,-23.569261196596205],[-46.53145880057367,-23.5693213162497],[-46.53146413789172,-23.569386689319256],[-46.53146821076336,-23.569491118568802],[-46.53146981994419,-23.56953120210734],[-46.531476180046404,-23.56958601195768],[-46.53148041605831,-23.569655089384266],[-46.5314992857567,-23.569759711462087],[-46.531414425949556,-23.569720892594876],[-46.531325728612345,-23.56967826626955],[-46.53119320644858,-23.569618516226083],[-46.53100394846363,-23.56953170946675],[-46.530792911215116,-23.569433774574915],[-46.53061990858783,-23.5693537788221],[-46.53052816880027,-23.569522804703304],[-46.530414217943026,-23.569723114471923],[-46.53033799825623,-23.569871180952955],[-46.53023491613311,-23.570062479424255],[-46.53013021756496,-23.570252963839785],[-46.530040838295825,-23.570420266670233],[-46.52997111947575,-23.570384624816974],[-46.52977337327484,-23.57027375235565],[-46.52962705115847,-23.57019330234827],[-46.52949155072645,-23.57011324327734],[-46.52932216971928,-23.570016061361024],[-46.52923337040602,-23.569962056284602],[-46.52907030220457,-23.569853297957884],[-46.52899433466351,-23.569799067148196],[-46.52886375652284,-23.569698992432663],[-46.528804999705116,-23.569651365153558],[-46.5286721282525,-23.56952834712912],[-46.528608295216856,-23.569465273206216],[-46.528542535507434,-23.56939740489874],[-46.528465490758386,-23.569317781350144],[-46.52830452869656,-23.569143701231276],[-46.52823946728822,-23.56906842082752],[-46.528122991243976,-23.568922032435662],[-46.528038998224865,-23.56880915408047],[-46.52796984004665,-23.568712538413017],[-46.527867414048295,-23.5685636555841],[-46.527775925274696,-23.56841262424796],[-46.52771442626484,-23.568299704274914],[-46.52766516160308,-23.568203534070484],[-46.52760626416173,-23.568084286020316],[-46.52755229070581,-23.567961305063793],[-46.527504140051576,-23.567842845367093],[-46.52744394067681,-23.567685545170143],[-46.5273787772908,-23.567528493299495],[-46.527340389906094,-23.567442673497542],[-46.527293019694895,-23.567342529122516],[-46.52723459284355,-23.5672342574699],[-46.5271318490312,-23.567056018698384],[-46.527035648515344,-23.566909863580864],[-46.526943162602606,-23.566779079002398],[-46.52682395227765,-23.566620435601763],[-46.52671452795369,-23.566487947921683],[-46.52667200800765,-23.56644458342272]]]},"properties":{"Equipamento":"Cemitério Vila Formosa I","Modalidade da Concessão":"Concessão","Concessionária":"CONCESSIONÁRIA DE CEMITÉRIOS E SERVIÇOS FUNERÁRIOS SPE S/A","Investimento":57984000,"Prazo da Concessão":25,"Poder Concedente":"São Paulo Regula","Área":314511.48}},
{"type":"Feature","geometry":{"type":"Polygon","coordinates":[[[-46.58445560039814,-23.546264838524603],[-46.58401873798905,-23.546624728913216],[-46.5836283733727,-23.546946709863533],[-46.583189575387294,-23.5473040296697],[-46.582918454539715,-23.547522805094673],[-46.58288557596379,-23.547550140793547],[-46.582825819102254,-23.54760691841269],[-46.58273077179805,-23.547694127483073],[-46.582616191122064,-23.547802485031212],[-46.58244260318831,-23.547964903221004],[-46.58220766866499,-23.548182218411256],[-46.581940594000386,-23.548431376505036],[-46.58176584394816,-23.548611416113893],[-46.58153332441875,-23.548850649814128],[-46.581349018078384,-23.54905886999811],[-46.58118172977955,-23.549248675427933],[-46.580997493638414,-23.549462855525082],[-46.580765380203985,-23.549728091769843],[-46.58070491599349,-23.549799595479097],[-46.58063749056733,-23.54987875550812],[-46.580588903759484,-23.5499342520681],[-46.580381912763336,-23.549861215131124],[-46.580225603377116,-23.549805450208257],[-46.580134102824644,-23.549772805622975],[-46.58003887395488,-23.54973883165104],[-46.57996836647485,-23.549713677551782],[-46.57991433366914,-23.549694400132665],[-46.57985001147243,-23.549671000969656],[-46.579789317704844,-23.54964884634127],[-46.579729193611,-23.549626900826304],[-46.57967556282354,-23.54960732394094],[-46.579596872240415,-23.549578715558063],[-46.579583891752165,-23.54957399533896],[-46.57949572405859,-23.549542511239984],[-46.57931127884809,-23.54947664699957],[-46.57931330110981,-23.549473736714088],[-46.57926362234308,-23.549455999688053],[-46.57927040469829,-23.54944157237459],[-46.57921511627173,-23.54942163468406],[-46.579254982164485,-23.549314941288184],[-46.57928551976789,-23.549206355913743],[-46.579324297284856,-23.54905777220467],[-46.579358488950824,-23.54891889675272],[-46.57941543897357,-23.548684429368322],[-46.579473874714445,-23.54843495630607],[-46.57950903198465,-23.54827846251626],[-46.57952033408333,-23.548281598693414],[-46.5795284247063,-23.548253702691976],[-46.57952086380218,-23.548252154001272],[-46.57978519520268,-23.54769933235564],[-46.57995507857443,-23.547338172464944],[-46.580064828730926,-23.54710063271724],[-46.58010713079066,-23.54701240967529],[-46.58026348135911,-23.546678448573925],[-46.5804053504071,-23.546379178723463],[-46.58055934441532,-23.546049527168744],[-46.580681829578545,-23.54578318771001],[-46.58082496821846,-23.54547457886579],[-46.580820384851634,-23.545473084854144],[-46.58090013199633,-23.545306259160302],[-46.58100400732679,-23.545078836682777],[-46.58111598592569,-23.54484028841739],[-46.58128827668274,-23.54447509958879],[-46.581502291257,-23.544016397640334],[-46.581682474761166,-23.543619852980356],[-46.58202047649305,-23.54377487390814],[-46.58224655139742,-23.54400508969453],[-46.58245719661439,-23.5442232429807],[-46.58270626409644,-23.544475397474567],[-46.5831075802998,-23.54488667634188],[-46.58353535423001,-23.545326627277554],[-46.58397649642583,-23.545778344684475],[-46.58445560039814,-23.546264838524603]]]},"properties":{"Equipamento":"Cemitério da Quarta Parada","Modalidade da Concessão":"Concessão","Concessionária":"CONCESSIONÁRIA DE CEMITÉRIOS E SERVIÇOS FUNERÁRIOS SPE S/A","Investimento":11890000,"Prazo da Concessão":25,"Poder Concedente":"São Paulo Regula","Área":170193.09}},
{"type":"Feature","geometry":{"type":"Polygon","coordinates":[[[-46.60207349506484,-23.457207909589524],[-46.60097684590288,-23.457608710071106],[-46.60022676215031,-23.457890790038554],[-46.600379157835555,-23.458177199984046],[-46.60029438350203,-23.458208439367723],[-46.60015337799022,-23.458260420709546],[-46.59996143460961,-23.45833117600071],[-46.59989766135791,-23.458354686369795],[-46.59984293160907,-23.45837485297232],[-46.599810733127484,-23.458386724216606],[-46.59973676757068,-23.458413292038628],[-46.59968198197816,-23.45843289023795],[-46.59962843425445,-23.458452051289672],[-46.59952574427731,-23.458488802005967],[-46.59938773489941,-23.458535216256834],[-46.59938575055031,-23.458533818816697],[-46.59937718820358,-23.458534854820982],[-46.59896044316468,-23.458718148383483],[-46.5989383923521,-23.458746838581753],[-46.59844694377107,-23.458930607666684],[-46.59826740143172,-23.45892500647592],[-46.598223678705885,-23.45893665233756],[-46.59820872868349,-23.4589437409579],[-46.598148011474834,-23.458999991017528],[-46.59805127387247,-23.4590385942714],[-46.597945847431326,-23.45908066389665],[-46.59783379347767,-23.459126756711015],[-46.597684742450646,-23.45884218819589],[-46.597663542434056,-23.458801704873146],[-46.597633195354796,-23.458743768971157],[-46.59757693667355,-23.458632059025344],[-46.59742750745299,-23.458214285073016],[-46.59742163347157,-23.458060474432322],[-46.59742060859198,-23.458031432885964],[-46.597417044501235,-23.457761276625078],[-46.597410783112586,-23.457527270007873],[-46.597298232577785,-23.457258653386305],[-46.59731763297706,-23.457252106266104],[-46.59730751249034,-23.457230211589984],[-46.59730586837328,-23.457217224495544],[-46.59730797911103,-23.457203909972655],[-46.59731956136593,-23.457190281722582],[-46.59744031099429,-23.457138898703455],[-46.597715645332585,-23.457034945982404],[-46.59802526068262,-23.456923119170217],[-46.59831743650687,-23.456832773430147],[-46.598412063471315,-23.456835343715838],[-46.59852104779978,-23.45685308254146],[-46.59868944474672,-23.456907995985368],[-46.59894604755275,-23.457004484546555],[-46.59915802586433,-23.457114868476708],[-46.59953045056102,-23.45725542940147],[-46.59961238902073,-23.457244763921622],[-46.599802212995414,-23.45721837151063],[-46.599854455438894,-23.45721277858862],[-46.5999102160334,-23.457200214138428],[-46.59995200989262,-23.457185336638776],[-46.600069075235275,-23.457139335475535],[-46.60024502335604,-23.45708002422095],[-46.60076556009559,-23.45691950285654],[-46.60109715854688,-23.45681914798116],[-46.60138221450667,-23.456729528906298],[-46.60150052331164,-23.45669580444358],[-46.60154618491692,-23.456689989558317],[-46.60165682897225,-23.456696077858176],[-46.601723495648635,-23.456704784999616],[-46.601762676352735,-23.45671998735042],[-46.60185080485675,-23.45678106764238],[-46.60192886624737,-23.456851498497926],[-46.60199100718508,-23.456926427460697],[-46.60201741947286,-23.45698669661911],[-46.60207349506484,-23.457207909589524]]]},"properties":{"Equipamento":"Cemitério de Tremembé","Modalidade da Concessão":"Concessão","Concessionária":"CONCESSIONÁRIA DE CEMITÉRIOS E SERVIÇOS FUNERÁRIOS SPE S/A","Investimento":6032000,"Prazo da Concessão":25,"Poder Concedente":"São Paulo Regula","Área":66992.95}},
{"type":"Feature","geometry":{"type":"Polygon","coordinates":[[[-46.6404400275688,-23.496452010867287],[-46.64027586184893,-23.496772015512942],[-46.640019983752815,-23.49724887537354],[-46.63976531480675,-23.497744541359356],[-46.639576608484326,-23.498117457779202],[-46.63956243773329,-23.498118040393038],[-46.638986930871,-23.49786743670943],[-46.63873651583157,-23.4977605505149],[-46.63866437723949,-23.49772923365498],[-46.63865551596578,-23.49772210260301],[-46.638333123516105,-23.497368903713323],[-46.6382082100667,-23.49722515316143],[-46.63803060269474,-23.497026186124874],[-46.63786567355609,-23.496838933361836],[-46.63779983857384,-23.496759869582082],[-46.63772900902855,-23.496682303135017],[-46.637728246760226,-23.496671330252976],[-46.637789414730335,-23.496575614811814],[-46.63783002991073,-23.496518492590916],[-46.6378481855542,-23.496492957143058],[-46.63785193217796,-23.496487688279444],[-46.63786933660974,-23.49647623541874],[-46.63796612042254,-23.496422914038742],[-46.63796740926156,-23.49642579019611],[-46.63827578498185,-23.49625378834745],[-46.639168427842705,-23.495693466121654],[-46.63919910067863,-23.495731445549918],[-46.639351438972845,-23.49592007378311],[-46.63938340756773,-23.495959657769717],[-46.639520517934876,-23.49602387978633],[-46.639553693033655,-23.49603941950257],[-46.63956796523617,-23.49604610435007],[-46.63980336933356,-23.496149100865747],[-46.63989418441612,-23.496189539927556],[-46.63990550524139,-23.496173888572976],[-46.64005289606116,-23.49625718681954],[-46.64004854831896,-23.496263481585576],[-46.64013075603642,-23.496298303949853],[-46.64019259266126,-23.496328032729156],[-46.64034162257925,-23.496399679646597],[-46.6404400275688,-23.496452010867287]]]},"properties":{"Equipamento":"Cemitério de Santana","Modalidade da Concessão":"Concessão","Concessionária":"CONCESSIONÁRIA DE CEMITÉRIOS E SERVIÇOS FUNERÁRIOS SPE S/A","Investimento":4512000,"Prazo da Concessão":25,"Poder Concedente":"São Paulo Regula","Área":40918.7}},
{"type":"Feature","geometry":{"type":"Polygon","coordinates":[[[-46.52667200800765,-23.56644458342272],[-46.52655465200379,-23.566310783712357],[-46.526494252938576,-23.566250465516593],[-46.52645114896909,-23.56620741553193],[-46.52636792209878,-23.56613172562152],[-46.52626770386299,-23.566043839618853],[-46.52607316843265,-23.56588952035424],[-46.5257822705973,-23.56569689888191],[-46.52546261370668,-23.56550465931508],[-46.52514407949152,-23.565315306854917],[-46.52491090612944,-23.565178639779262],[-46.5246831314418,-23.56504462042936],[-46.524482882762925,-23.564924662331418],[-46.524238770930616,-23.564761949726204],[-46.524083781456454,-23.5646443277766],[-46.52399621941214,-23.564579037097246],[-46.52382658705923,-23.564434566847044],[-46.52376940133792,-23.56438256027114],[-46.52370345188567,-23.564321581877415],[-46.52356112430632,-23.56418303864688],[-46.523417216326436,-23.56402296281919],[-46.523329335823284,-23.563917253832724],[-46.52326661018181,-23.563841857874248],[-46.523210678817264,-23.563772003318395],[-46.5231307810852,-23.563665285824733],[-46.5230670007146,-23.563575713016316],[-46.52301146010004,-23.563489599445866],[-46.522969166218324,-23.56342401810932],[-46.5229043597063,-23.56331764840147],[-46.522864083816664,-23.563247884147252],[-46.5228328276096,-23.563193916367716],[-46.522805252945155,-23.56314232368854],[-46.52277936371198,-23.563094164186904],[-46.52275167257635,-23.563035014012975],[-46.52273101117884,-23.56298985744271],[-46.52269913238343,-23.56292019871493],[-46.522651513362824,-23.562805660291584],[-46.522590844744606,-23.562655370132585],[-46.52254700416148,-23.562540550829887],[-46.52250284374055,-23.562426023622276],[-46.52246310118277,-23.56230890649562],[-46.522437955008854,-23.56223509269419],[-46.52241534520489,-23.562157795320914],[-46.52238714363899,-23.56206452336133],[-46.52236762958738,-23.561998275322274],[-46.52238054466983,-23.561996008585638],[-46.52235057582238,-23.561876890237432],[-46.52228501883593,-23.561628774860665],[-46.52224927191582,-23.561468145132107],[-46.52221864526707,-23.561354829935503],[-46.522178938014875,-23.56123307061392],[-46.52215378547553,-23.561158669813917],[-46.52212645113126,-23.561082809349525],[-46.52209690903414,-23.561005787483825],[-46.522050222657924,-23.56089385854669],[-46.5219527304833,-23.560675503566866],[-46.52189319096307,-23.56055162646321],[-46.52232098281568,-23.560302626899993],[-46.52221874147613,-23.56013571363403],[-46.5229239873191,-23.55972706868343],[-46.523000086776335,-23.55981564953485],[-46.52376733615353,-23.559443014434855],[-46.52319589960329,-23.558530546387367],[-46.52402701938567,-23.558138290418647],[-46.52403705312046,-23.55801578296976],[-46.524824777691926,-23.55760060419063],[-46.52492865598818,-23.557546326409874],[-46.52482538754723,-23.55738708740371],[-46.52524782014478,-23.55715297020573],[-46.525458663080755,-23.55750129572928],[-46.525598084617414,-23.557736329252446],[-46.525937964834405,-23.558291908155564],[-46.52618313610001,-23.55869564511509],[-46.526392266066225,-23.559037287913892],[-46.52668651008322,-23.559530044448234],[-46.52692316645087,-23.55991795167938],[-46.52702410278417,-23.560083520740818],[-46.52724807087454,-23.560450744586067],[-46.52765533373908,-23.56112069238287],[-46.527666379807826,-23.56118495396309],[-46.52770804220784,-23.561421975308853],[-46.52773673553165,-23.561626411637143],[-46.527750876277814,-23.561760289494405],[-46.52776387196996,-23.561894177697464],[-46.527784626109366,-23.56210502337726],[-46.52779558997057,-23.562261092631477],[-46.527812595743974,-23.56254373228092],[-46.52779160664194,-23.562708557374552],[-46.527748408918264,-23.5629326942701],[-46.527739740266384,-23.562974989392483],[-46.527700290974686,-23.563127333193542],[-46.52766532335838,-23.563271190233582],[-46.52762139311767,-23.563432019858574],[-46.52752687853119,-23.563574351605762],[-46.527424374547095,-23.563619679247708],[-46.527278545282876,-23.56368020657842],[-46.52715979605159,-23.56370669870163],[-46.5270409989644,-23.5637289712063],[-46.52694548429693,-23.563784782138587],[-46.526852063613745,-23.56382368883452],[-46.526740718441076,-23.56389653965914],[-46.52667486677155,-23.5639436172759],[-46.52661398276337,-23.564024414207537],[-46.52656890469377,-23.564086060921834],[-46.52654418666796,-23.5641264031579],[-46.526512624370234,-23.56416892305696],[-46.5264675949926,-23.56423479107309],[-46.526491975928664,-23.56436329190252],[-46.52659124385742,-23.564434073265918],[-46.526692752345575,-23.564500612554525],[-46.52677565437467,-23.564542008213238],[-46.52689995774732,-23.56459988165072],[-46.526992382770324,-23.56467284040946],[-46.52709630383941,-23.56474990797095],[-46.527292551796315,-23.564891494084947],[-46.52737126622911,-23.564966697766334],[-46.5274362931736,-23.565046257712822],[-46.5275311544848,-23.56513185578788],[-46.52762618678245,-23.56523222617608],[-46.52770943127313,-23.565303164243364],[-46.52779523363073,-23.56539729388142],[-46.52667200800765,-23.56644458342272]]]},"properties":{"Equipamento":"Cemitério Vila Formosa II","Modalidade da Concessão":"Concessão","Concessionária":"CONCESSIONÁRIA DE CEMITÉRIOS E SERVIÇOS FUNERÁRIOS SPE S/A","Investimento":73606000,"Prazo da Concessão":25,"Poder Concedente":"São Paulo Regula","Área":360539.76}}
]}
