{"type":"FeatureCollection", "features": [
{"type":"Feature","geometry":{"type":"Polygon","coordinates":[[[-46.787048792151474,-23.432770492323495],[-46.787043344772805,-23.432828317318897],[-46.78702586604138,-23.432820032909174],[-46.787002172110554,-23.43278008397715],[-46.786938109816944,-23.432675657566516],[-46.786927468399455,-23.43262717942238],[-46.78692958412064,-23.432581906240298],[-46.78713111365227,-23.43136124973597],[-46.78714448255175,-23.431308725810123],[-46.78728512865835,-23.431131988212034],[-46.78729258750006,-23.431112630237905],[-46.78730760224919,-23.4311149722543],[-46.78729541379756,-23.431199529885152],[-46.78727835923743,-23.43132560233257],[-46.78726433725366,-23.431418120968665],[-46.78725687369829,-23.43146711250572],[-46.78722517642366,-23.431675208883703],[-46.787215599378925,-23.43173805033746],[-46.78719660673851,-23.431854636452908],[-46.78715340536925,-23.43211982530602],[-46.78709323246673,-23.43248679602529],[-46.787079348674965,-23.432571411877486],[-46.78707176328282,-23.432624450207495],[-46.787048792151474,-23.432770492323495]]]},"properties":{"Equipamento":"Terminal Jardim Britânia","Modalidade da Concessão":"Parceria público-privada (PPP)","Concessionária":"SPE SP TERMINAIS NOROESTE S.A.","Investimento":2303000,"Prazo da Concessão":30,"Poder Concedente":"Secretaria Municipal de Mobilidade e Trânsito","Área":2531.13}},
{"type":"Feature","geometry":{"type":"Polygon","coordinates":[[[-46.648805877057576,-23.538706384197955],[-46.6488074583156,-23.53870657694026],[-46.64880705101918,-23.53871632942622],[-46.64880030170524,-23.53872614822824],[-46.648789366276645,-23.538739423934775],[-46.64879236097131,-23.538746459278116],[-46.648799057996314,-23.538753577289018],[-46.64877748397458,-23.538772200596338],[-46.64873803934008,-23.53883813321894],[-46.64864731706804,-23.53890752244796],[-46.64856741028908,-23.538957869577708],[-46.64855494246664,-23.538971104618323],[-46.64854249277377,-23.539010620242077],[-46.64858900486327,-23.53900428926132],[-46.64859073707123,-23.539104106786926],[-46.64851651459951,-23.539114209884794],[-46.64848444239539,-23.539245148141337],[-46.648509026087495,-23.53927717713568],[-46.64846851581456,-23.53933511746928],[-46.64848264733608,-23.53936616005193],[-46.64843484570863,-23.539432951449573],[-46.64841028294539,-23.539582838686993],[-46.64831528146518,-23.539679859645297],[-46.64836653730771,-23.539561491447888],[-46.648293949216026,-23.539537647722543],[-46.64822775293931,-23.53968988959599],[-46.64817247226239,-23.53982506418008],[-46.6481361261837,-23.5399245645484],[-46.64811763212908,-23.53998411912793],[-46.64811252472735,-23.5400302013989],[-46.648102376714455,-23.540121752980554],[-46.64810347890927,-23.540210181899763],[-46.64810402169284,-23.540294198236985],[-46.64810480818332,-23.540316828774877],[-46.64801283898288,-23.54050686528393],[-46.64793972125808,-23.540490388498814],[-46.64787583437547,-23.540478586385046],[-46.64786257797157,-23.54050896104543],[-46.64778553494916,-23.540673043461776],[-46.647775675766965,-23.54070220187307],[-46.64774576167401,-23.540812502855438],[-46.64777089705933,-23.540944906525983],[-46.64772973639643,-23.54094789088122],[-46.647744969981794,-23.540985390229167],[-46.6477529527756,-23.541032094173904],[-46.647738122343384,-23.541072217414662],[-46.6477151567742,-23.54109585448816],[-46.647758290120585,-23.541108354200883],[-46.64775638326194,-23.541255730243968],[-46.64769335667858,-23.5413402655527],[-46.647664079289385,-23.54136640674813],[-46.64763724371946,-23.541376438270724],[-46.647599270928424,-23.541375482337983],[-46.64757206261112,-23.54136896351768],[-46.64742176964185,-23.541287214132154],[-46.64741817355297,-23.5412531358783],[-46.647406016168,-23.541253264636264],[-46.647405294014206,-23.541237676114253],[-46.647349235290136,-23.541235832546658],[-46.64734909144077,-23.541219019716763],[-46.64735307154805,-23.541191629407926],[-46.64741727648977,-23.540820470167837],[-46.64744105587876,-23.540777328175817],[-46.64755217722526,-23.5406162893795],[-46.647564437348784,-23.5405820422806],[-46.64756204367233,-23.540559648194744],[-46.64754285754244,-23.5405471792354],[-46.64751319775793,-23.5405426197408],[-46.64748785071863,-23.54054483783191],[-46.64746273283291,-23.540549489857547],[-46.647437817187146,-23.540565106994606],[-46.647470846721944,-23.54041586074678],[-46.64749230230643,-23.54041953277744],[-46.64764333012543,-23.540442509010887],[-46.647661273638306,-23.54039275092302],[-46.64768049328341,-23.540339449385648],[-46.64770896633025,-23.540260489665204],[-46.647805491282156,-23.5400146531074],[-46.6478327657362,-23.53994672750273],[-46.64794352363019,-23.539684941651224],[-46.648007529356214,-23.539534989687493],[-46.648025909992334,-23.539493211493134],[-46.648120983254074,-23.539529245473716],[-46.648557099482275,-23.538516714101174],[-46.64863545998193,-23.53856900780663],[-46.6487054718606,-23.538587761249808],[-46.648805877057576,-23.538706384197955]]]},"properties":{"Equipamento":"Terminal Amaral Gurgel","Modalidade da Concessão":"Parceria público-privada (PPP)","Concessionária":"SPE SP TERMINAIS NOROESTE S.A.","Investimento":3637000,"Prazo da Concessão":30,"Poder Concedente":"Secretaria Municipal de Mobilidade e Trânsito","Área":10022}},
{"type":"Feature","geometry":{"type":"Polygon","coordinates":[[[-46.771525082716245,-23.63141463431344],[-46.77403574312041,-23.630306701499507],[-46.774293489079604,-23.630806502238134],[-46.77429197397565,-23.631166403406972],[-46.77417672526228,-23.631159939089237],[-46.774028263655694,-23.631149337909708],[-46.773906282740505,-23.631139306886887],[-46.773877718575925,-23.631136203187925],[-46.77383798793797,-23.631134960913048],[-46.77381003505177,-23.63113765454144],[-46.773805281612134,-23.631139178952505],[-46.773784942604436,-23.63114569989749],[-46.77375583606218,-23.631158352091205],[-46.773708022918214,-23.631183970049985],[-46.77368302191911,-23.63119538515484],[-46.77360541482681,-23.631237488128072],[-46.773559385554584,-23.63126588396702],[-46.77353395343704,-23.631282475324603],[-46.77350381023593,-23.631307082996027],[-46.77346350526585,-23.63133771052141],[-46.773434499833655,-23.63135358151551],[-46.773395977854896,-23.631376733663593],[-46.77337154970006,-23.631390371619435],[-46.7733031066275,-23.631421521306734],[-46.77328139049428,-23.63143247800419],[-46.77319553214314,-23.63127006608616],[-46.77202395837123,-23.63179709863818],[-46.77201745557834,-23.6318038766377],[-46.772011910084345,-23.631814204136507],[-46.77200480516535,-23.631826853849507],[-46.77199906616916,-23.63183969834917],[-46.771995145923256,-23.631852521165186],[-46.77198903778397,-23.63187165369767],[-46.77198655209421,-23.631889697388065],[-46.771988630218864,-23.63190894497448],[-46.771992414356724,-23.631919795249885],[-46.77199902916271,-23.631926653629517],[-46.77198629633812,-23.631919845286983],[-46.771525082716245,-23.63141463431344]]]},"properties":{"Equipamento":"Terminal Campo Limpo","Modalidade da Concessão":"Parceria público-privada (PPP)","Concessionária":"SPE SP TERMINAIS NOROESTE S.A.","Investimento":11549000,"Prazo da Concessão":30,"Poder Concedente":"Secretaria Municipal de Mobilidade e Trânsito","Área":18982.1}},
{"type":"Feature","geometry":{"type":"Polygon","coordinates":[[[-46.662645365272574,-23.496609530047227],[-46.66257626433244,-23.496519449301033],[-46.66256554078699,-23.49650757156101],[-46.662533842757966,-23.496469025546524],[-46.66236018533198,-23.496237193624427],[-46.662244491771006,-23.49608578961301],[-46.66216748114235,-23.49597861839173],[-46.662163262042235,-23.49597166495343],[-46.66216340692143,-23.49596682318457],[-46.662167770601435,-23.49596110561593],[-46.662175233052906,-23.49595810921404],[-46.66218549124338,-23.495957873332944],[-46.66220015619677,-23.49596003763174],[-46.662215328747024,-23.495967542430666],[-46.6622283793413,-23.495976045139255],[-46.662237992629436,-23.495979816544185],[-46.66237221549318,-23.495991098860145],[-46.662701020271825,-23.496012908735416],[-46.66281985648856,-23.496186723563955],[-46.662805686099404,-23.49621226883089],[-46.66277701730721,-23.496237299713194],[-46.66274930740303,-23.496252058362774],[-46.662737576757785,-23.49626525939842],[-46.66272632544997,-23.496280767064633],[-46.66271587587965,-23.49630788812318],[-46.66269902825597,-23.496419709112466],[-46.66268386700494,-23.496592575651565],[-46.662676131992214,-23.496603503560184],[-46.66266550395361,-23.49660860170577],[-46.66265648481662,-23.49661082911444],[-46.662645365272574,-23.496609530047227]]]},"properties":{"Equipamento":"Terminal Casa Verde","Modalidade da Concessão":"Parceria público-privada (PPP)","Concessionária":"SPE SP TERMINAIS NOROESTE S.A.","Investimento":2571000,"Prazo da Concessão":30,"Poder Concedente":"Secretaria Municipal de Mobilidade e Trânsito","Área":2226.47}},
{"type":"Feature","geometry":{"type":"Polygon","coordinates":[[[-46.70074633198981,-23.520130514823588],[-46.70075732741918,-23.520186834728623],[-46.70077299666753,-23.520278337278672],[-46.70076168961424,-23.52023107076579],[-46.70075503127108,-23.520210860969847],[-46.70074596217661,-23.52018975553955],[-46.70072904542957,-23.52016486464366],[-46.70071347124706,-23.520151020971753],[-46.700700842347096,-23.52014857724768],[-46.700496622520056,-23.52023728630948],[-46.700519788587215,-23.520281654650756],[-46.70015646048631,-23.52044068163198],[-46.70009183434509,-23.52046171070869],[-46.70002366591481,-23.520492940946117],[-46.6999564951295,-23.52056143659768],[-46.699876717553344,-23.5205871307755],[-46.699806958272696,-23.520595152825035],[-46.699746538448125,-23.520623839424715],[-46.69965787290897,-23.52063292031248],[-46.69957469351474,-23.52066443618274],[-46.699571467263596,-23.520654256536876],[-46.69940280993108,-23.520726665738685],[-46.699420616779406,-23.52077840897193],[-46.69943451475393,-23.520772911397675],[-46.6994413040219,-23.52078777218918],[-46.69934734965929,-23.520821065325563],[-46.699286963113025,-23.520672894633435],[-46.69923367487005,-23.520543586197512],[-46.6992237761728,-23.520517037337275],[-46.69921931811617,-23.520499314722873],[-46.699216518014104,-23.520482585382467],[-46.69921459434109,-23.52045479360332],[-46.69921661415667,-23.52042905376242],[-46.69921824979189,-23.520416104770014],[-46.6992225208893,-23.520400959777145],[-46.69922895734077,-23.520383614885635],[-46.69924282107943,-23.520346774145814],[-46.69928901122213,-23.520213084597412],[-46.69933646526375,-23.52017272923448],[-46.69932173177222,-23.52014579249261],[-46.699396054723415,-23.52010050680482],[-46.69941419467725,-23.520087442635564],[-46.69942360748981,-23.52007996406228],[-46.69943948716644,-23.520070858992547],[-46.699460273656435,-23.520063174063672],[-46.69948538325343,-23.520060031942226],[-46.699514800739195,-23.52005315487871],[-46.69954599439146,-23.5200462584162],[-46.699576405632264,-23.52003379800211],[-46.699599050658804,-23.520018553512763],[-46.69961202688754,-23.52000480794393],[-46.69962984091408,-23.51999412403805],[-46.69964257212902,-23.519988904674765],[-46.69966806204837,-23.51998075929608],[-46.699701911356875,-23.519973013869752],[-46.699719440364596,-23.519967741206592],[-46.69973394458772,-23.519962256855763],[-46.69975336061914,-23.519951718887793],[-46.69979708338018,-23.519923870223188],[-46.69982908439319,-23.519896805142235],[-46.69984367103631,-23.51988386190402],[-46.699853890089685,-23.519876866643305],[-46.69987013460202,-23.51986849440558],[-46.69988783029541,-23.51986240087195],[-46.69990695612298,-23.519856947304692],[-46.69992820708417,-23.519850814939392],[-46.699959383823725,-23.519842607408098],[-46.69999410739874,-23.519833704643887],[-46.70043129854346,-23.51963857247296],[-46.70053923565267,-23.519585292212916],[-46.70055110992152,-23.519583502750056],[-46.70055971034572,-23.519583686014215],[-46.7005686693935,-23.5195883822258],[-46.70057403976689,-23.519593946608946],[-46.70058074619008,-23.519602355331095],[-46.700559362611344,-23.519618815173335],[-46.70055163656177,-23.519608942971196],[-46.70052044996244,-23.519628875432588],[-46.70065351490472,-23.519746660770306],[-46.70074027264138,-23.519828994928115],[-46.70071586209639,-23.519953443841672],[-46.70071973873165,-23.51997902354391],[-46.70073269935096,-23.52004706384398],[-46.70074633198981,-23.520130514823588]]]},"properties":{"Equipamento":"Terminal Lapa","Modalidade da Concessão":"Parceria público-privada (PPP)","Concessionária":"SPE SP TERMINAIS NOROESTE S.A.","Investimento":34838000,"Prazo da Concessão":10,"Poder Concedente":"Secretaria Municipal de Mobilidade e Trânsito","Área":10667.98}},
{"type":"Feature","geometry":{"type":"Polygon","coordinates":[[[-46.70225260388468,-23.56715347127468],[-46.70185620720836,-23.567013405447614],[-46.701758251890745,-23.566903549111924],[-46.70167219765198,-23.56695481500275],[-46.70158248266542,-23.56703262959127],[-46.701530300987265,-23.567083896590276],[-46.70147354145163,-23.56715804892344],[-46.70139481134272,-23.56724776487997],[-46.7013792487488,-23.567266989592614],[-46.70130509608528,-23.567212061450217],[-46.701279462753924,-23.56669207652257],[-46.70122773893865,-23.565969773100818],[-46.70123368947768,-23.5658580863853],[-46.70126115339881,-23.56581597474315],[-46.702141832296945,-23.565737244199205],[-46.70218669064561,-23.565748230133448],[-46.702517173579494,-23.565826044378518],[-46.702576679462155,-23.565821467164895],[-46.702650831739966,-23.565799496504187],[-46.702686535598275,-23.565792172082936],[-46.7026535784125,-23.565966110830175],[-46.70265952900213,-23.565991972761015],[-46.70257439059057,-23.566232054042086],[-46.70251946286373,-23.566381733072735],[-46.7024471408214,-23.566609684684693],[-46.7024075466927,-23.56673510350782],[-46.7023739037149,-23.56684038240117],[-46.70225260388468,-23.56715347127468]]]},"properties":{"Equipamento":"Terminal Pinheiros","Modalidade da Concessão":"Parceria público-privada (PPP)","Concessionária":"SPE SP TERMINAIS NOROESTE S.A.","Investimento":16715000,"Prazo da Concessão":30,"Poder Concedente":"Secretaria Municipal de Mobilidade e Trânsito","Área":18168.73}},
{"type":"Feature","geometry":{"type":"Polygon","coordinates":[[[-46.72535380259818,-23.48595482954328],[-46.72533621387697,-23.485915291058255],[-46.7253084176125,-23.485813595093163],[-46.72530427987884,-23.48578452794326],[-46.72530651095064,-23.485751344803656],[-46.725309738801094,-23.485728553274527],[-46.7253158507871,-23.48569868635307],[-46.725322957303014,-23.485667002404746],[-46.72533188957677,-23.4856432085872],[-46.725339186447506,-23.485626151252927],[-46.725348934434855,-23.485610872794073],[-46.72535629051772,-23.485602502639107],[-46.72537588213229,-23.485581100253498],[-46.72539840529843,-23.485560479015675],[-46.72541128915929,-23.485551450763598],[-46.72543224864982,-23.485537059527125],[-46.725451395439485,-23.485527817442613],[-46.725460245251746,-23.485524017118482],[-46.72548301732531,-23.48551424726357],[-46.725512663309466,-23.485505322356534],[-46.72555504375817,-23.485493944729654],[-46.72560705822622,-23.48548260488709],[-46.72566614128076,-23.48547277604152],[-46.725716622165734,-23.485469977536706],[-46.72574227753025,-23.485473377682602],[-46.725760850867154,-23.485480251564773],[-46.72578577552326,-23.48549370123832],[-46.72582428236644,-23.48551566935272],[-46.72586607046378,-23.48554301915954],[-46.72590658748802,-23.48557500643016],[-46.72596194225922,-23.48562171090509],[-46.72600465364173,-23.485659814292255],[-46.72605880561534,-23.485704364834177],[-46.726105834164485,-23.485744695948206],[-46.72616745302033,-23.48579577465249],[-46.72622210698226,-23.48584270350989],[-46.726269695384865,-23.48588241432207],[-46.7263711760234,-23.485967762025997],[-46.72640120846404,-23.48599302051796],[-46.72651161114168,-23.486086865899637],[-46.726606343154174,-23.486168188555283],[-46.72673803816824,-23.48627918974297],[-46.726863429280385,-23.48638724552862],[-46.72691589345269,-23.486431453242403],[-46.726973505253106,-23.486480010559248],[-46.72705707062426,-23.486551830616264],[-46.7271323466785,-23.486618541183674],[-46.72715009135903,-23.486639944423075],[-46.72716702618738,-23.486671325832365],[-46.72717441974044,-23.486691760195036],[-46.72717725527089,-23.486711016990938],[-46.72717831882798,-23.48673253288496],[-46.72717794361656,-23.486751825269895],[-46.72717537381966,-23.48677099749939],[-46.72717100193167,-23.48679011746341],[-46.727166441585055,-23.486800859612877],[-46.72716103040782,-23.486806337633244],[-46.72715857006096,-23.48680761105396],[-46.726884812696355,-23.487224494192056],[-46.72657539304042,-23.486950359513298],[-46.72668396155127,-23.48685671925634],[-46.726200832385985,-23.486412268079768],[-46.72600473157475,-23.48660158410166],[-46.725862176677026,-23.486469693199105],[-46.72569111142218,-23.486301966900673],[-46.725616816034226,-23.486226214656295],[-46.725531811542986,-23.48614003383399],[-46.72546698570891,-23.486075735141057],[-46.72539927679572,-23.486006628221087],[-46.72536139062147,-23.485966159540187],[-46.72535380259818,-23.48595482954328]]]},"properties":{"Equipamento":"Terminal Pirituba","Modalidade da Concessão":"Parceria público-privada (PPP)","Concessionária":"SPE SP TERMINAIS NOROESTE S.A.","Investimento":8090000,"Prazo da Concessão":30,"Poder Concedente":"Secretaria Municipal de Mobilidade e Trânsito","Área":14254.94}},
{"type":"Feature","geometry":{"type":"Polygon","coordinates":[[[-46.644547477402355,-23.535126447920113],[-46.643962600640194,-23.534750557062356],[-46.64394955976235,-23.534646936913063],[-46.64428967648728,-23.53415588812764],[-46.64437142300992,-23.5340743828561],[-46.64457180795955,-23.533822126084118],[-46.644584195354575,-23.533818021823656],[-46.64460912843944,-23.53382254432332],[-46.64461601237288,-23.53382693161351],[-46.644661255007385,-23.53385576476388],[-46.64522367876588,-23.534214193010374],[-46.64524319740576,-23.534232227773963],[-46.64524683174933,-23.534240948712846],[-46.645248698900836,-23.53424932712784],[-46.64524873462622,-23.534260072781944],[-46.645245247197295,-23.53427103629758],[-46.64523646471209,-23.53428937033194],[-46.64497076199962,-23.53466820062961],[-46.6446422636653,-23.535109010853006],[-46.644547477402355,-23.535126447920113]]]},"properties":{"Equipamento":"Terminal Princesa isabel","Modalidade da Concessão":"Parceria público-privada (PPP)","Concessionária":"SPE SP TERMINAIS NOROESTE S.A.","Investimento":7577000,"Prazo da Concessão":30,"Poder Concedente":"Secretaria Municipal de Mobilidade e Trânsito","Área":10638.02}},
{"type":"Feature","geometry":{"type":"Polygon","coordinates":[[[-46.67107776621035,-23.47594514807055],[-46.67091000081789,-23.47587249651231],[-46.67077050028776,-23.47580816029399],[-46.67056009050946,-23.475701618813456],[-46.67048393101913,-23.47565607363116],[-46.67041845668967,-23.475612526987803],[-46.67033518846853,-23.47554897931916],[-46.67026075569029,-23.475490502240618],[-46.67025244747048,-23.475489977205182],[-46.67024718452241,-23.47549183964996],[-46.67019275981266,-23.475517165718244],[-46.67010750719885,-23.475564157866334],[-46.67003489144832,-23.475571922573433],[-46.66981239836817,-23.47546671051454],[-46.66973502701715,-23.475750938807064],[-46.66969580325832,-23.47579397819249],[-46.66950203085824,-23.475659441103623],[-46.669353140073916,-23.475554433395907],[-46.66922384611805,-23.47546324871908],[-46.66953358991961,-23.47512219422029],[-46.66956149254879,-23.47505237677786],[-46.669561072799,-23.475030229128848],[-46.66954959212811,-23.475014097612256],[-46.66953288805751,-23.474999936454587],[-46.6695162312796,-23.47499256554836],[-46.66949234669236,-23.474983393754233],[-46.669432268450706,-23.47496398998397],[-46.66932998089112,-23.47492307660038],[-46.669279606364334,-23.474899956746256],[-46.66926005242768,-23.474885627409027],[-46.669234431682696,-23.474866847900458],[-46.66920115683058,-23.474833394891263],[-46.66908404289566,-23.474722213944222],[-46.66888930610537,-23.474724974370663],[-46.66889369692661,-23.47427799229196],[-46.668893010437394,-23.47427291560017],[-46.669006913184376,-23.474265555555178],[-46.66934314047303,-23.474244978460387],[-46.66989956146136,-23.47420625712558],[-46.66992109319373,-23.474210505482517],[-46.66994351306805,-23.474219981876065],[-46.66995735025571,-23.47423045323608],[-46.66997993471392,-23.474254556890536],[-46.67000699718609,-23.474307762264115],[-46.670042442391,-23.474519810485862],[-46.67007075330251,-23.47463484262252],[-46.67010614190639,-23.474745969186593],[-46.6701428630384,-23.474832302417177],[-46.67017434955606,-23.474893199286225],[-46.67018183487693,-23.474907675871773],[-46.67019279187021,-23.474928860867138],[-46.67025929424609,-23.47503550009392],[-46.670326194449416,-23.47512085972319],[-46.67040858892571,-23.47521136307969],[-46.67045102128561,-23.47525056116084],[-46.67049353310275,-23.475289847777205],[-46.67059143889887,-23.475368337093844],[-46.67069770136811,-23.47543875402658],[-46.670798644248094,-23.47549409318106],[-46.67098320100872,-23.475581333881653],[-46.67101032501076,-23.475595076143478],[-46.67108342789523,-23.475630332242307],[-46.67117615489959,-23.475766263979896],[-46.67107776621035,-23.47594514807055]]]},"properties":{"Equipamento":"Terminal Cachoerinha","Modalidade da Concessão":"Parceria público-privada (PPP)","Concessionária":"SPE SP TERMINAIS NOROESTE S.A.","Investimento":7913000,"Prazo da Concessão":30,"Poder Concedente":"Secretaria Municipal de Mobilidade e Trânsito","Área":18430.97}}
]}
