{"type":"FeatureCollection", "features": [
{"type":"Feature","geometry":{"type":"Polygon","coordinates":[[[-46.72983013283009,-23.829304399136596],[-46.72949482711263,-23.829626609970372],[-46.72934048069002,-23.829921009862744],[-46.72899886039478,-23.829767135588302],[-46.72917567993659,-23.829426990428278],[-46.72881450430846,-23.829290015640925],[-46.72899590547226,-23.828922524303852],[-46.72983013283009,-23.829304399136596]]]},"properties":{"Equipamento":"Cemitério de Parelheiros","Modalidade da Concessão":"Concessão","Concessionária":"CEMITÉRIOS E CREMATÓRIOS SÃO PAULO SPE S/A","Investimento":1559000,"Prazo da Concessão":25,"Poder Concedente":"São Paulo Regula","Área":5347.15}},
{"type":"Feature","geometry":{"type":"Polygon","coordinates":[[[-46.39745079835952,-23.534006795414886],[-46.39743397924073,-23.534131176773098],[-46.39741234127801,-23.5342911835084],[-46.39737880812287,-23.534533588353455],[-46.39736309311185,-23.534654663474086],[-46.39736007928336,-23.5346667216254],[-46.39734931596962,-23.534709767869828],[-46.39731721166646,-23.534803725613756],[-46.39730448066277,-23.53483880974356],[-46.3972570115375,-23.534969623657588],[-46.39721350205146,-23.535050147251948],[-46.39716036651473,-23.53509399121059],[-46.397151733600154,-23.53509828620285],[-46.39694497371272,-23.535132480847256],[-46.39687653887788,-23.535143908061123],[-46.396815632833444,-23.535154078275],[-46.396680261038945,-23.535176682503156],[-46.39641879505761,-23.53521938794322],[-46.396293516967276,-23.535232360909433],[-46.3962025858036,-23.535239312561824],[-46.39595244029042,-23.535245434043983],[-46.39588233659194,-23.535247149418794],[-46.395810997653875,-23.53524783456983],[-46.395748619177255,-23.535244628228657],[-46.395675580518294,-23.53524120049774],[-46.395610432011964,-23.53523854816454],[-46.39554528153841,-23.53523589491849],[-46.39547701611808,-23.535233597407554],[-46.39540671262456,-23.535231230544117],[-46.39534051466149,-23.53522900203197],[-46.39526903536674,-23.53522659598012],[-46.395150017788964,-23.535221066983794],[-46.39506326088848,-23.535217036782118],[-46.39497650399057,-23.53521300653181],[-46.3945020386633,-23.535199297923956],[-46.3940713795271,-23.535182927693448],[-46.39405108955658,-23.53507746486917],[-46.39400876427392,-23.534936057406483],[-46.393997853345184,-23.534939830776718],[-46.393874167639545,-23.53456760548375],[-46.39388989212574,-23.534552157074295],[-46.393909517422486,-23.534533223876135],[-46.39400364773336,-23.53443848528107],[-46.39421597827948,-23.534227307511422],[-46.39435179738731,-23.53409850954096],[-46.394402833491654,-23.53406088962659],[-46.394509952380794,-23.534013753239186],[-46.394593536313586,-23.533991898674415],[-46.39484263919667,-23.53392222233221],[-46.394920890097175,-23.53390086695251],[-46.39517675659974,-23.533823453105438],[-46.39526102283563,-23.53379759134093],[-46.3953798383209,-23.533754278875286],[-46.395493685629745,-23.533710857351778],[-46.39563671543919,-23.533670587717296],[-46.39585007803484,-23.533619770999543],[-46.39597173164295,-23.53358935598768],[-46.39608633262309,-23.533565407135903],[-46.39614847304821,-23.533559033623405],[-46.39617249074432,-23.533559116141937],[-46.396249997867926,-23.533566629839797],[-46.39628471675399,-23.533570924099614],[-46.396377790819535,-23.533582434237104],[-46.39646024661411,-23.533596658602168],[-46.39656486840948,-23.533617412066793],[-46.396565608661234,-23.533614235544167],[-46.396730214817254,-23.533648999433023],[-46.39672983889056,-23.533650501952295],[-46.396980524127436,-23.533708579425017],[-46.39695497473257,-23.533781417982386],[-46.397190618318554,-23.533889931862287],[-46.39745079835952,-23.534006795414886]]]},"properties":{"Equipamento":"Cemitério do Lageado","Modalidade da Concessão":"Concessão","Concessionária":"CEMITÉRIOS E CREMATÓRIOS SÃO PAULO SPE S/A","Investimento":10717000,"Prazo da Concessão":25,"Poder Concedente":"São Paulo Regula","Área":52858.57}},
{"type":"Feature","geometry":{"type":"Polygon","coordinates":[[[-46.44350567857536,-23.511706303021167],[-46.44344892452311,-23.51174551749138],[-46.44317541680022,-23.511592052191272],[-46.44282016686572,-23.511389105876503],[-46.44253022379341,-23.511221866930335],[-46.442043531398745,-23.510941313830116],[-46.44170228723733,-23.510736602315244],[-46.44150237787444,-23.510671233403546],[-46.4412592266955,-23.511044931323532],[-46.44141920608041,-23.51113697536139],[-46.44108444426614,-23.511607698309767],[-46.44093871043938,-23.511533114308428],[-46.44060207582386,-23.51133605025122],[-46.44027521832417,-23.511144728045192],[-46.43986757014327,-23.510906533156863],[-46.43889363971547,-23.510341693331416],[-46.43843157754574,-23.510073878283094],[-46.43838036373621,-23.509911885343616],[-46.438553520969144,-23.509644939674384],[-46.43868361414481,-23.509437020348592],[-46.43885040005237,-23.50917414206566],[-46.43900401799664,-23.50893236500396],[-46.43921012192657,-23.508608218606334],[-46.43938539358695,-23.508330686402438],[-46.43939302862929,-23.508317764851608],[-46.43940143900007,-23.508289682273553],[-46.43940708259225,-23.50824778540534],[-46.44323419670612,-23.508674985695603],[-46.443267496458226,-23.509087371812484],[-46.44329519220831,-23.50936067897457],[-46.44331914667997,-23.509638428774515],[-46.443353213594015,-23.509994002471387],[-46.44338450744992,-23.51037006674948],[-46.443428418532456,-23.510873232219954],[-46.44350567857536,-23.511706303021167]]]},"properties":{"Equipamento":"Cemitério da Saudade","Modalidade da Concessão":"Concessão","Concessionária":"CEMITÉRIOS E CREMATÓRIOS SÃO PAULO SPE S/A","Investimento":20733000,"Prazo da Concessão":25,"Poder Concedente":"São Paulo Regula","Área":134592.34}},
{"type":"Feature","geometry":{"type":"Polygon","coordinates":[[[-46.720440128991555,-23.53330833851748],[-46.720473277083435,-23.533430704672693],[-46.720584018171806,-23.533824926283696],[-46.72060288155724,-23.533876390271498],[-46.72061151666172,-23.533895281336935],[-46.7206399374448,-23.53394227450033],[-46.720735926900005,-23.53408828514177],[-46.72080678720569,-23.534185861109698],[-46.72086548690373,-23.53426539137028],[-46.72093578214089,-23.53435076129449],[-46.72099057880646,-23.53440489976359],[-46.721067748235235,-23.53448159517613],[-46.72115178153277,-23.534540850752258],[-46.7212184419082,-23.534581087980698],[-46.721264481257734,-23.53460204844275],[-46.721351688315025,-23.53464470408928],[-46.72140088996919,-23.53466482404105],[-46.72151860472404,-23.534718149647468],[-46.72168450174241,-23.534790840550855],[-46.72186306924393,-23.534869625373197],[-46.72201504182412,-23.534936306112147],[-46.72226072578924,-23.535043651823216],[-46.72250255490943,-23.535141870710486],[-46.72241687435112,-23.535296794022162],[-46.722514142864135,-23.535368880233374],[-46.72259525137423,-23.535428018352597],[-46.72263503493346,-23.53545048613309],[-46.722678098811095,-23.53547455833646],[-46.72272793117339,-23.535497646253294],[-46.72277987206048,-23.53552132665226],[-46.7228304389993,-23.535543813126893],[-46.72288678654357,-23.535565264839306],[-46.72293560441505,-23.53558384890547],[-46.722978542463046,-23.535594797264725],[-46.72305606354827,-23.535613998912332],[-46.723115631038524,-23.53562843285665],[-46.72322060601142,-23.535653315445177],[-46.723323412699024,-23.5356776756627],[-46.72335580117238,-23.535383202507454],[-46.72352804223155,-23.535446330513434],[-46.72350227337194,-23.53553950789834],[-46.72348589450388,-23.535622361068494],[-46.72345781072359,-23.53575592832127],[-46.7234288354309,-23.535908718637867],[-46.72338737707381,-23.53611113811286],[-46.72346214830877,-23.53611582985008],[-46.72361220096137,-23.536124304560566],[-46.72372256585086,-23.536130238960393],[-46.723888342917235,-23.536142413057366],[-46.723966851924324,-23.536147960716214],[-46.72402478944564,-23.536156339664647],[-46.72409207951437,-23.53617233019758],[-46.72422831869089,-23.536206256816705],[-46.72435945202804,-23.536234750554236],[-46.724315694313,-23.536281821464414],[-46.72428313690357,-23.53632460899395],[-46.72423860733867,-23.53639571553162],[-46.72420079737816,-23.536469677827196],[-46.7241631387779,-23.53656276493475],[-46.724133614712166,-23.53665222391744],[-46.72412714437847,-23.536682464942388],[-46.72411434491054,-23.536751749701686],[-46.72410356278721,-23.53680569356709],[-46.7240756415612,-23.536827438480955],[-46.72404273739198,-23.5368254625549],[-46.723996378892664,-23.536823986991],[-46.72393506165499,-23.536823684028352],[-46.723849091974294,-23.53682465835686],[-46.72376743349992,-23.536826977297668],[-46.723710261996644,-23.53683080289085],[-46.72364880856858,-23.536835531049416],[-46.72355963616018,-23.536845592402987],[-46.72346298518079,-23.536857392665034],[-46.723342956623526,-23.53687458270335],[-46.723306910854085,-23.53687947083372],[-46.72326370435388,-23.536884558376855],[-46.7233389789413,-23.53615379572262],[-46.72331843450534,-23.536147956929078],[-46.72329783837807,-23.5361380759614],[-46.72328092217403,-23.53613017514837],[-46.723259541856144,-23.536116258311885],[-46.72324257297479,-23.53610431443088],[-46.72322263614458,-23.536089033416207],[-46.723213655226544,-23.536072957403853],[-46.72320541262961,-23.536057546852945],[-46.72319629122655,-23.53603068873439],[-46.72318565413395,-23.53599980285335],[-46.72315200715578,-23.53599815371577],[-46.72305281594638,-23.536913179816473],[-46.72295243263428,-23.53692996233638],[-46.7226019089924,-23.53698053477108],[-46.72238097442762,-23.53701072761314],[-46.72224460452797,-23.537029894717175],[-46.72203367760066,-23.537058155825726],[-46.721779571199,-23.537094502363168],[-46.72150243985437,-23.537134382996555],[-46.72133659572618,-23.5371584555095],[-46.72117263419842,-23.537181795452522],[-46.721040143575685,-23.537197446547083],[-46.72099775657411,-23.537202155074386],[-46.72095371232564,-23.537204297527502],[-46.72089948768223,-23.537205499683918],[-46.72080220612995,-23.537202304594068],[-46.7207451869822,-23.53719897021599],[-46.72065845866758,-23.53719051931021],[-46.720584907127744,-23.537180027214077],[-46.72045544481214,-23.537155936537797],[-46.720320396812596,-23.537127388889644],[-46.72027523414441,-23.537114327001273],[-46.72022432067866,-23.537095486256195],[-46.72015881080432,-23.53706885955597],[-46.72008802335985,-23.537036917404695],[-46.72002779725109,-23.53700636285263],[-46.71994792098746,-23.536958453073286],[-46.71985176669312,-23.536899814922606],[-46.71976454913572,-23.536844763073866],[-46.71971702721004,-23.53681384942383],[-46.71968616904825,-23.536790184179612],[-46.71965143718595,-23.536759726008313],[-46.71961810824664,-23.53672749146293],[-46.71959212413125,-23.536698593593187],[-46.71958071730922,-23.536684752915807],[-46.71954388909372,-23.53663889096839],[-46.7195171302262,-23.536601550432668],[-46.71945412244299,-23.536496683865792],[-46.719321108744026,-23.536260156380795],[-46.7192806181116,-23.536185389035424],[-46.71926375582208,-23.536151785872676],[-46.719259299101104,-23.536136456060625],[-46.719253891782294,-23.53611083528165],[-46.71925320560386,-23.536085852223326],[-46.71930182275674,-23.535433287190017],[-46.71990669114791,-23.535468547786046],[-46.71992157690648,-23.53532801936568],[-46.719942681277246,-23.535128787430324],[-46.719921650835886,-23.53512750287982],[-46.719927840602644,-23.535069215067853],[-46.71994366742567,-23.53494916449858],[-46.719939099976706,-23.534949045227975],[-46.71994104093022,-23.534890815222468],[-46.719951137602294,-23.534889247958766],[-46.71995976386956,-23.534836518289357],[-46.71996255515414,-23.534779962985347],[-46.719969746987616,-23.53473117814424],[-46.71998499457908,-23.53467797524155],[-46.72000002382388,-23.534625530565975],[-46.72000023984867,-23.534623615614986],[-46.720004959127166,-23.53458179047033],[-46.72000824569966,-23.534571002968494],[-46.720035661540436,-23.534481007179526],[-46.720062643955586,-23.53441288693829],[-46.720062810765604,-23.53441027541216],[-46.72007156148301,-23.53436026691874],[-46.72007329818356,-23.534305312558903],[-46.72007468174811,-23.534251821357657],[-46.72007607284852,-23.534198005894325],[-46.72007656874398,-23.53417882782785],[-46.720081086260144,-23.534178950356743],[-46.720080948727365,-23.534142318805184],[-46.720077696364065,-23.534142782786706],[-46.720078030511054,-23.534082927074397],[-46.72007865044943,-23.53401861368254],[-46.7200802593363,-23.53393153997267],[-46.720081275678154,-23.53387654571531],[-46.72008303810878,-23.533835317634793],[-46.72010777469949,-23.533777967966866],[-46.72015955102301,-23.533698714966967],[-46.72017410258005,-23.53364697899877],[-46.72017232073795,-23.533592656811265],[-46.72016213916534,-23.53353708291891],[-46.72013472029001,-23.53344963030958],[-46.720094245453325,-23.5333205346118],[-46.720410100554076,-23.533290805530747],[-46.720440128991555,-23.53330833851748]]]},"properties":{"Equipamento":"Cemitério da Lapa","Modalidade da Concessão":"Concessão","Concessionária":"CEMITÉRIOS E CREMATÓRIOS SÃO PAULO SPE S/A","Investimento":6716000,"Prazo da Concessão":25,"Poder Concedente":"São Paulo Regula","Área":105796.42}},
{"type":"Feature","geometry":{"type":"Polygon","coordinates":[[[-46.68954863139365,-23.667712519143546],[-46.68954984135081,-23.667715124646744],[-46.68955044110621,-23.6677160211054],[-46.68955065804843,-23.667717644138964],[-46.689535379504996,-23.667795107553218],[-46.68920402205553,-23.66862749523489],[-46.68913036489573,-23.668617552708355],[-46.68816117173592,-23.66853546898799],[-46.6852305976796,-23.668292051722688],[-46.68521153522125,-23.66828106188151],[-46.68519565666167,-23.668266064197216],[-46.68518672053867,-23.668249636487374],[-46.68518280454891,-23.668234779568394],[-46.685181513246675,-23.668218178395012],[-46.68531081229439,-23.66769718495103],[-46.685317688313795,-23.66768293302921],[-46.68532607291285,-23.667671644598975],[-46.68533827816561,-23.667660134002826],[-46.68535277040755,-23.667651126928327],[-46.68536771379643,-23.667646720250115],[-46.68538651604758,-23.667645070891815],[-46.685598200029894,-23.66766182106967],[-46.68561597449317,-23.667633544335928],[-46.68577113441762,-23.667600160643453],[-46.685824094169966,-23.66734177664498],[-46.685915766794395,-23.66689903093228],[-46.68597828978068,-23.666599004766],[-46.68603178488438,-23.66633655227546],[-46.68608626077649,-23.666066503884934],[-46.686142791609285,-23.665780810290112],[-46.686182163529416,-23.66559436355389],[-46.6865402585379,-23.66564518754765],[-46.68751144345412,-23.665777286115713],[-46.68795428553519,-23.665837576290514],[-46.68810776826815,-23.665858471749466],[-46.68916307202413,-23.665998221687047],[-46.68926513307122,-23.666013814358518],[-46.68934900630766,-23.666040621891067],[-46.68939198476972,-23.66605884532872],[-46.6894199389549,-23.666075155693203],[-46.68944436430035,-23.666091504534634],[-46.68947455509541,-23.666114021197988],[-46.68950304182759,-23.666141252038408],[-46.689785591294594,-23.666393359107467],[-46.689749377691854,-23.666474301687103],[-46.689707407380794,-23.666488755957687],[-46.68968274664823,-23.666499860927043],[-46.6896622928103,-23.666510287909702],[-46.68963424998515,-23.666525222358445],[-46.68961362562658,-23.666537637794548],[-46.68958251102388,-23.666557662535674],[-46.689557337566036,-23.666574642577302],[-46.68952616670445,-23.666597918721084],[-46.689495311955,-23.666622907111474],[-46.689464593517194,-23.666650873909422],[-46.68943468711165,-23.666680999046232],[-46.68940850114169,-23.666710812706217],[-46.68938332307268,-23.66674269227102],[-46.689361400674095,-23.6667761617297],[-46.68933673188971,-23.66681715603364],[-46.68931903842937,-23.666851662971897],[-46.689304138376144,-23.666889932047663],[-46.68931880199454,-23.66689428714784],[-46.68927617152622,-23.667048082303747],[-46.68925688287205,-23.667065269031628],[-46.689247563887434,-23.667125871644284],[-46.68924831837602,-23.66715650310836],[-46.68924858898593,-23.667167488763894],[-46.68925003628417,-23.667196188380366],[-46.68925682857702,-23.667236478412644],[-46.689270496040876,-23.66730062297287],[-46.689283593864694,-23.66735095784378],[-46.68930315497336,-23.667408355932416],[-46.68931935649218,-23.66744845305508],[-46.68932991483248,-23.667469016615993],[-46.68935602613456,-23.667509728068726],[-46.68939208034539,-23.667561257384662],[-46.68941659248885,-23.66759196296601],[-46.68944385050656,-23.667622729800378],[-46.68946857898449,-23.6676473829141],[-46.6894966472752,-23.66767254139937],[-46.689522497516556,-23.66769293817044],[-46.68954863139365,-23.667712519143546]]]},"properties":{"Equipamento":"Cemitério do Campo Grande","Modalidade da Concessão":"Concessão","Concessionária":"CEMITÉRIOS E CREMATÓRIOS SÃO PAULO SPE S/A","Investimento":17028000,"Prazo da Concessão":25,"Poder Concedente":"São Paulo Regula","Área":110424.55}}
]}
