{"type":"FeatureCollection", "features": [
{"type":"Feature","geometry":{"type":"Polygon","coordinates":[[[-46.68729242254408,-23.55848350356871],[-46.68626161400633,-23.55993364003162],[-46.686227088826115,-23.55998162134332],[-46.6861580980464,-23.560077499319956],[-46.686088264971126,-23.560174547679175],[-46.686079822125826,-23.5601807797367],[-46.68606573764428,-23.56018246762146],[-46.6860452199012,-23.560178987809262],[-46.68602885271519,-23.560170677012234],[-46.68557438996967,-23.559891698309208],[-46.685140945738794,-23.55963235571292],[-46.684702654214554,-23.559369091997162],[-46.68428954384313,-23.559122453119517],[-46.684401181593984,-23.558990399681853],[-46.684243335583545,-23.55890980475298],[-46.68420498731652,-23.55895453828844],[-46.6840771140154,-23.55889050119494],[-46.68412574964341,-23.55884460152508],[-46.683955792089954,-23.55875675084578],[-46.68386739468173,-23.558871142156374],[-46.68368747206878,-23.55875854548131],[-46.683280479580056,-23.558514262056903],[-46.68277552090795,-23.55820755699033],[-46.68237021284835,-23.557964516993746],[-46.682349494879396,-23.557883740862934],[-46.6825233083165,-23.557632808669297],[-46.68273181057074,-23.557329125148506],[-46.68298968704107,-23.556956639971045],[-46.683235238099606,-23.556600903311043],[-46.68352251821817,-23.556191526052835],[-46.68356376005469,-23.556184035957077],[-46.68415897608305,-23.556548096670912],[-46.68466760887302,-23.556858911491297],[-46.68513031730733,-23.557140243183625],[-46.68524344533345,-23.557208458625905],[-46.685144015169236,-23.557326223733355],[-46.685347476739835,-23.55743850670765],[-46.68542246112352,-23.55731984612467],[-46.685923478598596,-23.557624509201695],[-46.68626727749173,-23.55783714232846],[-46.686544641557845,-23.55800200360702],[-46.68727746562793,-23.55844754541852],[-46.68729242254408,-23.55848350356871]]]},"properties":{"Equipamento":"Cemitério São Paulo","Modalidade da Concessão":"Concessão","Concessionária":"SPE CONSÓRCIO CORTEL SP S/A","Investimento":6253000,"Prazo da Concessão":25,"Poder Concedente":"São Paulo Regula","Área":104764.86}},
{"type":"Feature","geometry":{"type":"Polygon","coordinates":[[[-46.67539029990755,-23.551306721497763],[-46.67447851486451,-23.551648190169153],[-46.674780985935406,-23.55227690894969],[-46.67458645783939,-23.55235511753339],[-46.673635384723454,-23.552745979888844],[-46.67274782236682,-23.553109332907894],[-46.67204330469644,-23.553385377629],[-46.671841948920786,-23.55347351006445],[-46.671522662439145,-23.55360860277663],[-46.67118097209303,-23.553746013506068],[-46.670896316024866,-23.55386213060258],[-46.6703835059152,-23.55406991662205],[-46.67003102241506,-23.55421376109927],[-46.66962328839226,-23.554380683270196],[-46.66931941478891,-23.55450332508569],[-46.66900349520009,-23.55463404219941],[-46.66869671176554,-23.554759061929495],[-46.66831692506414,-23.55491312890855],[-46.66782929628762,-23.555113435066374],[-46.66772668810941,-23.555155815408856],[-46.667596542490905,-23.554892847208897],[-46.667537072806105,-23.55477268641656],[-46.6671155352252,-23.553893541442584],[-46.66701545276537,-23.553686738619806],[-46.66700239961158,-23.55366028014099],[-46.666846741881486,-23.553331840343105],[-46.66676052359092,-23.553148168512216],[-46.66675919906853,-23.5531416304034],[-46.66675859601619,-23.553134978907526],[-46.66675854118127,-23.553128301668607],[-46.66676007518392,-23.553115025291465],[-46.666763765737464,-23.553102105968204],[-46.66676688905429,-23.5530960917918],[-46.66677314716668,-23.553084041643338],[-46.66678669542153,-23.553068374414945],[-46.66679824262222,-23.553060329348508],[-46.6668163257634,-23.553049136727935],[-46.66733711634684,-23.552835585985004],[-46.667656471954736,-23.5527057385226],[-46.668062880483205,-23.5525426285044],[-46.668405629635735,-23.552403769321728],[-46.66870854849956,-23.55227563127943],[-46.66876616063753,-23.552253521146902],[-46.668804912929694,-23.552250576796304],[-46.669551357694296,-23.55226152728188],[-46.669767141131906,-23.552123799925045],[-46.67005673577199,-23.551938960130613],[-46.670939770358025,-23.551372400856085],[-46.671504746138,-23.551138948821617],[-46.671378136617285,-23.55088674230255],[-46.67162658987341,-23.550781940298062],[-46.672025570138906,-23.550621066565178],[-46.67295010582571,-23.55024702608015],[-46.67333218839085,-23.550090124494997],[-46.673676477180095,-23.54995006369924],[-46.67398335130212,-23.549825665929983],[-46.67436020229065,-23.549673604228637],[-46.67457076338621,-23.549585821215004],[-46.67539029990755,-23.551306721497763]]]},"properties":{"Equipamento":"Cemitério do Araçá","Modalidade da Concessão":"Concessão","Concessionária":"SPE CONSÓRCIO CORTEL SP S/A","Investimento":11641000,"Prazo da Concessão":25,"Poder Concedente":"São Paulo Regula","Área":222160.66}},
{"type":"Feature","geometry":{"type":"Polygon","coordinates":[[[-46.70169199098085,-23.652460893623093],[-46.70162867992771,-23.65333334343351],[-46.70159983162653,-23.65335388730812],[-46.70091857247868,-23.65318952496451],[-46.70063250651759,-23.653356757836974],[-46.70059711950691,-23.65337744461723],[-46.7001500672605,-23.65363925222619],[-46.700143779809046,-23.653613625489772],[-46.70006428306352,-23.65328964943494],[-46.699965687524696,-23.652889257088273],[-46.69988515513347,-23.652551515190147],[-46.69982810787788,-23.652331899613223],[-46.69976118954408,-23.652053877971774],[-46.6997042909397,-23.651822972305407],[-46.69964791879813,-23.65160244621277],[-46.699600617683465,-23.651393259799757],[-46.69962941454607,-23.651351521685953],[-46.70000088267059,-23.651145157277405],[-46.7000162318881,-23.65114700441837],[-46.70003576108786,-23.651165169844415],[-46.70028456101331,-23.65153140487352],[-46.70034600344773,-23.651620705566998],[-46.70048720399307,-23.65182115803335],[-46.70054820670362,-23.651906905643223],[-46.700574618977626,-23.65194815375665],[-46.70080962662257,-23.65205718561369],[-46.701625330191376,-23.652430381787532],[-46.70169199098085,-23.652460893623093]]]},"properties":{"Equipamento":"Cemitério de Santo Amaro","Modalidade da Concessão":"Concessão","Concessionária":"SPE CONSÓRCIO CORTEL SP S/A","Investimento":3007000,"Prazo da Concessão":25,"Poder Concedente":"São Paulo Regula","Área":30169.58}},
{"type":"Feature","geometry":{"type":"Polygon","coordinates":[[[-46.67181001049808,-23.47893162092119],[-46.67185745444451,-23.479029250116692],[-46.671880285969884,-23.479139403680637],[-46.67186741364847,-23.479252499398253],[-46.671827541810444,-23.479330114985974],[-46.671767080891165,-23.47939477265295],[-46.67167399106964,-23.47946354497534],[-46.671583221709355,-23.47950485122183],[-46.67149612187176,-23.47954284279118],[-46.67144978737338,-23.47955109577782],[-46.67140055430775,-23.4795519109105],[-46.67120163165016,-23.47953419005903],[-46.67092565057336,-23.479508700993613],[-46.67061596678605,-23.479477228930307],[-46.670472914759536,-23.47946497569871],[-46.670289336798916,-23.479451589889056],[-46.67012871463335,-23.47943551158192],[-46.669954799694096,-23.47940520297066],[-46.66981045652665,-23.47938004697635],[-46.669672177934366,-23.479334648663844],[-46.66951243317296,-23.47929174585348],[-46.6694492601754,-23.479280108855683],[-46.669353304532194,-23.47928113661881],[-46.66915726254213,-23.47931941143588],[-46.66898395622543,-23.479358205612748],[-46.66866492251772,-23.479418914963304],[-46.6683665324743,-23.479482033215888],[-46.66819465371052,-23.479518390238905],[-46.66783892201339,-23.479585517510547],[-46.66775293337587,-23.479608197875145],[-46.667624787937655,-23.47963155682004],[-46.66750305457035,-23.479632859262615],[-46.6673403557872,-23.479642076010236],[-46.66700722290535,-23.47965270740464],[-46.66680827287695,-23.479665277766262],[-46.66653917440607,-23.47966971217297],[-46.66606398811595,-23.479677543035105],[-46.66566398472825,-23.479684132828435],[-46.66488486787011,-23.480325834450763],[-46.66458635159455,-23.48026825282691],[-46.664273950413595,-23.480207084865526],[-46.66394227803417,-23.480147567752844],[-46.66373068916449,-23.480109599364773],[-46.66364362798647,-23.480229014078365],[-46.663441167015584,-23.480506712352085],[-46.66311270802757,-23.480297619558925],[-46.66287745801801,-23.480150775156407],[-46.66266294789838,-23.48002151954946],[-46.66263027561565,-23.480001831697688],[-46.66262465676945,-23.479995633651576],[-46.66262206800004,-23.479989051100784],[-46.662619819262275,-23.479976793905358],[-46.662620882894764,-23.479965585008994],[-46.66262388830816,-23.47995464436763],[-46.662639064392216,-23.479932909131065],[-46.66273035315464,-23.479798386428147],[-46.662877522976416,-23.479599775577682],[-46.66299442345058,-23.47944821024994],[-46.66317763221311,-23.47922259244352],[-46.66333043688671,-23.479036319659485],[-46.6634208168738,-23.478930053015254],[-46.663560438457736,-23.47882889837239],[-46.66372114650494,-23.478709657542982],[-46.66391217729621,-23.47857222464235],[-46.66406834004771,-23.47846716709848],[-46.664284866475846,-23.478333995672525],[-46.664490025599484,-23.478216591214462],[-46.66477645561545,-23.47806275816136],[-46.66504013161951,-23.477939038929833],[-46.665274566611416,-23.47781989848647],[-46.66515471078696,-23.477473626180046],[-46.66513290752897,-23.477421897983838],[-46.66542632403871,-23.477302837939067],[-46.66644034263581,-23.476822966946024],[-46.66655230453638,-23.477020193924584],[-46.66713083059062,-23.476785800704583],[-46.66727219199367,-23.47674721585295],[-46.66794239868004,-23.476725537673204],[-46.66852061158978,-23.476748501810096],[-46.66936278332741,-23.476821726020372],[-46.669819530715465,-23.476872621779847],[-46.669963540511844,-23.47689228023533],[-46.670145307251005,-23.476942012040023],[-46.670333574520896,-23.477026568701387],[-46.67046559838005,-23.47712188602798],[-46.67059503224977,-23.4772397569754],[-46.671222184153464,-23.478044942705868],[-46.671619975478706,-23.47856863275582],[-46.67181001049808,-23.47893162092119]]]},"properties":{"Equipamento":"Cemitério Vila Nova Cachoerinha","Modalidade da Concessão":"Concessão","Concessionária":"SPE CONSÓRCIO CORTEL SP S/A","Investimento":34889000,"Prazo da Concessão":25,"Poder Concedente":"São Paulo Regula","Área":227597.77}},
{"type":"Feature","geometry":{"type":"Polygon","coordinates":[[[-46.7464195058664,-23.390100880085637],[-46.74640539864102,-23.390443376258254],[-46.745761863351326,-23.392428862841903],[-46.74542359741795,-23.392998156564186],[-46.74543363757781,-23.393430260556922],[-46.745371513806106,-23.393531938903042],[-46.74531790261492,-23.393615345467143],[-46.74526887953478,-23.393714858351096],[-46.745235065073054,-23.393806122159525],[-46.74515913409484,-23.394023078537213],[-46.74510209992899,-23.394179231872574],[-46.745018864792115,-23.394339717804478],[-46.74486614626732,-23.394541373831224],[-46.74459480612092,-23.39470799869953],[-46.74443514464811,-23.39471382004206],[-46.74438867049693,-23.394673944381726],[-46.743890028438074,-23.39486128252995],[-46.74365645550739,-23.39490428301822],[-46.742457417154604,-23.39516203962643],[-46.7424455678713,-23.394758231232764],[-46.742027251592326,-23.39439530823523],[-46.74207994046123,-23.394241223415698],[-46.7421307580636,-23.394111396272805],[-46.742156007806116,-23.394034366052896],[-46.74216847462053,-23.393983734287186],[-46.742174589122406,-23.393949330917174],[-46.74217817192641,-23.393888700703748],[-46.74217059759046,-23.39381153068038],[-46.742153568476525,-23.393764258207103],[-46.742136617651276,-23.39372304316389],[-46.74210630170559,-23.393663799466292],[-46.742073904238694,-23.393612658207967],[-46.742051576859105,-23.39357857185638],[-46.74202269904577,-23.39354556898122],[-46.74198052219028,-23.39349958543755],[-46.74193514280183,-23.393459697685913],[-46.741897539583604,-23.393428811165226],[-46.74182250589338,-23.39338016505764],[-46.74171006721683,-23.39331577725293],[-46.741608805456266,-23.39326944244645],[-46.741535062683845,-23.393235929830794],[-46.74146138693263,-23.393207464268478],[-46.74139543451428,-23.39318396316512],[-46.74132394703794,-23.393155474056886],[-46.74123813207236,-23.393119065283784],[-46.74117210051242,-23.39308950575245],[-46.741123506661566,-23.39305470229472],[-46.74110239205735,-23.393029691095403],[-46.74107705937226,-23.392974936510765],[-46.74107434307498,-23.39293457232793],[-46.74107223960233,-23.39289925096202],[-46.7410735047394,-23.392870456066465],[-46.741080467786446,-23.392775452060004],[-46.741085119277784,-23.39271278989789],[-46.741087608963255,-23.392652170952044],[-46.741088319715615,-23.392622877447597],[-46.741093048247095,-23.39248245514628],[-46.741102482242766,-23.392367226840957],[-46.74111381397748,-23.392229760585643],[-46.74111924220567,-23.3921428529206],[-46.74114901936465,-23.391742619551323],[-46.74114374624708,-23.391674008726643],[-46.741142663692685,-23.391591212757643],[-46.74113330466515,-23.39154486425612],[-46.74112175843029,-23.391498539214464],[-46.74098610342245,-23.390997143730615],[-46.74098749554418,-23.3907689017823],[-46.74118684643158,-23.390619242813262],[-46.74125012088205,-23.390605409967293],[-46.74141301995695,-23.390596526437275],[-46.741545289567405,-23.39058798400551],[-46.7416720109621,-23.390573443168922],[-46.741805149610045,-23.390547723672015],[-46.74186621034113,-23.39053189521114],[-46.741911744551714,-23.390500082160074],[-46.74196719005004,-23.390473208285698],[-46.74214077501222,-23.390361200141932],[-46.7425174381588,-23.390133824025188],[-46.742533661937344,-23.390119505610805],[-46.74259034605558,-23.390103725669437],[-46.742649205106844,-23.39008691189339],[-46.742734159543126,-23.390057688738146],[-46.742938939778846,-23.389988755087156],[-46.743107068908856,-23.389961634790044],[-46.743300331844445,-23.38993221306735],[-46.743492897655166,-23.389933094925645],[-46.7434907227172,-23.389934128751744],[-46.74368129866647,-23.389950180591335],[-46.743836896502295,-23.389968641554397],[-46.74395092534143,-23.38998756704895],[-46.74411335118498,-23.390026148306514],[-46.74430416533906,-23.390060374336247],[-46.744427025282604,-23.390085259230613],[-46.744578353819406,-23.390111846328555],[-46.74464965501535,-23.390126197634498],[-46.74599004166445,-23.39013900248953],[-46.7464195058664,-23.390100880085637]]]},"properties":{"Equipamento":"Cemitério Dom Bosco","Modalidade da Concessão":"Concessão","Concessionária":"SPE CONSÓRCIO CORTEL SP S/A","Investimento":38478000,"Prazo da Concessão":25,"Poder Concedente":"São Paulo Regula","Área":225437.73}}
]}
